VENDOR_SITE_CODE,ADDRESS_LINE1,ADDRESS_LINE2,ADDRESS_LINE3,ADDRESS_LINE4,CITY,STATE,COUNTRY,ZIP
"Shangduo (China","Zhiguang Industrial Zone",,,,Wenzhou,,CN,325604
"Qingyue (China)","Weipan Industrial Zone",,,,Wenzhou,,CN,325604
"MCS Progress US","7100 CARVED STONE",,,,COLUMBIA,MD,US,21045
"Eiffage (UK)","3342 Union Way",,,,London,England,GB,"SE1 9DT"
"Eiffage (USA)","9940 Lander Way",,,,Springfield,MA,US,01102
北京总部,????8???????A?,,,,"Chaoyang Qu",,CN,
"HQ - Milano","Corso Buenos Aires",,,,Milano,,IT,20100
"HQ - Fabriano","Viale Aristide Merloni n. 47",,,,Fabriano,,IT,60044
"Medtronic HC","710 Medtronic Parkway",,,,Minneapolis,MN,US,55432
"Cardinal HC PAY","PO BOX 1200",,,,Dublin,OH,US,43017
"Lee Healthcare","3200 Fairlawn",,,,"La Canada",CA,US,91011
"FS Univ US","2100 Angeles Crest ",,,,"La Canada",CA,US,91011
"Windsor (France","321 Rue de Palace",,,,Paris,,FR,75002
"EIP Progress US","6711 RITCHIE HWY",,,,"GLEN BURNIE",MD,US,21061
"OD Progress US","3702 PENDER DR",,,,FAIRFAX,VA,US,22030
"MK Supplies (Ch","No. 8, Jinping rd., Henan Industrial Zone, Jinxia Village, Chang'an Town",,,,Dongguan,,CN,523852
"TAX PAYMENTS","INTERNAL REVENUE SERV.","PO BOX 804522",,,CINCINNATI,OH,US,45280
"IRS Univ US","INTERNAL REVENUE SERV.","PO BOX 804522",,,CINCINNATI,OH,US,45280
"TAX PAYMENTS","INTERNAL REVENUE SERV.","PO BOX 804522",,,CINCINNATI,OH,US,45280
"Prog US Tax","INTERNAL REVENUE SERV.","PO BOX 804522",,,CINCINNATI,OH,US,45280
"TAX PAYMENTS","INTERNAL REVENUE SERV.","PO BOX 804522",,,CINCINNATI,OH,US,45280
"AC Netherlands","Molukkenstraat 101a",,,,Amsterdam,,NL,"1095 AZ"
"CDW Healthcare","532 Lake St",,,,"Los Angeles",CA,US,90001
"Dell Australia","101 Collins St",,,,Melbourne,Victoria,AU,3000
"HQ-Juan Asesor","Av Colmenar Viejo, 15, 2º, A","Tres Cantos",,,Madrid,,ES,28760
"Dell Netherland","Turfstekerstraat 15",,,,"GD Aalsmeer",,NL,1431
"GFS US1","1 Glenlake Pkwy",,,,Atlanta,GA,US,30328
"Dell US INS","999 Greenlawn Blvd",,,,"Round Rock",TX,US,78664
"InterChina US1","No. 1 Jian Guo Men Wai Da Jie","China World Trade Center Tower 2",,,,,CN,100004
"InterChina FR","No. 1 Jian Guo Men Wai Da Jie","China World Trade Center Tower 2",,,,,CN,100004
"InterChina UK","No. 1 Jian Guo Men Wai Da Jie","China World Trade Center Tower 2",,,,,CN,100004
"Lee Univ US","208 S AKARD ST",,,,DALLAS,TX,US,75202
"MCS Japan",1-2-3,,,,MINAMIAOYAMA,Tokyo,JP,1070062
"HQ - Milano","Piazza degli Affari n 8 ",,,,Milano,,IT,40121
"Lee Australia","210 Smith St",,,,Morwell,Victoria,AU,3840
"Lee Australia","210 Smith St",,,,Morwell,Victoria,AU,3840
"MCS Netherlands","J.H. Hisgenpad 1",,,,Amsterdam,,NL,"1025 WK"
"HQ - Roma","Via Rossa",,,,Roma,,IT,00100
Corporate,"275 N Field Drive",,,,"Lake Forest",IL,US,60045
"AC US INS","500 Main",,,,"La Crescenta",CA,US,91214
"Lee Canada","3975, rue St-Ambroise",,,,Montreal,,CA,"H4C 2E1"
"Dell FinSvcs UK","75 Drayton park",,,,London,,GB,N51BU
"Dell Sweden","Gamla Brogatan 23 A",,,,Stockholm,,SE,"111 20"
"Lee Sweden","Grevgatan 38",,,,Stockholm,,SE,"114 53"
"OD Sweden","Kanngjutargränd 50",,,,Vällingby,,SE,"162 57"
"EIP Sweden","Box 68",,,,Danderyd,,SE,"182 11"
"OD Healthcare","9900 Brand Blvd",,,,Glendale,CA,US,91204
"HQ - Madrid","Av Severo Ochoa, 15",Alcobendas,,,Madrid,,ES,28015
"MCS Univ US","5 BLOSSOM ST",,,,BOSTON,MA,US,02114
"NEP Osaka",1-2-3,,,,Fukushima-ku,Osaka,JP,553-0003
北京,?????????93?????B?,,,,"Chaoyang Qu",,CN,
"JGA Sweden",Tulpanvägen,,,,Älmhult,,SE,"343 34"
"High Tech CM","225 N 9th St #STE 520",,,,Boise,ID,US,83702
"USFS UK","61 Southwark Bridge Rd",,,,London,England,GB,"SE1 9DT"
"HQ - Boca Raton","6600 N Military Trl",,,,"Boca Raton",FL,US,33496
"JGA Healthcare","4100 Pine Way",,,,"Los Angeles",CA,US,90003
"McKesson HC","One Post Street",,,,"San Francisco",CA,US,94104
"HQ - Paris","92 Rue Claude Decaen",,,,Paris,,FR,75012
"ABC US1","1100 ABERNATHY ROAD",,,,ATLANTA,GA,US,30328
"NPD US1","10101 PEACHTREE INDUSTRIAL BLVD",,,,ATLANTA,GA,US,30360
"USFS US1","PO BOX 4415",,,,"NEW YORK",NY,US,10163
"NC Chiba",1-2-3,,,,Shiohama,Chiba,JP,272-0127
上海保税区,??????,,,,,,CN,
"OD Australia","101 Park St",,,,Geelong,Victoria,AU,3214
"Delhi ","5345 10th St",,,,Seattle,WA,US,
"Amazon US1","5345 10th St",,,,Seattle,WA,US,
"HQ - Barcelona","Gran Via de les Corts Catalanes, 25",,,,Barcelona,,ES,08015
"HQ - Roma","Largo dei Caduti di El Alamein, 20",,,,Roma,,IT,00173
Corporate,"1 Becton Drive",,,,"Franklin Lakes",NJ,US,07417
"CS Fin Svcs UK","51 Crossgate",,,,London,,GB,"DH1 4PR"
"USFS France","500 Quai du Docteur-Dervaux",,,,Paris,,FR,75004
"Staffing Univ U","1390 MARKET ST",,,,"SAN FRANCISCO",CA,US,94103
"Dell Univ US","109 S HARRIS ST",,,,"ROUND ROCK",TX,US,78664
"Dell Japan",1-2-3,,,,MOTOAKASAKA,Tokyo,JP,1070051
总部,???750?,,,,,,CN,201199
"NPD UK","5 New Street Square",,,,London,England,GB,"EC2M 2RB"
"Staples Prog US","10257 EAGLE NEST CT",,,,FAIRFAX,VA,US,22032
"Dell (China)","BJR Development Center",,,,"Fangshan Qu",,CN,
"Dell (China)","BJR Development Center",,,,"Fangshan Qu",,CN,
"Lee Japan",1-2-3,,,,MITA,Tokyo,JP,1530062
"RJK US1","4353 Kite Lane",,,,"Los Angeles",CA,US,90005
"Lee Progress US","11900 MARKET ST",,,,RESTON,VA,US,20190
"Siemens HC","51 Valley Stream Parkway",,,,Malvern,PA,US,19355
"Cardinal HC PRC","7000 Cardinal Place",,,,Dublin,OH,US,43017
"Aesculup HC PRC","1000 Gateway Blvd",,,,"South San Francisco",CA,US,94080
"JGA Australia","2 Anne St.",,,,Brisbane,Queensland,AU,4000
"EIP Australia","12 Delhi Road",,,,Brooklyn,"New South Wales",AU,2083
"AC Australia","22 Main St",,,,Gawler,"South Australia",AU,5116
"AC Fin Svcs US","5100 State St",,,,Boston,MA,US,02109
"UK Site","5100 State St",,,,Boston,MA,US,02109
"Staffing Sweden","Frösundaleden 2 B",,,,Solna,,SE,"169 70"
"MCS Sweden","Storgatan 49 A",,,,Nässjö,,SE,"571 32"
"AC Sweden","Box 3343",,,,Stockholm,,SE,"103 67"
"CDW US1","200 N MILWAUKEE AVE",,,,"VERNON HILLS",IL,US,60061
"AC Progress US","35 MARKET PL",,,,BALTIMORE,MD,US,21202
"HQ - Milano","via Bisceglie 95",,,,Milano,,IT,20152
"Dell Healthcare","5843 Sunset Lane",,,,"Los Angeles",CA,US,90005
"HQ - Madrid","Plaza Mayor, 3",,,,Madrid,,ES,28001
"HQ - Roma","Via Francesco Marucelli",,,,Roma,,IT,00100
"Staff Australia","200 George St.",,,,Sydney,"New South Wales",AU,2000
"MCS Australia","16 St. Georges",,,,"North Perth","Western Australia",AU,6006
"OD Japan",1-2-3,,,,MEGURO,Tokyo,JP,1530063
"NRE Tokyo",1-2-3,,,,IIDABASHI,Tokyo,JP,1020072
"JGA Canada","360 Spadina Avenue",,,,Toronto,,CA,"M5T 2G4"
"Stf Netherlands","Albardakade 3",,,,Amsterdam,,NL,1067
"EIP Netherlands","Roetersstraat 12",,,,Amsterdam,,NL,"1018 WD"
"OD Netherlands","Prins Bernhardlaan 2",,,,Diemen,,NL,"1111 ET"
"Lee Belgium","Hendrik I lei ",84,,,Vilvoorde,,BE,1800
"Sinoma (China)","Mid Sec., Yumin Road, Hi-Tech Development Zone",,,,Zibo,,CN,255086
"AC Japan","1 Chome-2 Mita",,,,MITA,Tokyo,JP,1530062
"JGA Univ US","333 TWIN DOLPHIN DR",,,,"REDWOOD CITY",CA,US,94065
"Baxter HC PAY","PO BOX 523",,,,"Round Lake",IL,US,60073
"Aesculup HC PAY","PO BOX 59400",,,,"South San Francisco",CA,US,94080
"BBR US1","1425 Dowell Dr",,,,"East Ventura",CA,US,93003
"HQ - Cupertino","1 Apple St",,,,Cupertino,CA,US,95014
"HQ - Ginevra","Rue de Geneve",,,,Ginevra,,CH,50000
"Lagring Systems","2 Fort Place",,,,"Saint George",NY,US,10301
"BM Japan",1-2-3,,,,SHINJUKU,Tokyo,JP,1600022
"Yuyao (China)","NO.15,block 9, Shaojiaqiu Road, linshan ,yuyao town",,,,Ningbo,,CN,315400
"Wenxian (China)","Haiyang Development Zone, Xidan Road, Ninghai Town",,,,Ningbos,,CN,315613
"NPD France","212 Avenue du Poteau",,,,Nanterre,,FR,92032
"HQ - Como","Via Giulia",,,,Como,,IT,22100
"Staples Univ US","401 EUCLID AVE",,,,CLEVELAND,OH,US,44114
"Lee Netherlands","Leidsestraat 32-34",,,,Amsterdam,,NL,"1017 "
"Lee Netherlands","Leidsestraat 32-34",,,,Amsterdam,,NL,"1017 "
"JGA Netherlands","Weena 686",,,,Rotterdam,,NL,3012
"Staffing Prog","124 PARK ST NE",,,,VIENNA,VA,US,22180
"JGA Progress US","614 ORONOCO ST",,,,ALEXANDRIA,VA,US,22314
"HQ - Milano","Via Stamira D'ancona ,9 ",,,,Milano,,IT,20127
"EIP Univ US","401 B ST",,,,"SAN DIEGO",CA,US,92101
"JGA Japan",1-2-3,,,,TAKADANOBABA,Tokyo,JP,1690075
"MCS Healthcare","5000 Salsbury Blvd",,,,"Los Angeles",CA,US,90005
"HQ - Milano","Via Fosse Ardeatine, 4",,,,Milano,,IT,20092
"HQ - Nanterre","Rue Napoleon",,,,Nanterre,,FR,92032
"AC Univ US","19 EVERETT ALY",,,,TRENTON,NJ,US,08611
"Dell Italy","Via Umbria, 7",,,,Roma,,IT,00187
"Fisher Scientif","300 Industry Dr",,,,Pittsburgh,PA,US,15275
"Baxter HC PRC","PO BOX 490",,,,"Round Lake",IL,US,60073
"CLP US1","30021 FAIRESTA ST",,,,"LA CRESCENTA",CA,US,91214
"HQ - Bologna","Via Morgagni, 6",,,,Bologna,,IT,40121
"Dell FinSvcs US","2300 Greenlawn Blvd",,,,"Round Rock",TX,US,78664
"Windsor Belgium","Dahliastraat ",18,,,Vilvoorde,,BE,1800
"David Draper","334 Rosemont Street",,,,"San Jose",CA,US,95123
"Dell Prog US","301 S ALFRED ST",,,,ALEXANDRIA,VA,US,22314
"OD Univ US","1202 N 3RD ST",,,,PHOENIX,AZ,US,85004
"GE Capital US1","3135 EASTON TPKE",,,,FAIRFIELD,CT,US,06828
"PL Poland","Al.Krakowska 25",,,,Warsaw,,PL,
"Altamonte US1","500 West Broadway",,,,"New York",NY,US,10012
"MCS US1","25 PECK ST",,,,PROVIDENCE,RI,US,02903
"MCS US1","25 PECK ST",,,,PROVIDENCE,RI,US,02903
"Staffing US1","1144 LOGAN ST",,,,DENVER,CO,US,80203
"USGE US1","1144 LOGAN ST",,,,DENVER,CO,US,80203
"Staples US1","500 STAPLES DR",,,,FRAMINGHAM,MA,US,01702
"Kojimachi TO",1-2-3,,,,KOJIMACHI,Tokyo,JP,1020083
"Dell UK","75 Drayton Park",,,,London,,GB,"N5 1BU"
"Masson France","5 Avenue du Général de Gaulle",,,,Senlis,Nord-Pas-de-Calais,FR,60300
"HQ - Paris","5 Avenue du Général de Gaulle",,,,Senlis,Nord-Pas-de-Calais,FR,60300
"EIP US1","145 VAN NESS AVE",,,,"SAN FRANCISCO",CA,US,94102
"AC US1","5500 STATE ST",,,,BOSTON,MA,US,02109
"OD US1","6600 N MILITARY TRL",,,,"BOCA RATON",FL,US,33496
"Allied US1","1600 E WARREN AVE",,,,DETROIT,MI,US,48207
"Lee US1","5000 CARTER DR.",,,,"LOS ANGELES",CA,US,90032
"Lee US1","5000 CARTER DR.",,,,"LOS ANGELES",CA,US,90032
"JGA US1","600 5TH AVE",,,,SEATTLE,WA,US,98104
"Dell US1","2300 GREENLAWN BLVD",,,,"ROUND ROCK",TX,US,78664
"Howell US1","1200 W WASHINGTON ST",,,,PHOENIX,AZ,US,85007
"UPS US1","55 GLENLAKE PKWY",,,,ATLANTA,GA,US,30328
"ATT US1","267 MARIETTA ST NW",,,,ATLANTA,GA,US,30313
"OD France","126 Avenue du Poteau",,,,Senlis,Nord-Pas-de-Calais,FR,60300
"BM US1","15 TRINITY AVENUE SW",,,,ATLANTA,GA,US,30303
"CS UK","53 Crossgate",,,,Durham,,GB,"DH1 4PR"
"Windsor UK","6070 Knights Court","Birmingham Business Park",,,Birmingham,,GB,"B37 7BF"
"Edison UK","21 New Globe Walk",,,,London,,GB,"SE1 9DT"
"RSM France","28 Rue Alfred Kastler",,,,Mont-Saint-Aignan,Haute-Normandie,FR,76130
"Dell France","1 Round-point Benjamin Franklin",,,,Montpellier,,FR,34000
"NES US1","700 STEWART ST",,,,SEATTLE,WA,US,98101
"PSH US1","131 DUANE ST",,,,"NEW YORK",NY,US,10013
"EDF UK","2 Foxborough",Swallowfield,"Reading Borough",,Reading,England,GB,"RG1 1AA"
"BT UK","Osprey House","Osprey Road",,,Exeter,,GB,"EX2 7WN"
"SFR France","42 Avenue de Friedland",,,,Paris,Île-de-France,FR,75008
"Utilitaire Fran","34 Avenue de Villiers",,,,Paris,Île-de-France,FR,75017
UtilitaireUS1CC,"34 Avenue de Villiers",,,,Paris,Île-de-France,FR,75017
"Metal Works US1","1200 GRANT ST",,,,PITTSBURGH,PA,US,15219
"Progressive UK","Kidderminster Industrial Estate","Spennells Valley Road",,,Kidderminster,,GB,"DY10 1XS"
"Eiffage France","163 Quai du Docteur-Dervaux",,,,Asnieres-sur-Seine,,FR,92601
"US1 Site","4324 Island Way",,,,Carlsbad,California,US,92011
US1,"4324 Island Way",,,,Carlsbad,California,US,92011
"InterUS1 China","4324 Island Way",,,,Carlsbad,California,US,92011
"US1 CLP","4324 Island Way",,,,Carlsbad,California,US,92011
"InterUS1 UK","4324 Island Way",,,,Carlsbad,California,US,92011
"InterUS1 France","4324 Island Way",,,,Carlsbad,California,US,92011
"InterUS1 SupUS","4324 Island Way",,,,Carlsbad,California,US,92011
"InterUS1 DE","4324 Island Way",,,,Carlsbad,California,US,92011
"InterFrance CN","18 rue Berthelot","BP 4101",,,Tours,,FR,37000
"InterFrance UK","18 rue Berthelot","BP 4101",,,Tours,,FR,37000
"InterFrance US1","18 rue Berthelot","BP 4101",,,Tours,,FR,37000
"InterFrance DE","18 rue Berthelot","BP 4101",,,Tours,,FR,37000
"InterUK France","55a Cambridge Rd",,,,Sawbridgeworth,,GB,"CM21 9JP"
"InterUK China","55a Cambridge Rd",,,,Sawbridgeworth,,GB,"CM21 9JP"
"InterUK US1","55a Cambridge Rd",,,,Sawbridgeworth,,GB,"CM21 9JP"
"InterUK DE","55a Cambridge Rd",,,,Sawbridgeworth,,GB,"CM21 9JP"
"Lee Poland","Przyokopowa 31",,,,Warsaw,,PL,
"JGA Switzerland","Via della Posta 57",,,,Lugano,,CH,CH6900
"BB Switzerland","Gutenbergstrasse. 22",,,,Zurich,,CH,CH8002
"MCS Poland","Jutrzenka 15",,,,Krakow,,PL,
"MCS Switzerland","Avenue Louis Casai 132",,,,Geneve,,CH,CH1209
"Amazon UK","20 Portman Square",,,,London,,GB,
"Amazon UK","20 Portman Square",,,,London,,GB,
"OD Poland","Sobieskiego 2",,,,Lobon,,PL,
"MAG Germany","Friedrichstr. 77 ",,,,Berlin,"Bundesland Berlin",DE,
"ZED Germany","Schellingstr. 22",,,,Mundenhof,Baden-Württemberg,DE,
"DE Germany","Hermannstr. 5",,,,Frankfurt,Bayern,DE,
"Lee Germany","Ivo-Hauptmann-Ring 5",,,,"Hamburg-Insel Neuwerk","Freie und Hansestadt Hamburg",DE,
"JGA Germany","Zitadellenweg 28",,,,Berlin,Schleswig-Holstein,DE,
"MCS Germany","Grunaer Str. 2",,,,Dressendorf,Bayern,DE,
"OD Germany","Linus-Pauling-Strasse 2",,,,Grossdemsin,Sachsen-Anhalt,DE,
Cihangir,"Cihangir Mahallesi ?ehit Zafer K?z?lta? Sokak no:1/2 / Avc?lar",,,,?stanbul,,TR,
Bağcılar,"Ba?lar Mahallesi, Yalç?n Kore? Cd. No:20, 34540 Ba?c?lar",,,,?stanbul,,TR,
Hendek,"Çaml?ca Mahallesi, 54300 Hendek",,,,Sakarya,,TR,
Eyüp,"/?stanbul, Türkiye",,,,Istanbul,,TR,
Beyoğlu,"Irmak Cad. No: 52 Dolapdere Beyo?lu",,,,Istanbul,,TR,
"RJK Progress","2100 Broadway Blvd",,,,Glendale,CA,US,91206
"OD Switzerland","Rue de la gare 78",,,,Morges,,CH,CH1110
"CSA Switzerland","Avenue de Provence 120",,,,Lausanne,,CH,CH1007
Corporate,"8195 Industrial Way",,,,Porterdale,GA,US,30014
"Amazon France","15 Boulevard Louis Armand",,,,Neuilly-sur-Marne,,FR,93330
"Amazon France","15 Boulevard Louis Armand",,,,Neuilly-sur-Marne,,FR,93330
"ABC Bank US1","270 Redwood Shores Pkwy",,,,"Redwood City",CA,US,94065
"Lee Switzerland","Aarbergergasse 25",,,,Bern,,CH,CH3011
"Amazon Progress","3500 Angeles Crest Hwy",,,,"La Canada",CA,US,91011
"Amazon Progress","3500 Angeles Crest Hwy",,,,"La Canada",CA,US,91011
"JGA Poland","Polna 12",,,,Warsaw,,PL,
"AC Switzerland","Rue de Lausanne 45",,,,Vevey,,CH,CH1800
"Amazon HC","6678 Broadway Blvd",,,,Glendale,CA,US,91206
"ZED Poland","Pulawska 345",,,,Warsaw,,PL,
"EIP Supremo US","655 West Broadway",,,,"San Diego",CA,US,92101
"Lee Supremo US","855 Hill Street",,,,"Los Angeles",CA,US,90014
"AE Supremo US","7351 N Ramsey Blvd",,,,Portland,OR,US,97203
"Staf Supremo US","1740 Broadway",,,,Denver,CO,US,80274
"RJK Supremo US","4111 Gaston Ave",,,,"Fair Park",TX,US,75246
"Base Supremo US","498 Union St",,,,Oakland,CA,US,94607
"Marx Supremo US","8291 E Pine St",,,,Tulsa,OK,US,74115
"Dell Supremo US","1 Dell Way",,,,"Round Rock",TX,US,78682
"FI Supremo US","456 Jefferson Ave",,,,"Dearborn Heights",MI,US,48125
"MCS Supremo US","1800 Larimer St",,,,Denver,CO,US,80202
"JGA Supremo US","400 S Howes St, ",,,,"Fort Collins",CO,US,80521
"PPP Supremo US","5198 Overbrook Dr",,,,Louisville-Jefferson,KY,US,40216
"AC Supremo US","1001 SW 5th Ave",,,,Portland,OR,US,97204
"Q1 Supremo US","2460 Airport Blvd",,,,Aurora,CO,US,80011
"AC India","H7 Green Park","Block H",,,"New Delhi",Delhi,IN,110016
"Lee India","South Ave","South Avenue Area"," President's Estate",,"New Delhi",Delhi,IN,110011
"OD India","no. 2/50-G",Ramnagar,Chanakyapuri,,"New Delhi",Delhi,IN,110021
"Wade Supremo US","11450 35th St",,,,Boston,MA,US,02135
"JGA India","Block C","Krishna Nagar",,,"New Delhi",Delhi,IN,110051
"LE Supremo US","89 Dunboy St",,,,Boston,MA,US,02135
"Amaz Supremo US","410 Terry Ave N",,,,Seattle,WA,US,98109
"CDW Supremo US","111 W Monroe St",,,,Chicago,IL,US,60603
"SM Supremo US","2141 Newton Ave",,,,"San Diego",CA,US,92113
"MCS India",H-038,"H Block","Sector 63",,Noida,"Uttar Pradesh",IN,201301
"Mili Supremo US","425 Gold St",,,,"San Jose",CA,US,95002
"EIP India","Block D","Lodi Colony",,,"New Delhi",Delhi,IN,110003
"Staffing India","Lodhi Road",Aliganj,"BK Dutt Colony",,"New Delhi",Delhi,IN,110003
"SF Sup CH","Johannisstraße 20",,,,Berlin,Schleswig-Holstein,DE,
"SF Sup US CH","Johannisstraße 20",,,,Berlin,Schleswig-Holstein,DE,
"RE Sup CH",Kirche,,,,Lauperswil,,CH,3438
"RE Sup US CH",Kirche,,,,Lauperswil,,CH,3438
"BT Sup CH","110 Jinhua Rd",,,,"Hangzhou Shi",,CN,
"BT Sup US CH","110 Jinhua Rd",,,,"Hangzhou Shi",,CN,
"LE Sup US CH","Rúa Principal, 36",,,,"SAN CIBRAO DAS VIÑAS",GALICIA,ES,32911
"LE Sup CH","Rúa Principal, 36",,,,"SAN CIBRAO DAS VIÑAS",GALICIA,ES,32911
"Lee Sup CH","Friedensgasse 59",,,,Basel,,CH,4056
"MI Sup CH","Thunstrasse 3",,,,Bern,,CH,3005
"EIP Sup CH","Leimgrubenweg 9",,,,Basel,,CH,4053
"GFS Supremo US","735 Piedmont Ave NE",,,,Atlanta,GA,US,30308
"AE Sup CH","3 Place Saint-Clair",,,,Hérouville-Saint-Clair,,FR,14202
"AE Sup US CH","3 Place Saint-Clair",,,,Hérouville-Saint-Clair,,FR,14202
"ABC Supremo US","104 E 14th St",,,,Manhattan,NY,US,10003
"MP US1","1365 Scottsdale Road",,,,"Bella Vista",AR,US,72712
Hyderabad,"1st Cross Street",,,,Hyderabad,Telangana,IN,460001
Mumbai,"Nariman Point",,,,Mumbai,Maharashtra,IN,400004
Chennai,"30, East Coast Road",,,,Chennai,"Tamil Nadu",IN,600030
"BS US1","Jiagu Building, Building 24",,,,,,CN,
"ABC Healthcare","459 Brightwood Ave",,,,Dayton,OH,US,45405
"ABC Healthcare","459 Brightwood Ave",,,,Dayton,OH,US,45405
Delhi,"123 New Delhi Street",,,,Delhi,Delhi,IN,110001
"BR US1","500 Eldorado Blvd",,,,Broomfield,CO,US,
"InterSupCH US","Rotbuchstrasse 46",,,,Zürich,,CH,8037
"JGA Sup CH","Hardstrasse 121",,,,Basel,,CH,4052
"MCS Sup CH","Finkenstrasse 25",,,,Oberwil,,CH,4104
"InterSupUS CH","1920 N High St",,,,"Capitol Hill",CO,US,80218
"InterSupUS US1","1920 N High St",,,,"Capitol Hill",CO,US,80218
"FFJS Supremo US","3083 Unviersal Drive",,,,Mississauga,,CA,"L4X 2E3"
"New York","13th street","47W ",,,"New York",NY,US,10011
"A1JS Supremo US","18801 East Hampden Ave",,,,Aurora,CO,US,80013
"82BELGACHIA ROA",,,,,,,US,
Pune,"Hinjewadi Phase 3",,,,Pune,,IN,411046
"Head Office - P","Hinjewadi Phase 3",,,,Pune,,IN,411046
sc,,,,,,,US,
sc11,,,,,,,US,
MOG-INFI,"123, ALQUAIR",,,,MUSCAT,,OM,
"Head Office",Minmax,,,,Surat,Gujarat,IN,360007
"Head Office","1 Hacker Way, Menlo Park, California,",,,,,"South Carolina",US,
"Head Office","Zomato Media Private Limited ","Horizon Centre, Golf Course Road",,,Gurgaon,Haryana,IN,122003
"Head Office","Maruthi Chambers Rupena Agrahara Hosur Road ",,,,Bengaluru,Karnataka,IN,300300
Saurav_Supplier,"Line 1",,,,Kolkata,,IN,700009
"Pfizer US1","1000 Trademark Dr",,,,Reno,NV,US,89521
London,"Commodity Quay, St. Katharine Docks, London,",,,,London,,GB,
South,"PO Box 4534 Dandenong South Vic 3175",,,,"South Bodallin","Western Australia",AU,
Saurav_Supplier,"Line 1",,,,Kolkata,,IN,700009
"London Site","23, Queen Street,",,,,London,,GB,"N5 1BU"
"Head Office","Everich Industrial Building #04-01/02",#06-07/08,,,,,SG,349566
"Head Office","Buildings Alyssa, Begonia","Devarabeesanahalli Village, ",,,Bengaluru,Karnataka,IN,4400400
"Head Office","Buildings Alyssa, Begonia","Devarabeesanahalli Village, ",,,Bengaluru,Karnataka,IN,4400400
"VWR US1","One Radnor Corporate Center","100 Matsonford Road",,,Radnor,PA,US,19087
"Parexel US1","1600 Chevy Chase Dr",,,,Glendale,CA,US,91206
Southampton,"111 - 137 MAGNESIUM DRIVE CRESTMEAD",,,,Southampton,"Western Australia",AU,
123,,,,,,,US,
ABC,sas,,,,,,US,
US1,sas,,,,,,US,
Antwerpen,Antwerpen,Antwerpen,,,"A and M College",Texas,US,77843
Antwerpen,Antwerpen,Antwerpen,,,"A and M College",Texas,US,77843
Sydney,Sydney,Sydney,,,Holtsville,"New York",US,00501
Sydney,Sydney,Sydney,,,Holtsville,"New York",US,00501
"Catalent US1","9000 Belward Campus Dr",,,,Rockville,MD,US,20850
Antwerpen,Antwerpen,Antwerpen,,,Antwerpen,,BE,Antwerpen
"Lexington Avenu","731 Lexington Avenue New York, NY 10022 ARBN",,,,,,US,
Chicago,"Park Street",Chicago,,,Huston,ID,US,83630
MG_Address01,"Cardiff ",,,,Cardiff,,GB,
MG_Address01,"Cardiff ",,,,Cardiff,,GB,
"UK Construction","H- Block Meena Road 63rd section ",,,,"New Delhi",Delhi,IN,110045
"UK Construction","H- Block Meena Road 63rd section ",,,,"New Delhi",Delhi,IN,110045
Site,,,,,,,US,
WHT,"Chatswood Service Center","56-64 Archer Street",,,Chatswood,"New South Wales",AU,2067
"Cardiff - Site","Cleeve House,","Lambourne Crescent,",,,Cardiff,,GB,"CF14 1ZU"
"Main Office",,,,,,,US,
"Main Office",,,,,,,US,
"Main Office",,,,,,,US,
Antwerpen,SCHOMHOEVEWEG,"15 - B 2030",,,ANTWERPEN,,BE,ANTWERPEN
"Dell Germany","In den Ministergarten 10",,,,Berlin,"Bundesland Berlin",DE,
"Amazon Germany","32 Mehringdamm",Kreuzberg,,,Berlin,,DE,10961
"Amazon Germany","32 Mehringdamm",Kreuzberg,,,Berlin,,DE,10961
Factory,"Phase 2",Hinjewadi,,,,,SG,411027
Headquarter,"701 Brooks Ave S","Thief River Falls",,,,,US,
Factory,"Nava Naroda",Ahmedabad,,,,,US,
"Head Office","Hero MotoCorp Limited,","The Grand Plaza, ",,,"New York",NY,US,
"Covance US1","4800 Emperor Blvd",,,,Durham,NC,US,27703
Southampton,,,,,Aaronsburg,PA,US,
Southampton-US,,,,,Aaronsburg,PA,US,
Factory,"Building #04-01/02, #06-07/08","81 Genting Lane, Everich Industrial",,,,,SG,349566
Factory,Kulai,,,,Johor,Malaysia,MY,81000
"SM Infusion Sup",,,,,Jamestown,NC,US,27282
"SM Infusion Sup",,,,,Jamestown,NC,US,27282
"SM Infusion Sup",,,,,Jamestown,NC,US,27282
UK,"Bolton, United Kingdom",,,,Manchester,,GB,
UK,"Bolton, United Kingdom",,,,Manchester,,GB,
UK,"Bolton, United Kingdom",,,,Manchester,,GB,
UK,"Bolton, United Kingdom",,,,Manchester,,GB,
UK,"Bolton, United Kingdom",,,,Manchester,,GB,
UK,"Bolton, United Kingdom",,,,Manchester,,GB,
UK,"Bolton, United Kingdom",,,,Manchester,,GB,
UK,"Bolton, United Kingdom",,,,Manchester,,GB,
UK,"Bolton, United Kingdom",,,,Manchester,,GB,
UK,"Bolton, United Kingdom",,,,Manchester,,GB,
UK,"Bolton, United Kingdom",,,,Manchester,,GB,
UK,"Bolton, United Kingdom",,,,Manchester,,GB,
UK,"Bolton, United Kingdom",,,,Manchester,,GB,
UK,"Bolton, United Kingdom",,,,Manchester,,GB,
UK,"Bolton, United Kingdom",,,,Manchester,,GB,
UK,"Bolton, United Kingdom",,,,Manchester,,GB,
UK,"Bolton, United Kingdom",,,,Manchester,,GB,
UK,"Bolton, United Kingdom",,,,Manchester,,GB,
UK,"Bolton, United Kingdom",,,,Manchester,,GB,
UK,"Bolton, United Kingdom",,,,Manchester,,GB,
UK,"Bolton, United Kingdom",,,,Manchester,,GB,
UK,"Bolton, United Kingdom",,,,Manchester,,GB,
UK,"Bolton, United Kingdom",,,,Manchester,,GB,
UK,"Bolton, United Kingdom",,,,Manchester,,GB,
UK,"Bolton, United Kingdom",,,,Manchester,,GB,
UK,"Bolton, United Kingdom",,,,Manchester,,GB,
UK,"Bolton, United Kingdom",,,,Manchester,,GB,
UK,"Bolton, United Kingdom",,,,Manchester,,GB,
UK,"Bolton, United Kingdom",,,,Manchester,,GB,
UK,"Bolton, United Kingdom",,,,Manchester,,GB,
UK,"Bolton, United Kingdom",,,,Manchester,,GB,
UK,"Bolton, United Kingdom",,,,Manchester,,GB,
UK,"Bolton, United Kingdom",,,,Manchester,,GB,
UK,"Bolton, United Kingdom",,,,Manchester,,GB,
UK,"Bolton, United Kingdom",,,,Manchester,,GB,
UK,"Bolton, United Kingdom",,,,Manchester,,GB,
UK,"Bolton, United Kingdom",,,,Manchester,,GB,
UK,"Bolton, United Kingdom",,,,Manchester,,GB,
UK,"Bolton, United Kingdom",,,,Manchester,,GB,
UK,"Bolton, United Kingdom",,,,Manchester,,GB,
"Brinkhaven,Ohio",,,,,Brinkhaven,Ohio,US,43006
UK,"Bolton, United Kingdom",,,,Manchester,,GB,
UK,"Bolton, United Kingdom",,,,Manchester,,GB,
UK,"Bolton, United Kingdom",,,,Manchester,,GB,
UK,"Bolton, United Kingdom",,,,Manchester,,GB,
UK,"Bolton, United Kingdom",,,,Manchester,,GB,
UK,"Bolton, United Kingdom",,,,Manchester,,GB,
UK,"Bolton, United Kingdom",,,,Manchester,,GB,
UK,"Bolton, United Kingdom",,,,Manchester,,GB,
UK,"Bolton, United Kingdom",,,,Manchester,,GB,
UK,"Bolton, United Kingdom",,,,Manchester,,GB,
UK,"Bolton, United Kingdom",,,,Manchester,,GB,
UK,"Bolton, United Kingdom",,,,Manchester,,GB,
UK,"Bolton, United Kingdom",,,,Manchester,,GB,
UK,"Bolton, United Kingdom",,,,Manchester,,GB,
UK,"Bolton, United Kingdom",,,,Manchester,,GB,
UK,"Bolton, United Kingdom",,,,Manchester,,GB,
UK,"Bolton, United Kingdom",,,,Manchester,,GB,
UK,"Bolton, United Kingdom",,,,Manchester,,GB,
UK,"Bolton, United Kingdom",,,,Manchester,,GB,
UK,"Bolton, United Kingdom",,,,Manchester,,GB,
UK,"Bolton, United Kingdom",,,,Manchester,,GB,
UK,"Bolton, United Kingdom",,,,Manchester,,GB,
UK,"Bolton, United Kingdom",,,,Manchester,,GB,
UK,"Bolton, United Kingdom",,,,Manchester,,GB,
UK,"Bolton, United Kingdom",,,,Manchester,,GB,
UK,"Bolton, United Kingdom",,,,Manchester,,GB,
UK,"Bolton, United Kingdom",,,,Manchester,,GB,
UK,"Bolton, United Kingdom",,,,Manchester,,GB,
UK,"Bolton, United Kingdom",,,,Manchester,,GB,
UK,"Bolton, United Kingdom",,,,Manchester,,GB,
UK,"Bolton, United Kingdom",,,,Manchester,,GB,
UK,"Bolton, United Kingdom",,,,Manchester,,GB,
UK,"Bolton, United Kingdom",,,,Manchester,,GB,
UK,"Bolton, United Kingdom",,,,Manchester,,GB,
UK,"Bolton, United Kingdom",,,,Manchester,,GB,
UK,"Bolton, United Kingdom",,,,Manchester,,GB,
UK,"Bolton, United Kingdom",,,,Manchester,,GB,
UK,"Bolton, United Kingdom",,,,Manchester,,GB,
UK,"Bolton, United Kingdom",,,,Manchester,,GB,
UK,"Bolton, United Kingdom",,,,Manchester,,GB,
UK,"Bolton, United Kingdom",,,,Manchester,,GB,
UK,"Bolton, United Kingdom",,,,Manchester,,GB,
UK,"Bolton, United Kingdom",,,,Manchester,,GB,
UK,"Bolton, United Kingdom",,,,Manchester,,GB,
UK,"Bolton, United Kingdom",,,,Manchester,,GB,
UK,"Bolton, United Kingdom",,,,Manchester,,GB,
UK,"Bolton, United Kingdom",,,,Manchester,,GB,
UK,"Bolton, United Kingdom",,,,Manchester,,GB,
UK,"Bolton, United Kingdom",,,,Manchester,,GB,
UK,"Bolton, United Kingdom",,,,Manchester,,GB,
UK,"Bolton, United Kingdom",,,,Manchester,,GB,
UK,"Bolton, United Kingdom",,,,Manchester,,GB,
UK,"Bolton, United Kingdom",,,,Manchester,,GB,
UK,"Bolton, United Kingdom",,,,Manchester,,GB,
UK,"Bolton, United Kingdom",,,,Manchester,,GB,
UK,"Bolton, United Kingdom",,,,Manchester,,GB,
UK,"Bolton, United Kingdom",,,,Manchester,,GB,
UK,"Bolton, United Kingdom",,,,Manchester,,GB,
UK,"Bolton, United Kingdom",,,,Manchester,,GB,
Corporate,"1000 Medical Way",,,,Billings,NY,US,
"Aman Channawar","S-3 Balaji Tower, Near Deotale Clinic","Gurudwara Road",Tukum,,Chandrapur,Maharashtra,IN,442401
43,"Bommanahalli, Bangalore",,,,Bangalore,Karnataka,IN,560034
Pune,hadapsar,,,,Pune,Maharashtra,IN,411003
UK,"Bolton, United Kingdom",,,,Manchester,,GB,
Headoffice,Lane1,,,,City1,"State 1",MY,123
Headoffice,Lane1,,,,City1,"State 1",MY,123
US1,Lane1,,,,City1,"State 1",MY,123
Headoffice,Lane1,,,,City1,"State 1",MY,123
Headoffice,Lane1,,,,City1,"State 1",MY,123
Antwerpen,"Noorderlaan ","127A BE-2030 ",,,Antwerpen,,BE,"127A BE-2030 "
"Head Office","Flipkart Internet Private Limited,","Ozone Manay Tech Park,","Hosur Road, Bangalore ",,Bangalore,Karnataka,IN,560068
Branch,Satellite,,,,Ahmedabad,Gujarat,IN,382330
Headquarter,"Talab factory road",,,,Pune,Maharashtra,IN,411048
"Head Office","San Francisco, California",,,,"San Francisco",California,US,
USA,,,,,,,US,
USA,,,,,,,US,
ABC,,,,,,,US,
"Head Office",Noida,,,,Noida,"Uttar Pradesh",IN,110096
"Ware house",Dapodi,,,,Pune,Maharashtra,IN,411012
"Head Office","ANI Technologies Private Limited","17th Main, 100 Feet Road","Koramangala, Bengaluru",,Bangalore,,IN,560034
"Factory & Headq","47, Industrial Estate, Fazalganj Industrial Estate, Shastri Nagar",,,,Kanpur,,IN,208012
"SM WHT Authorit","SM WHT Authority Address",,,,Jamestown,NC,US,27282
"SM WHT Authorit","SM WHT Authority Address",,,,Jamestown,NC,US,27282
"InterGermany FR","Postdammer Platz",,,,Berlin,"Bundesland Berlin",DE,
InterGermanyUS1,"Postdammer Platz",,,,Berlin,"Bundesland Berlin",DE,
"InterGermany UK","Postdammer Platz",,,,Berlin,"Bundesland Berlin",DE,
Factory,"AG Thurgauerstrasse 66 Postfach ",,,,Zurich,,CH,8052
"SM Infusion Sup","SM Infusion INC Supplier Addtess",,,,Jamestown,NC,US,27282
GD_Dubai_Site1,"DIC Building 01",,,,"أم القيوين",,AE,
GD_Dubai_Site2,"DIC Building 01",,,,"أم القيوين",,AE,
NN_supplier_add,NN_supplier_address,,,,Cairo,Cairo,EG,
TstCmp_USDSite,Copenhagen,,,,Copenhagen,Copenhagen,DK,23456
"Sunset Supplier","909 Test St",,,,,,US,
JE001,,,,,,ID,US,
Bly,,,,,,,US,
Bly,,,,,,,US,
Bly,,,,,,,US,
Site1,"LE Address1","LE Address2",,,Lufkin,Texas,US,75902
sc99,,,,,,,US,
"Head Office","1 Hacker Way, Menlo Park, California,",,,,,"South Carolina",US,
"Primary Supply ","1, New York Street",,,,"New York",NY,US,
"Purchase and Pa","1, New York Street",,,,"New York",NY,US,
OFFICE-1,"ABU DHABI",,,,أبوظبي,,AE,
"Unique NT Site","Building-A Flat-1001,","Near Nyati Evita Building.Porwdal road lohegaon-411047 Pune.",,,PUNE,Maharashtra,IN,411047
"Monster02 Addre","Local Lake Road",,,,Chicago,Illinois,US,60290
"Monster02 Addre","Local Lake Road",,,,Chicago,Illinois,US,60290
"Abhijeet Motor ",4306,"Street 68",,,"New Johnsonville",Tennessee,US,
"01PCR House",06,,,,المنامة,,AE,
"Managal Peth","Bazar Galli",,,,Khultabad,,IN,431101
"SM Collection A",,,,,Jamestown,NC,US,27282
"Sweden Site","Over the Bridge ",,,,Stockholm,,SE,18000
"Main site","Seattle ,super power street","Seattle ,super power street",,,,,US,
"purpose site","Seattle ,super power street","Seattle ,super power street",,,,,US,
"NS ADD",,,,,Albany,"New York",US,
Ahmedabad,Ahmedabad,,,,Ahmedabad,Gujarat,IN,380008
Ahmedabad,Ahmedabad,,,,Ahmedabad,Gujarat,IN,380008
"Supplier Addres",,,,,"New York",NY,US,
"Supplier Addres",,,,,"New York",NY,US,
"CC supplier add",Deesa,,,,"New York",NY,US,
Headquarter,"Survey No.19, Vajdi ","Kalawad Road",,,Rajkot,Gujarat,IN,360007
Boston,LA,,,,,,US,
"SH US1","400 Main St",,,,Irvine,CA,US,92614
"SM FBDI INC Add",,,,,Jamestown,NC,US,27282
Maricao_Task,,,,,Maricao,PR,US,00606
HQ,ahmedabad,,,,ahmedabad,Gujarat,IN,380000
Atlanta,"Opera House, Mumbai",,,,"Town ",,IN,422005
ABC3,"Amar Nagar",,,,Hyderabad,Telangana,IN,500032
"ABC, Gate NO:3 ","Amar Nagar",,,,Hyderabad,Telangana,IN,500032
Pune,"C Block Pune",,,,Pune,Maharashtra,IN,411009
boston,,,,,,,US,
"Franklin, Ohio",,,,,Columbus,Ohio,US,43004
Testaddress,,,,,,,US,
"Patheon US1","300 Delaware St",,,,Greenville,SC,US,29605
newyork,,,,,,,US,
newyork,,,,,,,US,
newyork,,,,,,,US,
"Nehru nagar","S884 NEHRU NAGAR",,,,Bhopal,"Madhya Pradesh",IN,462003
Manhattan,,,,,,,US,
"L 45",Chinhat,,,,Bhopal,"Madhya Pradesh",IN,462003
vv,"42 somnath villa, near balaji bungalows chhani","near balaji bungalows chhani",,,"Blue Eye",AR,US,65611
Kabul,Kabul,,,,Kabul,,AF,
Kabul,Kabul,,,,Kabul,,AF,
Chandkheda,idsfiusabibda,,,,Ahmadabad,Gujarat,IN,380019
"Head Office","Hells Kitchen","Daredevil area",,,"New York",NY,US,
dalas,,,,,,,US,
dalas,,,,,,,US,
dalas,,,,,,,US,
dalas,,,,,,,US,
dalas,,,,,,,US,
Abu,"403, a block",,,,Jamshedpur,,IN,831021
yuhan,yuhan,,,,yuhan,,AL,
Istanbul,Istanbul,,,,Istanbuk,,AF,
california,,,,,,,US,
"xx company","park blvd",,,,Austin,TX,US,
"FS US1","168 3rd Ave",,,,Waltham,MA,US,02451
India,Sitamarhi,,,,Dumra,Bihar,IN,843301
"Purchasing site",,,,,,,US,
site2,,,,,,,US,
Jodhpur,"CHB ",,,,Jodhpur,Rajasthan,IN,342008
IKEA_PUNE_STORE,IKEA_PUNE_2,,,,Pune,Maharashtra,IN,411015
"Atlanta ",Ahmadabaad,,,,Ahmadabad,Gujarat,IN,380024
california,,,,,,,US,
Kolkata,"Thane, MH",,,,Thane,Maharashtra,IN,400602
UK,"Bolton, United Kingdom",,,,Manchester,,GB,
UK,"Bolton, United Kingdom",,,,Manchester,,GB,
UK,"Bolton, United Kingdom",,,,Manchester,,GB,
UK,"Bolton, United Kingdom",,,,Manchester,,GB,
UK,"Bolton, United Kingdom",,,,Manchester,,GB,
UK,"Bolton, United Kingdom",,,,Manchester,,GB,
UK,"Bolton, United Kingdom",,,,Manchester,,GB,
UK,"Bolton, United Kingdom",,,,Manchester,,GB,
UK,"Bolton, United Kingdom",,,,Manchester,,GB,
UK,"Bolton, United Kingdom",,,,Manchester,,GB,
UK,"Bolton, United Kingdom",,,,Manchester,,GB,
UK,"Bolton, United Kingdom",,,,Manchester,,GB,
UK,"Bolton, United Kingdom",,,,Manchester,,GB,
UK,"Bolton, United Kingdom",,,,Manchester,,GB,
UK,"Bolton, United Kingdom",,,,Manchester,,GB,
UK,"Bolton, United Kingdom",,,,Manchester,,GB,
UK,"Bolton, United Kingdom",,,,Manchester,,GB,
UK,"Bolton, United Kingdom",,,,Manchester,,GB,
UK,"Bolton, United Kingdom",,,,Manchester,,GB,
UK,"Bolton, United Kingdom",,,,Manchester,,GB,
UK,"Bolton, United Kingdom",,,,Manchester,,GB,
UK,"Bolton, United Kingdom",,,,Manchester,,GB,
UK,"Bolton, United Kingdom",,,,Manchester,,GB,
UK,"Bolton, United Kingdom",,,,Manchester,,GB,
UK,"Bolton, United Kingdom",,,,Manchester,,GB,
UK,"Bolton, United Kingdom",,,,Manchester,,GB,
UK,"Bolton, United Kingdom",,,,Manchester,,GB,
UK,"Bolton, United Kingdom",,,,Manchester,,GB,
UK,"Bolton, United Kingdom",,,,Manchester,,GB,
UK,"Bolton, United Kingdom",,,,Manchester,,GB,
UK,"Bolton, United Kingdom",,,,Manchester,,GB,
"Bolton, United Kingdom","Bolton, United Kingdom",,,,Manchester,,GB,
UK,"Bolton, United Kingdom",,,,Manchester,,GB,
UK,"Bolton, United Kingdom",,,,Manchester,,GB,
UK,"Bolton, United Kingdom",,,,Manchester,,GB,
UK,"Bolton, United Kingdom",,,,Manchester,,GB,
Primary,,,,,Holtsville,"New York",US,00501
Primary,,,,,Holtsville,"New York",US,00501
mumbai,"colaba,mumbai",,,,mumbai,,IN,400001
Istanbul,Istanbul,,,,Istanbul,,AF,
Istanbul,Istanbul,,,,Istanbul,,AF,
UK,"Bolton, United Kingdom",,,,Manchester,,GB,
UK,"Bolton, United Kingdom",,,,Manchester,,GB,
UK,"Bolton, United Kingdom",,,,Manchester,,GB,
UK,"Bolton, United Kingdom",,,,Manchester,,GB,
UK,"Bolton, United Kingdom",,,,Manchester,,GB,
UK,"Bolton, United Kingdom",,,,Manchester,,GB,
UK,"Bolton, United Kingdom",,,,Manchester,,GB,
UK,"Bolton, United Kingdom",,,,Manchester,,GB,
UK,"Bolton, United Kingdom",,,,Manchester,,GB,
UK,"Bolton, United Kingdom",,,,Manchester,,GB,
UK,"Bolton, United Kingdom",,,,Manchester,,GB,
UK,"Bolton, United Kingdom",,,,Manchester,,GB,
UK,"Bolton, United Kingdom",,,,Manchester,,GB,
UK,"Bolton, United Kingdom",,,,Manchester,,GB,
"CLS US1","800 North St",,,,Tewksbury,MA,US,01876
texas,,,,,,,US,
UK,"Bolton, United Kingdom",,,,Manchester,,GB,
UK,"Bolton, United Kingdom",,,,Manchester,,GB,
UK,"Bolton, United Kingdom",,,,Manchester,,GB,
UK,"Bolton, United Kingdom",,,,Manchester,,GB,
UK,"Bolton, United Kingdom",,,,Manchester,,GB,
UK,"Bolton, United Kingdom",,,,Manchester,,GB,
UK,"Bolton, United Kingdom",,,,Manchester,,GB,
UK,"Bolton, United Kingdom",,,,Manchester,,GB,
UK,"Bolton, United Kingdom",,,,Manchester,,GB,
UK,"Bolton, United Kingdom",,,,Manchester,,GB,
UK,"Bolton, United Kingdom",,,,Manchester,,GB,
UK,"Bolton, United Kingdom",,,,Manchester,,GB,
UK,"Bolton, United Kingdom",,,,Manchester,,GB,
UK,"Bolton, United Kingdom",,,,Manchester,,GB,
UK,"Bolton, United Kingdom",,,,Manchester,,GB,
UK,"Bolton, United Kingdom",,,,Manchester,,GB,
UK,"Bolton, United Kingdom",,,,Manchester,,GB,
UK,"Bolton, United Kingdom",,,,Manchester,,GB,
UK,"Bolton, United Kingdom",,,,Manchester,,GB,
UK,"Bolton, United Kingdom",,,,Manchester,,GB,
UK,"Bolton, United Kingdom",,,,Manchester,,GB,
UK,"Bolton, United Kingdom",,,,Manchester,,GB,
UK,"Bolton, United Kingdom",,,,Manchester,,GB,
UK,"Bolton, United Kingdom",,,,Manchester,,GB,
UK,"Bolton, United Kingdom",,,,Manchester,,GB,
UK,"Bolton, United Kingdom",,,,Manchester,,GB,
UK,"Bolton, United Kingdom",,,,Manchester,,GB,
UK,"Bolton, United Kingdom",,,,Manchester,,GB,
UK,"Bolton, United Kingdom",,,,Manchester,,GB,
UK,"Bolton, United Kingdom",,,,Manchester,,GB,
UK,"Bolton, United Kingdom",,,,Manchester,,GB,
UK,"Bolton, United Kingdom",,,,Manchester,,GB,
UK,"Bolton, United Kingdom",,,,Manchester,,GB,
UK,"Bolton, United Kingdom",,,,Manchester,,GB,
UK,"Bolton, United Kingdom",,,,Manchester,,GB,
UK,"Bolton, United Kingdom",,,,Manchester,,GB,
UK,"Bolton, United Kingdom",,,,Manchester,,GB,
UK,"Bolton, United Kingdom",,,,Manchester,,GB,
UK,"Bolton, United Kingdom",,,,Manchester,,GB,
UK,"Bolton, United Kingdom",,,,Manchester,,GB,
Jodhpur,"Chopasani housing board",,,,Jodhpur,Rajasthan,IN,342008
Jhansi,"Railway station",,,,Jhansi,"Uttar Pradesh",IN,284001
"Vijay Mallya","Bir Billing",,,,Himachal,Uttarakhand,IN,111222
Pune,"23,Electronic Co. Op. Estate Ltd., Pune-Satara Road, -411009.",,,,Pune,Maharashtra,IN,411009
mumbai,"bhindi bazar colaba",,,,mumbai,,IN,400001
UK,"Bolton, United Kingdom",,,,Manchester,,GB,
UK,"Bolton, United Kingdom",,,,Manchester,,GB,
UK,"Bolton, United Kingdom",,,,Manchester,,GB,
UK,"Bolton, United Kingdom",,,,Manchester,,GB,
UK,"Bolton, United Kingdom",,,,Manchester,,GB,
UK,"Bolton, United Kingdom",,,,Manchester,,GB,
UK,"Bolton, United Kingdom",,,,Manchester,,GB,
UK,"Bolton, United Kingdom",,,,Manchester,,GB,
UK,"Bolton, United Kingdom",,,,Manchester,,GB,
UK,"Bolton, United Kingdom",,,,Manchester,,GB,
UK,"Bolton, United Kingdom",,,,Manchester,,GB,
UK,"Bolton, United Kingdom",,,,Manchester,,GB,
UK,"Bolton, United Kingdom",,,,Manchester,,GB,
UK,"Bolton, United Kingdom",,,,Manchester,,GB,
UK,"Bolton, United Kingdom",,,,Manchester,,GB,
UK,"Bolton, United Kingdom",,,,Manchester,,GB,
UK,"Bolton, United Kingdom",,,,Manchester,,GB,
UK,"Bolton, United Kingdom",,,,Manchester,,GB,
UK,"Bolton, United Kingdom",,,,Manchester,,GB,
UK,"Bolton, United Kingdom",,,,Manchester,,GB,
UK,"Bolton, United Kingdom",,,,Manchester,,GB,
UK,"Bolton, United Kingdom",,,,Manchester,,GB,
UK,"Bolton, United Kingdom",,,,Manchester,,GB,
UK,"Bolton, United Kingdom",,,,Manchester,,GB,
UK,"Bolton, United Kingdom",,,,Manchester,,GB,
UK,"Bolton, United Kingdom",,,,Manchester,,GB,
UK,"Bolton, United Kingdom",,,,Manchester,,GB,
UK,"Bolton, United Kingdom",,,,Manchester,,GB,
UK,"Bolton, United Kingdom",,,,Manchester,,GB,
UK,"Bolton, United Kingdom",,,,Manchester,,GB,
UK,"Bolton, United Kingdom",,,,Manchester,,GB,
UK,"Bolton, United Kingdom",,,,Manchester,,GB,
UK,"Bolton, United Kingdom",,,,Manchester,,GB,
UK,"Bolton, United Kingdom",,,,Manchester,,GB,
UK,"Bolton, United Kingdom",,,,Manchester,,GB,
UK,"Bolton, United Kingdom",,,,Manchester,,GB,
UK,"Bolton, United Kingdom",,,,Manchester,,GB,
UK,"Bolton, United Kingdom",,,,Manchester,,GB,
UK,"Bolton, United Kingdom",,,,Manchester,,GB,
UK,"Bolton, United Kingdom",,,,Manchester,,GB,
UK,"Bolton, United Kingdom",,,,Manchester,,GB,
UK,"Bolton, United Kingdom",,,,Manchester,,GB,
UK,"Bolton, United Kingdom",,,,Manchester,,GB,
UK,"Bolton, United Kingdom",,,,Manchester,,GB,
UK,"Bolton, United Kingdom",,,,Manchester,,GB,
UK,"Bolton, United Kingdom",,,,Manchester,,GB,
UK,"Bolton, United Kingdom",,,,Manchester,,GB,
UK,"Bolton, United Kingdom",,,,Manchester,,GB,
UK,"Bolton, United Kingdom",,,,Manchester,,GB,
UK,"Bolton, United Kingdom",,,,Manchester,,GB,
UK,"Bolton, United Kingdom",,,,Manchester,,GB,
UK,"Bolton, United Kingdom",,,,Manchester,,GB,
UK,"Bolton, United Kingdom",,,,Manchester,,GB,
UK,"Bolton, United Kingdom",,,,Manchester,,GB,
UK,"Bolton, United Kingdom",,,,Manchester,,GB,
UK,"Bolton, United Kingdom",,,,Manchester,,GB,
UK,"Bolton, United Kingdom",,,,Manchester,,GB,
UK,"Bolton, United Kingdom",,,,Manchester,,GB,
UK,"Bolton, United Kingdom",,,,Manchester,,GB,
UK,"Bolton, United Kingdom",,,,Manchester,,GB,
"RJK HC","3055 Alabama St",,,,"La Crescenta",CA,US,91214
Mumbai,"179 navi mumbai ",,,,Mumbai,Maharashtra,IN,70001
shop1,qwe,,,,kabul,,AF,
UK,"Bolton, United Kingdom",,,,Manchester,,GB,
UK,"Bolton, United Kingdom",,,,Manchester,,GB,
UK,"Bolton, United Kingdom",,,,Manchester,,GB,
UK,"Bolton, United Kingdom",,,,Manchester,,GB,
UK,"Bolton, United Kingdom",,,,Manchester,,GB,
UK,"Bolton, United Kingdom",,,,Manchester,,GB,
UK,"Bolton, United Kingdom",,,,Manchester,,GB,
UK,"Bolton, United Kingdom",,,,Manchester,,GB,
UK,"Bolton, United Kingdom",,,,Manchester,,GB,
UK,"Bolton, United Kingdom",,,,Manchester,,GB,
UK,"Bolton, United Kingdom",,,,Manchester,,GB,
UK,"Bolton, United Kingdom",,,,Manchester,,GB,
UK,"Bolton, United Kingdom",,,,Manchester,,GB,
UK,"Bolton, United Kingdom",,,,Manchester,,GB,
UK,"Bolton, United Kingdom",,,,Manchester,,GB,
UK,"Bolton, United Kingdom",,,,Manchester,,GB,
UK,"Bolton, United Kingdom",,,,Manchester,,GB,
UK,"Bolton, United Kingdom",,,,Manchester,,GB,
UK,"Bolton, United Kingdom",,,,Manchester,,GB,
UK,"Bolton, United Kingdom",,,,Manchester,,GB,
UK,"Bolton, United Kingdom",,,,Manchester,,GB,
UK,"Bolton, United Kingdom",,,,Manchester,,GB,
UK,"Bolton, United Kingdom",,,,Manchester,,GB,
UK,"Bolton, United Kingdom",,,,Manchester,,GB,
UK,"Bolton, United Kingdom",,,,Manchester,,GB,
UK,"Bolton, United Kingdom",,,,Manchester,,GB,
UK,"Bolton, United Kingdom",,,,Manchester,,GB,
UK,"Bolton, United Kingdom",,,,Manchester,,GB,
UK,"Bolton, United Kingdom",,,,Manchester,,GB,
UK,"Bolton, United Kingdom",,,,Manchester,,GB,
UK,"Bolton, United Kingdom",,,,Manchester,,GB,
UK,"Bolton, United Kingdom",,,,Manchester,,GB,
UK,"Bolton, United Kingdom",,,,Manchester,,GB,
UK,"Bolton, United Kingdom",,,,Manchester,,GB,
UK,"Bolton, United Kingdom",,,,Manchester,,GB,
UK,"Bolton, United Kingdom",,,,Manchester,,GB,
UK,"Bolton, United Kingdom",,,,Manchester,,GB,
UK,"Bolton, United Kingdom",,,,Manchester,,GB,
UK,"Bolton, United Kingdom",,,,Manchester,,GB,
UK,"Bolton, United Kingdom",,,,Manchester,,GB,
UK,"Bolton, United Kingdom",,,,Manchester,,GB,
UK,"Bolton, United Kingdom",,,,Manchester,,GB,
UK,"Bolton, United Kingdom",,,,Manchester,,GB,
UK,"Bolton, United Kingdom",,,,Manchester,,GB,
UK,"Bolton, United Kingdom",,,,Manchester,,GB,
UK,"Bolton, United Kingdom",,,,Manchester,,GB,
UK,"Bolton, United Kingdom",,,,Manchester,,GB,
UK,"Bolton, United Kingdom",,,,Manchester,,GB,
UK,"Bolton, United Kingdom",,,,Manchester,,GB,
UK,"Bolton, United Kingdom",,,,Manchester,,GB,
UK,"Bolton, United Kingdom",,,,Manchester,,GB,
UK,"Bolton, United Kingdom",,,,Manchester,,GB,
UK,"Bolton, United Kingdom",,,,Manchester,,GB,
UK,"Bolton, United Kingdom",,,,Manchester,,GB,
UK,"Bolton, United Kingdom",,,,Manchester,,GB,
UK,"Bolton, United Kingdom",,,,Manchester,,GB,
UK,"Bolton, United Kingdom",,,,Manchester,,GB,
UK,"Bolton, United Kingdom",,,,Manchester,,GB,
"GE SUPP SITE","GE US Address1",,,,Holtsville,NY,US,00501
"Near akash gang","lc road",,,,Dhanbad,Jharkhand,IN,826001
"BPA TEST 101","MALAD ROAD","Avenue 405",,,,,US,
"Royal Park Soci","Street 32",,,,Pune,Maharashtra,IN,411001
UK,"Bolton, United Kingdom",,,,Manchester,,GB,
UK,"Bolton, United Kingdom",,,,Manchester,,GB,
UK,"Bolton, United Kingdom",,,,Manchester,,GB,
UK,"Bolton, United Kingdom",,,,Manchester,,GB,
UK,"Bolton, United Kingdom",,,,Manchester,,GB,
UK,"Bolton, United Kingdom",,,,Manchester,,GB,
UK,"Bolton, United Kingdom",,,,Manchester,,GB,
UK,"Bolton, United Kingdom",,,,Manchester,,GB,
UK,"Bolton, United Kingdom",,,,Manchester,,GB,
UK,"Bolton, United Kingdom",,,,Manchester,,GB,
UK,"Bolton, United Kingdom",,,,Manchester,,GB,
UK,"Bolton, United Kingdom",,,,Manchester,,GB,
UK,"Bolton, United Kingdom",,,,Manchester,,GB,
UK,"Bolton, United Kingdom",,,,Manchester,,GB,
UK,"Bolton, United Kingdom",,,,Manchester,,GB,
UK,"Bolton, United Kingdom",,,,Manchester,,GB,
UK,"Bolton, United Kingdom",,,,Manchester,,GB,
"SA Address",,,,,Adjuntas,PR,US,00601
Amsterdam,,,,,,,US,
Amsterdam,,,,,,,US,
UK,"Bolton, United Kingdom",,,,Manchester,,GB,
UK,"Bolton, United Kingdom",,,,Manchester,,GB,
UK,"Bolton, United Kingdom",,,,Manchester,,GB,
UK,"Bolton, United Kingdom",,,,Manchester,,GB,
UK,"Bolton, United Kingdom",,,,Manchester,,GB,
UK,"Bolton, United Kingdom",,,,Manchester,,GB,
UK,"Bolton, United Kingdom",,,,Manchester,,GB,
UK,"Bolton, United Kingdom",,,,Manchester,,GB,
UK,"Bolton, United Kingdom",,,,Manchester,,GB,
UK,"Bolton, United Kingdom",,,,Manchester,,GB,
UK,"Bolton, United Kingdom",,,,Manchester,,GB,
UK,"Bolton, United Kingdom",,,,Manchester,,GB,
UK,"Bolton, United Kingdom",,,,Manchester,,GB,
UK,"Bolton, United Kingdom",,,,Manchester,,GB,
UK,"Bolton, United Kingdom",,,,Manchester,,GB,
UK,"Bolton, United Kingdom",,,,Manchester,,GB,
UK,"Bolton, United Kingdom",,,,Manchester,,GB,
UK,"Bolton, United Kingdom",,,,Manchester,,GB,
UK,"Bolton, United Kingdom",,,,Manchester,,GB,
UK,"Bolton, United Kingdom",,,,Manchester,,GB,
UK,"Bolton, United Kingdom",,,,Manchester,,GB,
UK,"Bolton, United Kingdom",,,,Manchester,,GB,
UK,"Bolton, United Kingdom",,,,Manchester,,GB,
UK,"Bolton, United Kingdom",,,,Manchester,,GB,
UK,"Bolton, United Kingdom",,,,Manchester,,GB,
UK,"Bolton, United Kingdom",,,,Manchester,,GB,
UK,"Bolton, United Kingdom",,,,Manchester,,GB,
UK,"Bolton, United Kingdom",,,,Manchester,,GB,
UK,"Bolton, United Kingdom",,,,Manchester,,GB,
UK,"Bolton, United Kingdom",,,,Manchester,,GB,
UK,"Bolton, United Kingdom",,,,Manchester,,GB,
UK,"Bolton, United Kingdom",,,,Manchester,,GB,
UK,"Bolton, United Kingdom",,,,Manchester,,GB,
UK,"Bolton, United Kingdom",,,,Manchester,,GB,
UK,"Bolton, United Kingdom",,,,Manchester,,GB,
UK,"Bolton, United Kingdom",,,,Manchester,,GB,
UK,"Bolton, United Kingdom",,,,Manchester,,GB,
UK,"Bolton, United Kingdom",,,,Manchester,,GB,
UK,"Bolton, United Kingdom",,,,Manchester,,GB,
UK,"Bolton, United Kingdom",,,,Manchester,,GB,
UK,"Bolton, United Kingdom",,,,Manchester,,GB,
UK,"Bolton, United Kingdom",,,,Manchester,,GB,
UK,"Bolton, United Kingdom",,,,Manchester,,GB,
UK,"Bolton, United Kingdom",,,,Manchester,,GB,
UK,"Bolton, United Kingdom",,,,Manchester,,GB,
UK,"Bolton, United Kingdom",,,,Manchester,,GB,
UK,"Bolton, United Kingdom",,,,Manchester,,GB,
UK,"Bolton, United Kingdom",,,,Manchester,,GB,
UK,"Bolton, United Kingdom",,,,Manchester,,GB,
UK,"Bolton, United Kingdom",,,,Manchester,,GB,
UK,"Bolton, United Kingdom",,,,Manchester,,GB,
UK,"Bolton, United Kingdom",,,,Manchester,,GB,
UK,"Bolton, United Kingdom",,,,Manchester,,GB,
UK,"Bolton, United Kingdom",,,,Manchester,,GB,
UK,"Bolton, United Kingdom",,,,Manchester,,GB,
"SiRo Enterprise","103 block ,gachibowli",,,,Hyderabad,"Andhra Pradesh",IN,500032
UK,"Bolton, United Kingdom",,,,Manchester,,GB,
UK,"Bolton, United Kingdom",,,,Manchester,,GB,
UK,"Bolton, United Kingdom",,,,Manchester,,GB,
UK,"Bolton, United Kingdom",,,,Manchester,,GB,
UK,"Bolton, United Kingdom",,,,Manchester,,GB,
UK,"Bolton, United Kingdom",,,,Manchester,,GB,
UK,"Bolton, United Kingdom",,,,Manchester,,GB,
UK,"Bolton, United Kingdom",,,,Manchester,,GB,
UK,"Bolton, United Kingdom",,,,Manchester,,GB,
UK,"Bolton, United Kingdom",,,,Manchester,,GB,
UK,"Bolton, United Kingdom",,,,Manchester,,GB,
UK,"Bolton, United Kingdom",,,,Manchester,,GB,
UK,"Bolton, United Kingdom",,,,Manchester,,GB,
UK,"Bolton, United Kingdom",,,,Manchester,,GB,
UK,"Bolton, United Kingdom",,,,Manchester,,GB,
UK,"Bolton, United Kingdom",,,,Manchester,,GB,
UK,"Bolton, United Kingdom",,,,Manchester,,GB,
UK,"Bolton, United Kingdom",,,,Manchester,,GB,
UK,"Bolton, United Kingdom",,,,Manchester,,GB,
UK,"Bolton, United Kingdom",,,,Manchester,,GB,
UK,"Bolton, United Kingdom",,,,Manchester,,GB,
UK,"Bolton, United Kingdom",,,,Manchester,,GB,
UK,"Bolton, United Kingdom",,,,Manchester,,GB,
UK,"Bolton, United Kingdom",,,,Manchester,,GB,
UK,"Bolton, United Kingdom",,,,Manchester,,GB,
UK,"Bolton, United Kingdom",,,,Manchester,,GB,
UK,"Bolton, United Kingdom",,,,Manchester,,GB,
UK,"Bolton, United Kingdom",,,,Manchester,,GB,
UK,"Bolton, United Kingdom",,,,Manchester,,GB,
UK,"Bolton, United Kingdom",,,,Manchester,,GB,
UK,"Bolton, United Kingdom",,,,Manchester,,GB,
UK,"Bolton, United Kingdom",,,,Manchester,,GB,
UK,"Bolton, United Kingdom",,,,Manchester,,GB,
UK,"Bolton, United Kingdom",,,,Manchester,,GB,
UK,"Bolton, United Kingdom",,,,Manchester,,GB,
UK,"Bolton, United Kingdom",,,,Manchester,,GB,
UK,"Bolton, United Kingdom",,,,Manchester,,GB,
UK,"Bolton, United Kingdom",,,,Manchester,,GB,
UK,"Bolton, United Kingdom",,,,Manchester,,GB,
UK,"Bolton, United Kingdom",,,,Manchester,,GB,
UK,"Bolton, United Kingdom",,,,Manchester,,GB,
UK,"Bolton, United Kingdom",,,,Manchester,,GB,
UK,"Bolton, United Kingdom",,,,Manchester,,GB,
UK,"Bolton, United Kingdom",,,,Manchester,,GB,
UK,"Bolton, United Kingdom",,,,Manchester,,GB,
UK,"Bolton, United Kingdom",,,,Manchester,,GB,
UK,"Bolton, United Kingdom",,,,Manchester,,GB,
UK,"Bolton, United Kingdom",,,,Manchester,,GB,
UK,"Bolton, United Kingdom",,,,Manchester,,GB,
UK,"Bolton, United Kingdom",,,,Manchester,,GB,
UK,"Bolton, United Kingdom",,,,Manchester,,GB,
UK,"Bolton, United Kingdom",,,,Manchester,,GB,
UK,"Bolton, United Kingdom",,,,Manchester,,GB,
UK,"Bolton, United Kingdom",,,,Manchester,,GB,
UK,"Bolton, United Kingdom",,,,Manchester,,GB,
UK,"Bolton, United Kingdom",,,,Manchester,,GB,
UK,"Bolton, United Kingdom",,,,Manchester,,GB,
UK,"Bolton, United Kingdom",,,,Manchester,,GB,
UK,"Bolton, United Kingdom",,,,Manchester,,GB,
UK,"Bolton, United Kingdom",,,,Manchester,,GB,
UK,"Bolton, United Kingdom",,,,Manchester,,GB,
UK,"Bolton, United Kingdom",,,,Manchester,,GB,
UK,"Bolton, United Kingdom",,,,Manchester,,GB,
UK,"Bolton, United Kingdom",,,,Manchester,,GB,
UK,"Bolton, United Kingdom",,,,Manchester,,GB,
UK,"Bolton, United Kingdom",,,,Manchester,,GB,
UK,"Bolton, United Kingdom",,,,Manchester,,GB,
UK,"Bolton, United Kingdom",,,,Manchester,,GB,
UK,"Bolton, United Kingdom",,,,Manchester,,GB,
UK,"Bolton, United Kingdom",,,,Manchester,,GB,
UK,"Bolton, United Kingdom",,,,Manchester,,GB,
UK,"Bolton, United Kingdom",,,,Manchester,,GB,
UK,"Bolton, United Kingdom",,,,Manchester,,GB,
UK,"Bolton, United Kingdom",,,,Manchester,,GB,
UK,"Bolton, United Kingdom",,,,Manchester,,GB,
UK,"Bolton, United Kingdom",,,,Manchester,,GB,
UK,"Bolton, United Kingdom",,,,Manchester,,GB,
UK,"Bolton, United Kingdom",,,,Manchester,,GB,
Anchorage,,,,,Anchorage,Alaska,US,99502
Anchorage,,,,,Anchorage,Alaska,US,99502
UK,"Bolton, United Kingdom",,,,Manchester,,GB,
UK,"Bolton, United Kingdom",,,,Manchester,,GB,
UK,"Bolton, United Kingdom",,,,Manchester,,GB,
UK,"Bolton, United Kingdom",,,,Manchester,,GB,
UK,"Bolton, United Kingdom",,,,Manchester,,GB,
UK,"Bolton, United Kingdom",,,,Manchester,,GB,
UK,"Bolton, United Kingdom",,,,Manchester,,GB,
UK,"Bolton, United Kingdom",,,,Manchester,,GB,
UK,"Bolton, United Kingdom",,,,Manchester,,GB,
UK,"Bolton, United Kingdom",,,,Manchester,,GB,
UK,"Bolton, United Kingdom",,,,Manchester,,GB,
UK,"Bolton, United Kingdom",,,,Manchester,,GB,
UK,"Bolton, United Kingdom",,,,Manchester,,GB,
UK,"Bolton, United Kingdom",,,,Manchester,,GB,
UK,"Bolton, United Kingdom",,,,Manchester,,GB,
UK,"Bolton, United Kingdom",,,,Manchester,,GB,
UK,"Bolton, United Kingdom",,,,Manchester,,GB,
"10th Street ",,,,,,,US,
UK,"Bolton, United Kingdom",,,,Manchester,,GB,
UK,"Bolton, United Kingdom",,,,Manchester,,GB,
UK,"Bolton, United Kingdom",,,,Manchester,,GB,
UK,"Bolton, United Kingdom",,,,Manchester,,GB,
UK,"Bolton, United Kingdom",,,,Manchester,,GB,
UK,"Bolton, United Kingdom",,,,Manchester,,GB,
UK,"Bolton, United Kingdom",,,,Manchester,,GB,
UK,"Bolton, United Kingdom",,,,Manchester,,GB,
UK,"Bolton, United Kingdom",,,,Manchester,,GB,
UK,"Bolton, United Kingdom",,,,Manchester,,GB,
UK,"Bolton, United Kingdom",,,,Manchester,,GB,
UK,"Bolton, United Kingdom",,,,Manchester,,GB,
UK,"Bolton, United Kingdom",,,,Manchester,,GB,
UK,"Bolton, United Kingdom",,,,Manchester,,GB,
UK,"Bolton, United Kingdom",,,,Manchester,,GB,
UK,"Bolton, United Kingdom",,,,Manchester,,GB,
UK,"Bolton, United Kingdom",,,,Manchester,,GB,
UK,"Bolton, United Kingdom",,,,Manchester,,GB,
UK,"Bolton, United Kingdom",,,,Manchester,,GB,
UK,"Bolton, United Kingdom",,,,Manchester,,GB,
UK,"Bolton, United Kingdom",,,,Manchester,,GB,
UK,"Bolton, United Kingdom",,,,Manchester,,GB,
UK,"Bolton, United Kingdom",,,,Manchester,,GB,
UK,"Bolton, United Kingdom",,,,Manchester,,GB,
UK,"Bolton, United Kingdom",,,,Manchester,,GB,
UK,"Bolton, United Kingdom",,,,Manchester,,GB,
UK,"Bolton, United Kingdom",,,,Manchester,,GB,
UK,"Bolton, United Kingdom",,,,Manchester,,GB,
UK,"Bolton, United Kingdom",,,,Manchester,,GB,
UK,"Bolton, United Kingdom",,,,Manchester,,GB,
UK,"Bolton, United Kingdom",,,,Manchester,,GB,
UK,"Bolton, United Kingdom",,,,Manchester,,GB,
UK,"Bolton, United Kingdom",,,,Manchester,,GB,
UK,"Bolton, United Kingdom",,,,Manchester,,GB,
UK,"Bolton, United Kingdom",,,,Manchester,,GB,
UK,"Bolton, United Kingdom",,,,Manchester,,GB,
UK,"Bolton, United Kingdom",,,,Manchester,,GB,
"FITMCO Sup US","3000 Commerce St",,,,Dallas,TX,US,75226
UK,"Bolton, United Kingdom",,,,Manchester,,GB,
UK,"Bolton, United Kingdom",,,,Manchester,,GB,
UK,"Bolton, United Kingdom",,,,Manchester,,GB,
UK,"Bolton, United Kingdom",,,,Manchester,,GB,
UK,"Bolton, United Kingdom",,,,Manchester,,GB,
UK,"Bolton, United Kingdom",,,,Manchester,,GB,
UK,"Bolton, United Kingdom",,,,Manchester,,GB,
UK,"Bolton, United Kingdom",,,,Manchester,,GB,
UK,"Bolton, United Kingdom",,,,Manchester,,GB,
UK,"Bolton, United Kingdom",,,,Manchester,,GB,
UK,"Bolton, United Kingdom",,,,Manchester,,GB,
UK,"Bolton, United Kingdom",,,,Manchester,,GB,
UK,"Bolton, United Kingdom",,,,Manchester,,GB,
UK,"Bolton, United Kingdom",,,,Manchester,,GB,
UK,"Bolton, United Kingdom",,,,Manchester,,GB,
UK,"Bolton, United Kingdom",,,,Manchester,,GB,
UK,"Bolton, United Kingdom",,,,Manchester,,GB,
UK,"Bolton, United Kingdom",,,,Manchester,,GB,
UK,"Bolton, United Kingdom",,,,Manchester,,GB,
UK,"Bolton, United Kingdom",,,,Manchester,,GB,
UK,"Bolton, United Kingdom",,,,Manchester,,GB,
UK,"Bolton, United Kingdom",,,,Manchester,,GB,
UK,"Bolton, United Kingdom",,,,Manchester,,GB,
PCR_AP_Site,01,,,,"Abu Dhabi",,AE,
UK,"Bolton, United Kingdom",,,,Manchester,,GB,
UK,"Bolton, United Kingdom",,,,Manchester,,GB,
UK,"Bolton, United Kingdom",,,,Manchester,,GB,
UK,"Bolton, United Kingdom",,,,Manchester,,GB,
UK,"Bolton, United Kingdom",,,,Manchester,,GB,
UK,"Bolton, United Kingdom",,,,Manchester,,GB,
UK,"Bolton, United Kingdom",,,,Manchester,,GB,
UK,"Bolton, United Kingdom",,,,Manchester,,GB,
UK,"Bolton, United Kingdom",,,,Manchester,,GB,
UK,"Bolton, United Kingdom",,,,Manchester,,GB,
UK,"Bolton, United Kingdom",,,,Manchester,,GB,
UK,"Bolton, United Kingdom",,,,Manchester,,GB,
UK,"Bolton, United Kingdom",,,,Manchester,,GB,
UK,"Bolton, United Kingdom",,,,Manchester,,GB,
UK,"Bolton, United Kingdom",,,,Manchester,,GB,
UK,"Bolton, United Kingdom",,,,Manchester,,GB,
UK,"Bolton, United Kingdom",,,,Manchester,,GB,
UK,"Bolton, United Kingdom",,,,Manchester,,GB,
UK,"Bolton, United Kingdom",,,,Manchester,,GB,
UK,"Bolton, United Kingdom",,,,Manchester,,GB,
UK,"Bolton, United Kingdom",,,,Manchester,,GB,
UK,"Bolton, United Kingdom",,,,Manchester,,GB,
UK,"Bolton, United Kingdom",,,,Manchester,,GB,
UK,"Bolton, United Kingdom",,,,Manchester,,GB,
UK,"Bolton, United Kingdom",,,,Manchester,,GB,
UK,"Bolton, United Kingdom",,,,Manchester,,GB,
UK,"Bolton, United Kingdom",,,,Manchester,,GB,
UK,"Bolton, United Kingdom",,,,Manchester,,GB,
UK,"Bolton, United Kingdom",,,,Manchester,,GB,
UK,"Bolton, United Kingdom",,,,Manchester,,GB,
UK,"Bolton, United Kingdom",,,,Manchester,,GB,
UK,"Bolton, United Kingdom",,,,Manchester,,GB,
UK,"Bolton, United Kingdom",,,,Manchester,,GB,
UK,"Bolton, United Kingdom",,,,Manchester,,GB,
UK,"Bolton, United Kingdom",,,,Manchester,,GB,
UK,"Bolton, United Kingdom",,,,Manchester,,GB,
UK,"Bolton, United Kingdom",,,,Manchester,,GB,
UK,"Bolton, United Kingdom",,,,Manchester,,GB,
UK,"Bolton, United Kingdom",,,,Manchester,,GB,
UK,"Bolton, United Kingdom",,,,Manchester,,GB,
UK,"Bolton, United Kingdom",,,,Manchester,,GB,
UK,"Bolton, United Kingdom",,,,Manchester,,GB,
UK,"Bolton, United Kingdom",,,,Manchester,,GB,
UK,"Bolton, United Kingdom",,,,Manchester,,GB,
UK,"Bolton, United Kingdom",,,,Manchester,,GB,
UK,"Bolton, United Kingdom",,,,Manchester,,GB,
UK,"Bolton, United Kingdom",,,,Manchester,,GB,
UK,"Bolton, United Kingdom",,,,Manchester,,GB,
UK,"Bolton, United Kingdom",,,,Manchester,,GB,
UK,"Bolton, United Kingdom",,,,Manchester,,GB,
UK,"Bolton, United Kingdom",,,,Manchester,,GB,
UK,"Bolton, United Kingdom",,,,Manchester,,GB,
UK,"Bolton, United Kingdom",,,,Manchester,,GB,
UK,"Bolton, United Kingdom",,,,Manchester,,GB,
UK,"Bolton, United Kingdom",,,,Manchester,,GB,
UK,"Bolton, United Kingdom",,,,Manchester,,GB,
UK,"Bolton, United Kingdom",,,,Manchester,,GB,
UK,"Bolton, United Kingdom",,,,Manchester,,GB,
UK,"Bolton, United Kingdom",,,,Manchester,,GB,
UK,"Bolton, United Kingdom",,,,Manchester,,GB,
UK,"Bolton, United Kingdom",,,,Manchester,,GB,
UK,"Bolton, United Kingdom",,,,Manchester,,GB,
UK,"Bolton, United Kingdom",,,,Manchester,,GB,
UK,"Bolton, United Kingdom",,,,Manchester,,GB,
UK,"Bolton, United Kingdom",,,,Manchester,,GB,
UK,"Bolton, United Kingdom",,,,Manchester,,GB,
UK,"Bolton, United Kingdom",,,,Manchester,,GB,
UK,"Bolton, United Kingdom",,,,Manchester,,GB,
UK,"Bolton, United Kingdom",,,,Manchester,,GB,
UK,"Bolton, United Kingdom",,,,Manchester,,GB,
UK,"Bolton, United Kingdom",,,,Manchester,,GB,
UK,"Bolton, United Kingdom",,,,Manchester,,GB,
UK,"Bolton, United Kingdom",,,,Manchester,,GB,
UK,"Bolton, United Kingdom",,,,Manchester,,GB,
UK,"Bolton, United Kingdom",,,,Manchester,,GB,
UK,"Bolton, United Kingdom",,,,Manchester,,GB,
UK,"Bolton, United Kingdom",,,,Manchester,,GB,
UK,"Bolton, United Kingdom",,,,Manchester,,GB,
UK,"Bolton, United Kingdom",,,,Manchester,,GB,
UK,"Bolton, United Kingdom",,,,Manchester,,GB,
UK,"Bolton, United Kingdom",,,,Manchester,,GB,
UK,"Bolton, United Kingdom",,,,Manchester,,GB,
UK,"Bolton, United Kingdom",,,,Manchester,,GB,
UK,"Bolton, United Kingdom",,,,Manchester,,GB,
UK,"Bolton, United Kingdom",,,,Manchester,,GB,
UK,"Bolton, United Kingdom",,,,Manchester,,GB,
UK,"Bolton, United Kingdom",,,,Manchester,,GB,
UK,"Bolton, United Kingdom",,,,Manchester,,GB,
UK,"Bolton, United Kingdom",,,,Manchester,,GB,
UK,"Bolton, United Kingdom",,,,Manchester,,GB,
UK,"Bolton, United Kingdom",,,,Manchester,,GB,
UK,"Bolton, United Kingdom",,,,Manchester,,GB,
UK,"Bolton, United Kingdom",,,,Manchester,,GB,
UK,"Bolton, United Kingdom",,,,Manchester,,GB,
UK,"Bolton, United Kingdom",,,,Manchester,,GB,
UK,"Bolton, United Kingdom",,,,Manchester,,GB,
UK,"Bolton, United Kingdom",,,,Manchester,,GB,
UK,"Bolton, United Kingdom",,,,Manchester,,GB,
UK,"Bolton, United Kingdom",,,,Manchester,,GB,
UK,"Bolton, United Kingdom",,,,Manchester,,GB,
UK,"Bolton, United Kingdom",,,,Manchester,,GB,
UK,"Bolton, United Kingdom",,,,Manchester,,GB,
UK,"Bolton, United Kingdom",,,,Manchester,,GB,
UK,"Bolton, United Kingdom",,,,Manchester,,GB,
UK,"Bolton, United Kingdom",,,,Manchester,,GB,
UK,"Bolton, United Kingdom",,,,Manchester,,GB,
UK,"Bolton, United Kingdom",,,,Manchester,,GB,
UK,"Bolton, United Kingdom",,,,Manchester,,GB,
UK,"Bolton, United Kingdom",,,,Manchester,,GB,
UK,"Bolton, United Kingdom",,,,Manchester,,GB,
UK,"Bolton, United Kingdom",,,,Manchester,,GB,
UK,"Bolton, United Kingdom",,,,Manchester,,GB,
UK,"Bolton, United Kingdom",,,,Manchester,,GB,
UK,"Bolton, United Kingdom",,,,Manchester,,GB,
UK,"Bolton, United Kingdom",,,,Manchester,,GB,
UK,"Bolton, United Kingdom",,,,Manchester,,GB,
UK,"Bolton, United Kingdom",,,,Manchester,,GB,
UK,"Bolton, United Kingdom",,,,Manchester,,GB,
UK,"Bolton, United Kingdom",,,,Manchester,,GB,
UK,"Bolton, United Kingdom",,,,Manchester,,GB,
UK,"Bolton, United Kingdom",,,,Manchester,,GB,
UK,"Bolton, United Kingdom",,,,Manchester,,GB,
UK,"Bolton, United Kingdom",,,,Manchester,,GB,
UK,"Bolton, United Kingdom",,,,Manchester,,GB,
UK,"Bolton, United Kingdom",,,,Manchester,,GB,
UK,"Bolton, United Kingdom",,,,Manchester,,GB,
UK,"Bolton, United Kingdom",,,,Manchester,,GB,
UK,"Bolton, United Kingdom",,,,Manchester,,GB,
UK,"Bolton, United Kingdom",,,,Manchester,,GB,
UK,"Bolton, United Kingdom",,,,Manchester,,GB,
UK,"Bolton, United Kingdom",,,,Manchester,,GB,
UK,"Bolton, United Kingdom",,,,Manchester,,GB,
UK,"Bolton, United Kingdom",,,,Manchester,,GB,
UK,"Bolton, United Kingdom",,,,Manchester,,GB,
UK,"Bolton, United Kingdom",,,,Manchester,,GB,
UK,"Bolton, United Kingdom",,,,Manchester,,GB,
UK,"Bolton, United Kingdom",,,,Manchester,,GB,
UK,"Bolton, United Kingdom",,,,Manchester,,GB,
UK,"Bolton, United Kingdom",,,,Manchester,,GB,
UK,"Bolton, United Kingdom",,,,Manchester,,GB,
UK,"Bolton, United Kingdom",,,,Manchester,,GB,
UK,"Bolton, United Kingdom",,,,Manchester,,GB,
UK,"Bolton, United Kingdom",,,,Manchester,,GB,
UK,"Bolton, United Kingdom",,,,Manchester,,GB,
UK,"Bolton, United Kingdom",,,,Manchester,,GB,
UK,"Bolton, United Kingdom",,,,Manchester,,GB,
UK,"Bolton, United Kingdom",,,,Manchester,,GB,
UK,"Bolton, United Kingdom",,,,Manchester,,GB,
UK,"Bolton, United Kingdom",,,,Manchester,,GB,
UK,"Bolton, United Kingdom",,,,Manchester,,GB,
UK,"Bolton, United Kingdom",,,,Manchester,,GB,
UK,"Bolton, United Kingdom",,,,Manchester,,GB,
UK,"Bolton, United Kingdom",,,,Manchester,,GB,
UK,"Bolton, United Kingdom",,,,Manchester,,GB,
UK,"Bolton, United Kingdom",,,,Manchester,,GB,
UK,"Bolton, United Kingdom",,,,Manchester,,GB,
UK,"Bolton, United Kingdom",,,,Manchester,,GB,
UK,"Bolton, United Kingdom",,,,Manchester,,GB,
UK,"Bolton, United Kingdom",,,,Manchester,,GB,
UK,"Bolton, United Kingdom",,,,Manchester,,GB,
UK,"Bolton, United Kingdom",,,,Manchester,,GB,
UK,"Bolton, United Kingdom",,,,Manchester,,GB,
UK,"Bolton, United Kingdom",,,,Manchester,,GB,
UK,"Bolton, United Kingdom",,,,Manchester,,GB,
UK,"Bolton, United Kingdom",,,,Manchester,,GB,
UK,"Bolton, United Kingdom",,,,Manchester,,GB,
UK,"Bolton, United Kingdom",,,,Manchester,,GB,
UK,"Bolton, United Kingdom",,,,Manchester,,GB,
UK,"Bolton, United Kingdom",,,,Manchester,,GB,
UK,"Bolton, United Kingdom",,,,Manchester,,GB,
UK,"Bolton, United Kingdom",,,,Manchester,,GB,
"Bolton, United ","Bolton, United Kingdom",,,,Manchester,,GB,
UK,"Bolton, United Kingdom",,,,Manchester,,GB,
UK,"Bolton, United Kingdom",,,,Manchester,,GB,
UK,"Bolton, United Kingdom",,,,Manchester,,GB,
UK,"Bolton, United Kingdom",,,,Manchester,,GB,
UK,"Bolton, United Kingdom",,,,Manchester,,GB,
UK,"Bolton, United Kingdom",,,,Manchester,,GB,
UK,"Bolton, United Kingdom",,,,Manchester,,GB,
UK,"Bolton, United Kingdom",,,,Manchester,,GB,
Colaba,Mumbai,Mumbai,Mumbai,,Nashik,Maharashtra,IN,422008
UK,"Bolton, United Kingdom",,,,Manchester,,GB,
UK,"Bolton, United Kingdom",,,,Manchester,,GB,
UK,"Bolton, United Kingdom",,,,Manchester,,GB,
UK,"Bolton, United Kingdom",,,,Manchester,,GB,
UK,"Bolton, United Kingdom",,,,Manchester,,GB,
UK,"Bolton, United Kingdom",,,,Manchester,,GB,
UK,"Bolton, United Kingdom",,,,Manchester,,GB,
UK,"Bolton, United Kingdom",,,,Manchester,,GB,
UK,"Bolton, United Kingdom",,,,Manchester,,GB,
UK,"Bolton, United Kingdom",,,,Manchester,,GB,
UK,"Bolton, United Kingdom",,,,Manchester,,GB,
UK,"Bolton, United Kingdom",,,,Manchester,,GB,
UK,"Bolton, United Kingdom",,,,Manchester,,GB,
UK,"Bolton, United Kingdom",,,,Manchester,,GB,
UK,"Bolton, United Kingdom",,,,Manchester,,GB,
UK,"Bolton, United Kingdom",,,,Manchester,,GB,
UK,"Bolton, United Kingdom",,,,Manchester,,GB,
UK,"Bolton, United Kingdom",,,,Manchester,,GB,
UK,"Bolton, United Kingdom",,,,Manchester,,GB,
UK,"Bolton, United Kingdom",,,,Manchester,,GB,
UK,"Bolton, United Kingdom",,,,Manchester,,GB,
UK,"Bolton, United Kingdom",,,,Manchester,,GB,
UK,"Bolton, United Kingdom",,,,Manchester,,GB,
UK,"Bolton, United Kingdom",,,,Manchester,,GB,
UK,"Bolton, United Kingdom",,,,Manchester,,GB,
UK,"Bolton, United Kingdom",,,,Manchester,,GB,
UK,"Bolton, United Kingdom",,,,Manchester,,GB,
UK,"Bolton, United Kingdom",,,,Manchester,,GB,
UK,"Bolton, United Kingdom",,,,Manchester,,GB,
UK,"Bolton, United Kingdom",,,,Manchester,,GB,
UK,"Bolton, United Kingdom",,,,Manchester,,GB,
UK,"Bolton, United Kingdom",,,,Manchester,,GB,
UK,"Bolton, United Kingdom",,,,Manchester,,GB,
UK,"Bolton, United Kingdom",,,,Manchester,,GB,
UK,"Bolton, United Kingdom",,,,Manchester,,GB,
UK,"Bolton, United Kingdom",,,,Manchester,,GB,
UK,"Bolton, United Kingdom",,,,Manchester,,GB,
"Main Adda",kjajn,lllakclkasn,,,,,US,
Mercy,"#255 & 256, Arcot Road,","Subbarayan Nagar, ","Near Ram Theatre, Vadapalani.",,Chennai,"Tamil Nadu",IN,600026
"GE US NY Addres","1-101,NEwyork Street",,,,Holtsville,NY,US,00501
"GE US NY SITE3","1-101,NEwyork Street",,,,Holtsville,NY,US,00501
UK,"Bolton, United Kingdom",,,,Manchester,,GB,
UK,"Bolton, United Kingdom",,,,Manchester,,GB,
UK,"Bolton, United Kingdom",,,,Manchester,,GB,
UK,"Bolton, United Kingdom",,,,Manchester,,GB,
UK,"Bolton, United Kingdom",,,,Manchester,,GB,
UK,"Bolton, United Kingdom",,,,Manchester,,GB,
UK,"Bolton, United Kingdom",,,,Manchester,,GB,
UK,"Bolton, United Kingdom",,,,Manchester,,GB,
UK,"Bolton, United Kingdom",,,,Manchester,,GB,
UK,"Bolton, United Kingdom",,,,Manchester,,GB,
UK,"Bolton, United Kingdom",,,,Manchester,,GB,
UK,"Bolton, United Kingdom",,,,Manchester,,GB,
UK,"Bolton, United Kingdom",,,,Manchester,,GB,
UK,"Bolton, United Kingdom",,,,Manchester,,GB,
UK,"Bolton, United Kingdom",,,,Manchester,,GB,
UK,"Bolton, United Kingdom",,,,Manchester,,GB,
UK,"Bolton, United Kingdom",,,,Manchester,,GB,
UK,"Bolton, United Kingdom",,,,Manchester,,GB,
UK,"Bolton, United Kingdom",,,,Manchester,,GB,
UK,"Bolton, United Kingdom",,,,Manchester,,GB,
UK,"Bolton, United Kingdom",,,,Manchester,,GB,
UK,"Bolton, United Kingdom",,,,Manchester,,GB,
UK,"Bolton, United Kingdom",,,,Manchester,,GB,
UK,"Bolton, United Kingdom",,,,Manchester,,GB,
UK,"Bolton, United Kingdom",,,,Manchester,,GB,
UK,"Bolton, United Kingdom",,,,Manchester,,GB,
OFFICE-1,"Abu Dhabi",,,,أبوظبي,,AE,
Test,"Near the Bridge",,,,Boston,State1,AS,
Test1,,,,,,,US,
UK,"Bolton, United Kingdom",,,,Manchester,,GB,
UK,"Bolton, United Kingdom",,,,Manchester,,GB,
UK,"Bolton, United Kingdom",,,,Manchester,,GB,
UK,"Bolton, United Kingdom",,,,Manchester,,GB,
UK,"Bolton, United Kingdom",,,,Manchester,,GB,
UK,"Bolton, United Kingdom",,,,Manchester,,GB,
UK,"Bolton, United Kingdom",,,,Manchester,,GB,
UK,"Bolton, United Kingdom",,,,Manchester,,GB,
UK,"Bolton, United Kingdom",,,,Manchester,,GB,
UK,"Bolton, United Kingdom",,,,Manchester,,GB,
UK,"Bolton, United Kingdom",,,,Manchester,,GB,
UK,"Bolton, United Kingdom",,,,Manchester,,GB,
UK,"Bolton, United Kingdom",,,,Manchester,,GB,
UK,"Bolton, United Kingdom",,,,Manchester,,GB,
UK,"Bolton, United Kingdom",,,,Manchester,,GB,
UK,"Bolton, United Kingdom",,,,Manchester,,GB,
UK,"Bolton, United Kingdom",,,,Manchester,,GB,
UK,"Bolton, United Kingdom",,,,Manchester,,GB,
UK,"Bolton, United Kingdom",,,,Manchester,,GB,
UK,"Bolton, United Kingdom",,,,Manchester,,GB,
UK,"Bolton, United Kingdom",,,,Manchester,,GB,
UK,"Bolton, United Kingdom",,,,Manchester,,GB,
UK,"Bolton, United Kingdom",,,,Manchester,,GB,
"US Foods","Central Avenue ",,,,Boston,State1,AS,
UK,"Bolton, United Kingdom",,,,Manchester,,GB,
UK,"Bolton, United Kingdom",,,,Manchester,,GB,
UK,"Bolton, United Kingdom",,,,Manchester,,GB,
UK,"Bolton, United Kingdom",,,,Manchester,,GB,
UK,"Bolton, United Kingdom",,,,Manchester,,GB,
UK,"Bolton, United Kingdom",,,,Manchester,,GB,
UK,"Bolton, United Kingdom",,,,Manchester,,GB,
UK,"Bolton, United Kingdom",,,,Manchester,,GB,
UK,"Bolton, United Kingdom",,,,Manchester,,GB,
UK,"Bolton, United Kingdom",,,,Manchester,,GB,
UK,"Bolton, United Kingdom",,,,Manchester,,GB,
UK,"Bolton, United Kingdom",,,,Manchester,,GB,
UK,"Bolton, United Kingdom",,,,Manchester,,GB,
UK,"Bolton, United Kingdom",,,,Manchester,,GB,
UK,"Bolton, United Kingdom",,,,Manchester,,GB,
UK,"Bolton, United Kingdom",,,,Manchester,,GB,
UK,"Bolton, United Kingdom",,,,Manchester,,GB,
UK,"Bolton, United Kingdom",,,,Manchester,,GB,
UK,"Bolton, United Kingdom",,,,Manchester,,GB,
UK,"Bolton, United Kingdom",,,,Manchester,,GB,
UK,"Bolton, United Kingdom",,,,Manchester,,GB,
UK,"Bolton, United Kingdom",,,,Manchester,,GB,
UK,"Bolton, United Kingdom",,,,Manchester,,GB,
OFFICE-1,"Abu Dhabi",,,,مصفوت,,AE,
"Derrick state B",,,,,Holtsville,"New York",US,00501
mumbai,Vashi,thane,thane,,thane,Maharashtra,IN,400709
UK,"Bolton, United Kingdom",,,,Manchester,,GB,
UK,"Bolton, United Kingdom",,,,Manchester,,GB,
UK,"Bolton, United Kingdom",,,,Manchester,,GB,
UK,"Bolton, United Kingdom",,,,Manchester,,GB,
UK,"Bolton, United Kingdom",,,,Manchester,,GB,
UK,"Bolton, United Kingdom",,,,Manchester,,GB,
UK,"Bolton, United Kingdom",,,,Manchester,,GB,
UK,"Bolton, United Kingdom",,,,Manchester,,GB,
UK,"Bolton, United Kingdom",,,,Manchester,,GB,
UK,"Bolton, United Kingdom",,,,Manchester,,GB,
UK,"Bolton, United Kingdom",,,,Manchester,,GB,
UK,"Bolton, United Kingdom",,,,Manchester,,GB,
UK,"Bolton, United Kingdom",,,,Manchester,,GB,
UK,"Bolton, United Kingdom",,,,Manchester,,GB,
UK,"Bolton, United Kingdom",,,,Manchester,,GB,
UK,"Bolton, United Kingdom",,,,Manchester,,GB,
UK,"Bolton, United Kingdom",,,,Manchester,,GB,
UK,"Bolton, United Kingdom",,,,Manchester,,GB,
UK,"Bolton, United Kingdom",,,,Manchester,,GB,
UK,"Bolton, United Kingdom",,,,Manchester,,GB,
UK,"Bolton, United Kingdom",,,,Manchester,,GB,
UK,"Bolton, United Kingdom",,,,Manchester,,GB,
UK,"Bolton, United Kingdom",,,,Manchester,,GB,
"XYZ SUPPLIER",880,RUWI,,,MUSCAT,,OM,
Site,B-82,"Near Mandir",,,Washington,DC,US,
UK,"Bolton, United Kingdom",,,,Manchester,,GB,
UK,"Bolton, United Kingdom",,,,Manchester,,GB,
UK,"Bolton, United Kingdom",,,,Manchester,,GB,
UK,"Bolton, United Kingdom",,,,Manchester,,GB,
UK,"Bolton, United Kingdom",,,,Manchester,,GB,
UK,"Bolton, United Kingdom",,,,Manchester,,GB,
UK,"Bolton, United Kingdom",,,,Manchester,,GB,
UK,"Bolton, United Kingdom",,,,Manchester,,GB,
UK,"Bolton, United Kingdom",,,,Manchester,,GB,
UK,"Bolton, United Kingdom",,,,Manchester,,GB,
UK,"Bolton, United Kingdom",,,,Manchester,,GB,
UK,"Bolton, United Kingdom",,,,Manchester,,GB,
UK,"Bolton, United Kingdom",,,,Manchester,,GB,
UK,"Bolton, United Kingdom",,,,Manchester,,GB,
UK,"Bolton, United Kingdom",,,,Manchester,,GB,
UK,"Bolton, United Kingdom",,,,Manchester,,GB,
UK,"Bolton, United Kingdom",,,,Manchester,,GB,
UK,"Bolton, United Kingdom",,,,Manchester,,GB,
UK,"Bolton, United Kingdom",,,,Manchester,,GB,
UK,"Bolton, United Kingdom",,,,Manchester,,GB,
UK,"Bolton, United Kingdom",,,,Manchester,,GB,
UK,"Bolton, United Kingdom",,,,Manchester,,GB,
UK,"Bolton, United Kingdom",,,,Manchester,,GB,
UK,"Bolton, United Kingdom",,,,Manchester,,GB,
UK,"Bolton, United Kingdom",,,,Manchester,,GB,
UK,"Bolton, United Kingdom",,,,Manchester,,GB,
UK,"Bolton, United Kingdom",,,,Manchester,,GB,
UK,"Bolton, United Kingdom",,,,Manchester,,GB,
UK,"Bolton, United Kingdom",,,,Manchester,,GB,
UK,"Bolton, United Kingdom",,,,Manchester,,GB,
UK,"Bolton, United Kingdom",,,,Manchester,,GB,
UK,"Bolton, United Kingdom",,,,Manchester,,GB,
UK,"Bolton, United Kingdom",,,,Manchester,,GB,
UK,"Bolton, United Kingdom",,,,Manchester,,GB,
UK,"Bolton, United Kingdom",,,,Manchester,,GB,
UK,"Bolton, United Kingdom",,,,Manchester,,GB,
UK,"Bolton, United Kingdom",,,,Manchester,,GB,
UK,"Bolton, United Kingdom",,,,Manchester,,GB,
UK,"Bolton, United Kingdom",,,,Manchester,,GB,
UK,"Bolton, United Kingdom",,,,Manchester,,GB,
UK,"Bolton, United Kingdom",,,,Manchester,,GB,
UK,"Bolton, United Kingdom",,,,Manchester,,GB,
UK,"Bolton, United Kingdom",,,,Manchester,,GB,
UK,"Bolton, United Kingdom",,,,Manchester,,GB,
UK,"Bolton, United Kingdom",,,,Manchester,,GB,
UK,"Bolton, United Kingdom",,,,Manchester,,GB,
UK,"Bolton, United Kingdom",,,,Manchester,,GB,
UK,"Bolton, United Kingdom",,,,Manchester,,GB,
UK,"Bolton, United Kingdom",,,,Manchester,,GB,
UK,"Bolton, United Kingdom",,,,Manchester,,GB,
UK,"Bolton, United Kingdom",,,,Manchester,,GB,
UK,"Bolton, United Kingdom",,,,Manchester,,GB,
UK,"Bolton, United Kingdom",,,,Manchester,,GB,
UK,"Bolton, United Kingdom",,,,Manchester,,GB,
UK,"Bolton, United Kingdom",,,,Manchester,,GB,
UK,"Bolton, United Kingdom",,,,Manchester,,GB,
UK,"Bolton, United Kingdom",,,,Manchester,,GB,
UK,"Bolton, United Kingdom",,,,Manchester,,GB,
UK,"Bolton, United Kingdom",,,,Manchester,,GB,
UK,"Bolton, United Kingdom",,,,Manchester,,GB,
UK,"Bolton, United Kingdom",,,,Manchester,,GB,
UK,"Bolton, United Kingdom",,,,Manchester,,GB,
UK,"Bolton, United Kingdom",,,,Manchester,,GB,
UK,"Bolton, United Kingdom",,,,Manchester,,GB,
UK,"Bolton, United Kingdom",,,,Manchester,,GB,
UK,"Bolton, United Kingdom",,,,Manchester,,GB,
UK,"Bolton, United Kingdom",,,,Manchester,,GB,
UK,"Bolton, United Kingdom",,,,Manchester,,GB,
UK,"Bolton, United Kingdom",,,,Manchester,,GB,
Croatia,Croatia,,,,Croatia,,HR,
UK,"Bolton, United Kingdom",,,,Manchester,,GB,
UK,"Bolton, United Kingdom",,,,Manchester,,GB,
UK,"Bolton, United Kingdom",,,,Manchester,,GB,
UK,"Bolton, United Kingdom",,,,Manchester,,GB,
UK,"Bolton, United Kingdom",,,,Manchester,,GB,
UK,"Bolton, United Kingdom",,,,Manchester,,GB,
UK,"Bolton, United Kingdom",,,,Manchester,,GB,
UK,"Bolton, United Kingdom",,,,Manchester,,GB,
UK,"Bolton, United Kingdom",,,,Manchester,,GB,
UK,"Bolton, United Kingdom",,,,Manchester,,GB,
UK,"Bolton, United Kingdom",,,,Manchester,,GB,
UK,"Bolton, United Kingdom",,,,Manchester,,GB,
UK,"Bolton, United Kingdom",,,,Manchester,,GB,
UK,"Bolton, United Kingdom",,,,Manchester,,GB,
UK,"Bolton, United Kingdom",,,,Manchester,,GB,
UK,"Bolton, United Kingdom",,,,Manchester,,GB,
UK,"Bolton, United Kingdom",,,,Manchester,,GB,
UK,"Bolton, United Kingdom",,,,Manchester,,GB,
UK,"Bolton, United Kingdom",,,,Manchester,,GB,
UK,"Bolton, United Kingdom",,,,Manchester,,GB,
UK,"Bolton, United Kingdom",,,,Manchester,,GB,
UK,"Bolton, United Kingdom",,,,Manchester,,GB,
UK,"Bolton, United Kingdom",,,,Manchester,,GB,
UK,"Bolton, United Kingdom",,,,Manchester,,GB,
UK,"Bolton, United Kingdom",,,,Manchester,,GB,
UK,"Bolton, United Kingdom",,,,Manchester,,GB,
UK,"Bolton, United Kingdom",,,,Manchester,,GB,
UK,"Bolton, United Kingdom",,,,Manchester,,GB,
UK,"Bolton, United Kingdom",,,,Manchester,,GB,
PCR_WHT,011,,,,"Abu Dhabi",,AE,
UK,"Bolton, United Kingdom",,,,Manchester,,GB,
UK,"Bolton, United Kingdom",,,,Manchester,,GB,
UK,"Bolton, United Kingdom",,,,Manchester,,GB,
UK,"Bolton, United Kingdom",,,,Manchester,,GB,
UK,"Bolton, United Kingdom",,,,Manchester,,GB,
UK,"Bolton, United Kingdom",,,,Manchester,,GB,
UK,"Bolton, United Kingdom",,,,Manchester,,GB,
UK,"Bolton, United Kingdom",,,,Manchester,,GB,
UK,"Bolton, United Kingdom",,,,Manchester,,GB,
UK,"Bolton, United Kingdom",,,,Manchester,,GB,
UK,"Bolton, United Kingdom",,,,Manchester,,GB,
UK,"Bolton, United Kingdom",,,,Manchester,,GB,
UK,"Bolton, United Kingdom",,,,Manchester,,GB,
UK,"Bolton, United Kingdom",,,,Manchester,,GB,
UK,"Bolton, United Kingdom",,,,Manchester,,GB,
UK,"Bolton, United Kingdom",,,,Manchester,,GB,
UK,"Bolton, United Kingdom",,,,Manchester,,GB,
UK,"Bolton, United Kingdom",,,,Manchester,,GB,
UK,"Bolton, United Kingdom",,,,Manchester,,GB,
UK,"Bolton, United Kingdom",,,,Manchester,,GB,
UK,"Bolton, United Kingdom",,,,Manchester,,GB,
UK,"Bolton, United Kingdom",,,,Manchester,,GB,
UK,"Bolton, United Kingdom",,,,Manchester,,GB,
UK,"Bolton, United Kingdom",,,,Manchester,,GB,
UK,"Bolton, United Kingdom",,,,Manchester,,GB,
UK,"Bolton, United Kingdom",,,,Manchester,,GB,
UK,"Bolton, United Kingdom",,,,Manchester,,GB,
UK,"Bolton, United Kingdom",,,,Manchester,,GB,
UK,"Bolton, United Kingdom",,,,Manchester,,GB,
UK,"Bolton, United Kingdom",,,,Manchester,,GB,
UK,"Bolton, United Kingdom",,,,Manchester,,GB,
UK,"Bolton, United Kingdom",,,,Manchester,,GB,
UK,"Bolton, United Kingdom",,,,Manchester,,GB,
UK,"Bolton, United Kingdom",,,,Manchester,,GB,
UK,"Bolton, United Kingdom",,,,Manchester,,GB,
UK,"Bolton, United Kingdom",,,,Manchester,,GB,
UK,"Bolton, United Kingdom",,,,Manchester,,GB,
UK,"Bolton, United Kingdom",,,,Manchester,,GB,
UK,"Bolton, United Kingdom",,,,Manchester,,GB,
UK,"Bolton, United Kingdom",,,,Manchester,,GB,
UK,"Bolton, United Kingdom",,,,Manchester,,GB,
UK,"Bolton, United Kingdom",,,,Manchester,,GB,
UK,"Bolton, United Kingdom",,,,Manchester,,GB,
UK,"Bolton, United Kingdom",,,,Manchester,,GB,
UK,"Bolton, United Kingdom",,,,Manchester,,GB,
UK,"Bolton, United Kingdom",,,,Manchester,,GB,
UK,"Bolton, United Kingdom",,,,Manchester,,GB,
UK,"Bolton, United Kingdom",,,,Manchester,,GB,
UK,"Bolton, United Kingdom",,,,Manchester,,GB,
UK,"Bolton, United Kingdom",,,,Manchester,,GB,
UK,"Bolton, United Kingdom",,,,Manchester,,GB,
UK,"Bolton, United Kingdom",,,,Manchester,,GB,
UK,"Bolton, United Kingdom",,,,Manchester,,GB,
UK,"Bolton, United Kingdom",,,,Manchester,,GB,
UK,"Bolton, United Kingdom",,,,Manchester,,GB,
UK,"Bolton, United Kingdom",,,,Manchester,,GB,
UK,"Bolton, United Kingdom",,,,Manchester,,GB,
UK,"Bolton, United Kingdom",,,,Manchester,,GB,
UK,"Bolton, United Kingdom",,,,Manchester,,GB,
UK,"Bolton, United Kingdom",,,,Manchester,,GB,
UK,"Bolton, United Kingdom",,,,Manchester,,GB,
UK,"Bolton, United Kingdom",,,,Manchester,,GB,
UK,"Bolton, United Kingdom",,,,Manchester,,GB,
UK,"Bolton, United Kingdom",,,,Manchester,,GB,
UK,"Bolton, United Kingdom",,,,Manchester,,GB,
UK,"Bolton, United Kingdom",,,,Manchester,,GB,
UK,"Bolton, United Kingdom",,,,Manchester,,GB,
UK,"Bolton, United Kingdom",,,,Manchester,,GB,
Holtsville_Task,,,,,Holtsville,"New York",US,00501
"Atlanta ","Leander Road, Delhi ",,,,City,Delhi,IN,22334455
UK,"Bolton, United Kingdom",,,,Manchester,,GB,
UK,"Bolton, United Kingdom",,,,Manchester,,GB,
UK,"Bolton, United Kingdom",,,,Manchester,,GB,
UK,"Bolton, United Kingdom",,,,Manchester,,GB,
UK,"Bolton, United Kingdom",,,,Manchester,,GB,
UK,"Bolton, United Kingdom",,,,Manchester,,GB,
UK,"Bolton, United Kingdom",,,,Manchester,,GB,
UK,"Bolton, United Kingdom",,,,Manchester,,GB,
UK,"Bolton, United Kingdom",,,,Manchester,,GB,
UK,"Bolton, United Kingdom",,,,Manchester,,GB,
UK,"Bolton, United Kingdom",,,,Manchester,,GB,
UK,"Bolton, United Kingdom",,,,Manchester,,GB,
UK,"Bolton, United Kingdom",,,,Manchester,,GB,
UK,"Bolton, United Kingdom",,,,Manchester,,GB,
UK,"Bolton, United Kingdom",,,,Manchester,,GB,
UK,"Bolton, United Kingdom",,,,Manchester,,GB,
UK,"Bolton, United Kingdom",,,,Manchester,,GB,
UK,"Bolton, United Kingdom",,,,Manchester,,GB,
UK,"Bolton, United Kingdom",,,,Manchester,,GB,
UK,"Bolton, United Kingdom",,,,Manchester,,GB,
UK,"Bolton, United Kingdom",,,,Manchester,,GB,
UK,"Bolton, United Kingdom",,,,Manchester,,GB,
UK,"Bolton, United Kingdom",,,,Manchester,,GB,
UK,"Bolton, United Kingdom",,,,Manchester,,GB,
UK,"Bolton, United Kingdom",,,,Manchester,,GB,
UK,"Bolton, United Kingdom",,,,Manchester,,GB,
UK,"Bolton, United Kingdom",,,,Manchester,,GB,
UK,"Bolton, United Kingdom",,,,Manchester,,GB,
UK,"Bolton, United Kingdom",,,,Manchester,,GB,
UK,"Bolton, United Kingdom",,,,Manchester,,GB,
UK,"Bolton, United Kingdom",,,,Manchester,,GB,
UK,"Bolton, United Kingdom",,,,Manchester,,GB,
UK,"Bolton, United Kingdom",,,,Manchester,,GB,
UK,"Bolton, United Kingdom",,,,Manchester,,GB,
UK,"Bolton, United Kingdom",,,,Manchester,,GB,
UK,"Bolton, United Kingdom",,,,Manchester,,GB,
UK,"Bolton, United Kingdom",,,,Manchester,,GB,
UK,"Bolton, United Kingdom",,,,Manchester,,GB,
UK,"Bolton, United Kingdom",,,,Manchester,,GB,
UK,"Bolton, United Kingdom",,,,Manchester,,GB,
UK,"Bolton, United Kingdom",,,,Manchester,,GB,
UK,"Bolton, United Kingdom",,,,Manchester,,GB,
UK,"Bolton, United Kingdom",,,,Manchester,,GB,
UK,"Bolton, United Kingdom",,,,Manchester,,GB,
UK,"Bolton, United Kingdom",,,,Manchester,,GB,
UK,"Bolton, United Kingdom",,,,Manchester,,GB,
UK,"Bolton, United Kingdom",,,,Manchester,,GB,
UK,"Bolton, United Kingdom",,,,Manchester,,GB,
UK,"Bolton, United Kingdom",,,,Manchester,,GB,
UK,"Bolton, United Kingdom",,,,Manchester,,GB,
UK,"Bolton, United Kingdom",,,,Manchester,,GB,
UK,"Bolton, United Kingdom",,,,Manchester,,GB,
UK,"Bolton, United Kingdom",,,,Manchester,,GB,
UK,"Bolton, United Kingdom",,,,Manchester,,GB,
UK,"Bolton, United Kingdom",,,,Manchester,,GB,
UK,"Bolton, United Kingdom",,,,Manchester,,GB,
UK,"Bolton, United Kingdom",,,,Manchester,,GB,
UK,"Bolton, United Kingdom",,,,Manchester,,GB,
UK,"Bolton, United Kingdom",,,,Manchester,,GB,
UK,"Bolton, United Kingdom",,,,Manchester,,GB,
UK,"Bolton, United Kingdom",,,,Manchester,,GB,
UK,"Bolton, United Kingdom",,,,Manchester,,GB,
UK,"Bolton, United Kingdom",,,,Manchester,,GB,
UK,"Bolton, United Kingdom",,,,Manchester,,GB,
UK,"Bolton, United Kingdom",,,,Manchester,,GB,
UK,"Bolton, United Kingdom",,,,Manchester,,GB,
UK,"Bolton, United Kingdom",,,,Manchester,,GB,
UK,"Bolton, United Kingdom",,,,Manchester,,GB,
UK,"Bolton, United Kingdom",,,,Manchester,,GB,
UK,"Bolton, United Kingdom",,,,Manchester,,GB,
UK,"Bolton, United Kingdom",,,,Manchester,,GB,
UK,"Bolton, United Kingdom",,,,Manchester,,GB,
UK,"Bolton, United Kingdom",,,,Manchester,,GB,
UK,"Bolton, United Kingdom",,,,Manchester,,GB,
UK,"Bolton, United Kingdom",,,,Manchester,,GB,
UK,"Bolton, United Kingdom",,,,Manchester,,GB,
"Headquarter ","178/7 Shree housing society bhutkarwadi savedi Ahmednagar 414003",,,,Pune,Maharashtra,IN,414003
"Headquarter ","178/7 Shree housing society bhutkarwadi savedi Ahmednagar 414003",,,,Pune,Maharashtra,IN,414003
Nagpur,"B Block 148 Nagpur",,,,Nagpur,Maharashtra,IN,411057
UK,"Bolton, United Kingdom",,,,Manchester,,GB,
UK,"Bolton, United Kingdom",,,,Manchester,,GB,
UK,"Bolton, United Kingdom",,,,Manchester,,GB,
UK,"Bolton, United Kingdom",,,,Manchester,,GB,
UK,"Bolton, United Kingdom",,,,Manchester,,GB,
UK,"Bolton, United Kingdom",,,,Manchester,,GB,
UK,"Bolton, United Kingdom",,,,Manchester,,GB,
UK,"Bolton, United Kingdom",,,,Manchester,,GB,
UK,"Bolton, United Kingdom",,,,Manchester,,GB,
UK,"Bolton, United Kingdom",,,,Manchester,,GB,
UK,"Bolton, United Kingdom",,,,Manchester,,GB,
UK,"Bolton, United Kingdom",,,,Manchester,,GB,
UK,"Bolton, United Kingdom",,,,Manchester,,GB,
UK,"Bolton, United Kingdom",,,,Manchester,,GB,
UK,"Bolton, United Kingdom",,,,Manchester,,GB,
UK,"Bolton, United Kingdom",,,,Manchester,,GB,
UK,"Bolton, United Kingdom",,,,Manchester,,GB,
UK,"Bolton, United Kingdom",,,,Manchester,,GB,
UK,"Bolton, United Kingdom",,,,Manchester,,GB,
UK,"Bolton, United Kingdom",,,,Manchester,,GB,
UK,"Bolton, United Kingdom",,,,Manchester,,GB,
UK,"Bolton, United Kingdom",,,,Manchester,,GB,
UK,"Bolton, United Kingdom",,,,Manchester,,GB,
UK,"Bolton, United Kingdom",,,,Manchester,,GB,
UK,"Bolton, United Kingdom",,,,Manchester,,GB,
UK,"Bolton, United Kingdom",,,,Manchester,,GB,
UK,"Bolton, United Kingdom",,,,Manchester,,GB,
UK,"Bolton, United Kingdom",,,,Manchester,,GB,
UK,"Bolton, United Kingdom",,,,Manchester,,GB,
UK,"Bolton, United Kingdom",,,,Manchester,,GB,
UK,"Bolton, United Kingdom",,,,Manchester,,GB,
UK,"Bolton, United Kingdom",,,,Manchester,,GB,
UK,"Bolton, United Kingdom",,,,Manchester,,GB,
UK,"Bolton, United Kingdom",,,,Manchester,,GB,
UK,"Bolton, United Kingdom",,,,Manchester,,GB,
UK,"Bolton, United Kingdom",,,,Manchester,,GB,
UK,"Bolton, United Kingdom",,,,Manchester,,GB,
UK,"Bolton, United Kingdom",,,,Manchester,,GB,
UK,"Bolton, United Kingdom",,,,Manchester,,GB,
UK,"Bolton, United Kingdom",,,,Manchester,,GB,
UK,"Bolton, United Kingdom",,,,Manchester,,GB,
UK,"Bolton, United Kingdom",,,,Manchester,,GB,
UK,"Bolton, United Kingdom",,,,Manchester,,GB,
UK,"Bolton, United Kingdom",,,,Manchester,,GB,
UK,"Bolton, United Kingdom",,,,Manchester,,GB,
UK,"Bolton, United Kingdom",,,,Manchester,,GB,
UK,"Bolton, United Kingdom",,,,Manchester,,GB,
UK,"Bolton, United Kingdom",,,,Manchester,,GB,
UK,"Bolton, United Kingdom",,,,Manchester,,GB,
UK,"Bolton, United Kingdom",,,,Manchester,,GB,
UK,"Bolton, United Kingdom",,,,Manchester,,GB,
UK,"Bolton, United Kingdom",,,,Manchester,,GB,
UK,"Bolton, United Kingdom",,,,Manchester,,GB,
UK,"Bolton, United Kingdom",,,,Manchester,,GB,
UK,"Bolton, United Kingdom",,,,Manchester,,GB,
UK,"Bolton, United Kingdom",,,,Manchester,,GB,
UK,"Bolton, United Kingdom",,,,Manchester,,GB,
UK,"Bolton, United Kingdom",,,,Manchester,,GB,
UK,"Bolton, United Kingdom",,,,Manchester,,GB,
UK,"Bolton, United Kingdom",,,,Manchester,,GB,
UK,"Bolton, United Kingdom",,,,Manchester,,GB,
UK,"Bolton, United Kingdom",,,,Manchester,,GB,
UK,"Bolton, United Kingdom",,,,Manchester,,GB,
UK,"Bolton, United Kingdom",,,,Manchester,,GB,
UK,"Bolton, United Kingdom",,,,Manchester,,GB,
UK,"Bolton, United Kingdom",,,,Manchester,,GB,
UK,"Bolton, United Kingdom",,,,Manchester,,GB,
UK,"Bolton, United Kingdom",,,,Manchester,,GB,
UK,"Bolton, United Kingdom",,,,Manchester,,GB,
UK,"Bolton, United Kingdom",,,,Manchester,,GB,
UK,"Bolton, United Kingdom",,,,Manchester,,GB,
UK,"Bolton, United Kingdom",,,,Manchester,,GB,
UK,"Bolton, United Kingdom",,,,Manchester,,GB,
UK,"Bolton, United Kingdom",,,,Manchester,,GB,
UK,"Bolton, United Kingdom",,,,Manchester,,GB,
UK,"Bolton, United Kingdom",,,,Manchester,,GB,
UK,"Bolton, United Kingdom",,,,Manchester,,GB,
UK,"Bolton, United Kingdom",,,,Manchester,,GB,
UK,"Bolton, United Kingdom",,,,Manchester,,GB,
UK,"Bolton, United Kingdom",,,,Manchester,,GB,
UK,"Bolton, United Kingdom",,,,Manchester,,GB,
UK,"Bolton, United Kingdom",,,,Manchester,,GB,
UK,"Bolton, United Kingdom",,,,Manchester,,GB,
UK,"Bolton, United Kingdom",,,,Manchester,,GB,
UK,"Bolton, United Kingdom",,,,Manchester,,GB,
UK,"Bolton, United Kingdom",,,,Manchester,,GB,
UK,"Bolton, United Kingdom",,,,Manchester,,GB,
UK,"Bolton, United Kingdom",,,,Manchester,,GB,
UK,"Bolton, United Kingdom",,,,Manchester,,GB,
UK,"Bolton, United Kingdom",,,,Manchester,,GB,
UK,"Bolton, United Kingdom",,,,Manchester,,GB,
UK,"Bolton, United Kingdom",,,,Manchester,,GB,
UK,"Bolton, United Kingdom",,,,Manchester,,GB,
UK,"Bolton, United Kingdom",,,,Manchester,,GB,
UK,"Bolton, United Kingdom",,,,Manchester,,GB,
UK,"Bolton, United Kingdom",,,,Manchester,,GB,
UK,"Bolton, United Kingdom",,,,Manchester,,GB,
UK,"Bolton, United Kingdom",,,,Manchester,,GB,
UK,"Bolton, United Kingdom",,,,Manchester,,GB,
UK,"Bolton, United Kingdom",,,,Manchester,,GB,
UK,"Bolton, United Kingdom",,,,Manchester,,GB,
UK,"Bolton, United Kingdom",,,,Manchester,,GB,
UK,"Bolton, United Kingdom",,,,Manchester,,GB,
UK,"Bolton, United Kingdom",,,,Manchester,,GB,
UK,"Bolton, United Kingdom",,,,Manchester,,GB,
UK,"Bolton, United Kingdom",,,,Manchester,,GB,
UK,"Bolton, United Kingdom",,,,Manchester,,GB,
UK,"Bolton, United Kingdom",,,,Manchester,,GB,
UK,"Bolton, United Kingdom",,,,Manchester,,GB,
UK,"Bolton, United Kingdom",,,,Manchester,,GB,
UK,"Bolton, United Kingdom",,,,Manchester,,GB,
UK,"Bolton, United Kingdom",,,,Manchester,,GB,
UK,"Bolton, United Kingdom",,,,Manchester,,GB,
UK,"Bolton, United Kingdom",,,,Manchester,,GB,
UK,"Bolton, United Kingdom",,,,Manchester,,GB,
UK,"Bolton, United Kingdom",,,,Manchester,,GB,
UK,"Bolton, United Kingdom",,,,Manchester,,GB,
UK,"Bolton, United Kingdom",,,,Manchester,,GB,
UK,"Bolton, United Kingdom",,,,Manchester,,GB,
UK,"Bolton, United Kingdom",,,,Manchester,,GB,
UK,"Bolton, United Kingdom",,,,Manchester,,GB,
UK,"Bolton, United Kingdom",,,,Manchester,,GB,
UK,"Bolton, United Kingdom",,,,Manchester,,GB,
UK,"Bolton, United Kingdom",,,,Manchester,,GB,
UK,"Bolton, United Kingdom",,,,Manchester,,GB,
UK,"Bolton, United Kingdom",,,,Manchester,,GB,
UK,"Bolton, United Kingdom",,,,Manchester,,GB,
UK,"Bolton, United Kingdom",,,,Manchester,,GB,
UK,"Bolton, United Kingdom",,,,Manchester,,GB,
UK,"Bolton, United Kingdom",,,,Manchester,,GB,
UK,"Bolton, United Kingdom",,,,Manchester,,GB,
UK,"Bolton, United Kingdom",,,,Manchester,,GB,
UK,"Bolton, United Kingdom",,,,Manchester,,GB,
UK,"Bolton, United Kingdom",,,,Manchester,,GB,
UK,"Bolton, United Kingdom",,,,Manchester,,GB,
UK,"Bolton, United Kingdom",,,,Manchester,,GB,
UK,"Bolton, United Kingdom",,,,Manchester,,GB,
UK,"Bolton, United Kingdom",,,,Manchester,,GB,
UK,"Bolton, United Kingdom",,,,Manchester,,GB,
UK,"Bolton, United Kingdom",,,,Manchester,,GB,
UK,"Bolton, United Kingdom",,,,Manchester,,GB,
UK,"Bolton, United Kingdom",,,,Manchester,,GB,
UK,"Bolton, United Kingdom",,,,Manchester,,GB,
UK,"Bolton, United Kingdom",,,,Manchester,,GB,
UK,"Bolton, United Kingdom",,,,Manchester,,GB,
UK,"Bolton, United Kingdom",,,,Manchester,,GB,
UK,"Bolton, United Kingdom",,,,Manchester,,GB,
UK,"Bolton, United Kingdom",,,,Manchester,,GB,
UK,"Bolton, United Kingdom",,,,Manchester,,GB,
UK,"Bolton, United Kingdom",,,,Manchester,,GB,
UK,"Bolton, United Kingdom",,,,Manchester,,GB,
UK,"Bolton, United Kingdom",,,,Manchester,,GB,
UK,"Bolton, United Kingdom",,,,Manchester,,GB,
UK,"Bolton, United Kingdom",,,,Manchester,,GB,
UK,"Bolton, United Kingdom",,,,Manchester,,GB,
UK,"Bolton, United Kingdom",,,,Manchester,,GB,
UK,"Bolton, United Kingdom",,,,Manchester,,GB,
UK,"Bolton, United Kingdom",,,,Manchester,,GB,
UK,"Bolton, United Kingdom",,,,Manchester,,GB,
UK,"Bolton, United Kingdom",,,,Manchester,,GB,
UK,"Bolton, United Kingdom",,,,Manchester,,GB,
UK,"Bolton, United Kingdom",,,,Manchester,,GB,
UK,"Bolton, United Kingdom",,,,Manchester,,GB,
UK,"Bolton, United Kingdom",,,,Manchester,,GB,
UK,"Bolton, United Kingdom",,,,Manchester,,GB,
UK,"Bolton, United Kingdom",,,,Manchester,,GB,
UK,"Bolton, United Kingdom",,,,Manchester,,GB,
UK,"Bolton, United Kingdom",,,,Manchester,,GB,
UK,"Bolton, United Kingdom",,,,Manchester,,GB,
UK,"Bolton, United Kingdom",,,,Manchester,,GB,
UK,"Bolton, United Kingdom",,,,Manchester,,GB,
UK,"Bolton, United Kingdom",,,,Manchester,,GB,
UK,"Bolton, United Kingdom",,,,Manchester,,GB,
UK,"Bolton, United Kingdom",,,,Manchester,,GB,
UK,"Bolton, United Kingdom",,,,Manchester,,GB,
UK,"Bolton, United Kingdom",,,,Manchester,,GB,
UK,"Bolton, United Kingdom",,,,Manchester,,GB,
UK,"Bolton, United Kingdom",,,,Manchester,,GB,
UK,"Bolton, United Kingdom",,,,Manchester,,GB,
UK,"Bolton, United Kingdom",,,,Manchester,,GB,
UK,"Bolton, United Kingdom",,,,Manchester,,GB,
UK,"Bolton, United Kingdom",,,,Manchester,,GB,
UK,"Bolton, United Kingdom",,,,Manchester,,GB,
UK,"Bolton, United Kingdom",,,,Manchester,,GB,
UK,"Bolton, United Kingdom",,,,Manchester,,GB,
UK,"Bolton, United Kingdom",,,,Manchester,,GB,
UK,"Bolton, United Kingdom",,,,Manchester,,GB,
UK,"Bolton, United Kingdom",,,,Manchester,,GB,
UK,"Bolton, United Kingdom",,,,Manchester,,GB,
UK,"Bolton, United Kingdom",,,,Manchester,,GB,
UK,"Bolton, United Kingdom",,,,Manchester,,GB,
UK,"Bolton, United Kingdom",,,,Manchester,,GB,
UK,"Bolton, United Kingdom",,,,Manchester,,GB,
UK,"Bolton, United Kingdom",,,,Manchester,,GB,
UK,"Bolton, United Kingdom",,,,Manchester,,GB,
UK,"Bolton, United Kingdom",,,,Manchester,,GB,
UK,"Bolton, United Kingdom",,,,Manchester,,GB,
UK,"Bolton, United Kingdom",,,,Manchester,,GB,
UK,"Bolton, United Kingdom",,,,Manchester,,GB,
UK,"Bolton, United Kingdom",,,,Manchester,,GB,
UK,"Bolton, United Kingdom",,,,Manchester,,GB,
UK,"Bolton, United Kingdom",,,,Manchester,,GB,
UK,"Bolton, United Kingdom",,,,Manchester,,GB,
UK,"Bolton, United Kingdom",,,,Manchester,,GB,
UK,"Bolton, United Kingdom",,,,Manchester,,GB,
UK,"Bolton, United Kingdom",,,,Manchester,,GB,
UK,"Bolton, United Kingdom",,,,Manchester,,GB,
UK,"Bolton, United Kingdom",,,,Manchester,,GB,
UK,"Bolton, United Kingdom",,,,Manchester,,GB,
UK,"Bolton, United Kingdom",,,,Manchester,,GB,
UK,"Bolton, United Kingdom",,,,Manchester,,GB,
UK,"Bolton, United Kingdom",,,,Manchester,,GB,
UK,"Bolton, United Kingdom",,,,Manchester,,GB,
UK,"Bolton, United Kingdom",,,,Manchester,,GB,
UK,"Bolton, United Kingdom",,,,Manchester,,GB,
UK,"Bolton, United Kingdom",,,,Manchester,,GB,
UK,"Bolton, United Kingdom",,,,Manchester,,GB,
UK,"Bolton, United Kingdom",,,,Manchester,,GB,
UK,"Bolton, United Kingdom",,,,Manchester,,GB,
UK,"Bolton, United Kingdom",,,,Manchester,,GB,
UK,"Bolton, United Kingdom",,,,Manchester,,GB,
UK,"Bolton, United Kingdom",,,,Manchester,,GB,
UK,"Bolton, United Kingdom",,,,Manchester,,GB,
UK,"Bolton, United Kingdom",,,,Manchester,,GB,
UK,"Bolton, United Kingdom",,,,Manchester,,GB,
UK,"Bolton, United Kingdom",,,,Manchester,,GB,
UK,"Bolton, United Kingdom",,,,Manchester,,GB,
UK,"Bolton, United Kingdom",,,,Manchester,,GB,
UK,"Bolton, United Kingdom",,,,Manchester,,GB,
UK,"Bolton, United Kingdom",,,,Manchester,,GB,
UK,"Bolton, United Kingdom",,,,Manchester,,GB,
UK,"Bolton, United Kingdom",,,,Manchester,,GB,
UK,"Bolton, United Kingdom",,,,Manchester,,GB,
UK,"Bolton, United Kingdom",,,,Manchester,,GB,
UK,"Bolton, United Kingdom",,,,Manchester,,GB,
UK,"Bolton, United Kingdom",,,,Manchester,,GB,
UK,"Bolton, United Kingdom",,,,Manchester,,GB,
UK,"Bolton, United Kingdom",,,,Manchester,,GB,
UK,"Bolton, United Kingdom",,,,Manchester,,GB,
UK,"Bolton, United Kingdom",,,,Manchester,,GB,
UK,"Bolton, United Kingdom",,,,Manchester,,GB,
UK,"Bolton, United Kingdom",,,,Manchester,,GB,
UK,"Bolton, United Kingdom",,,,Manchester,,GB,
UK,"Bolton, United Kingdom",,,,Manchester,,GB,
UK,"Bolton, United Kingdom",,,,Manchester,,GB,
UK,"Bolton, United Kingdom",,,,Manchester,,GB,
UK,"Bolton, United Kingdom",,,,Manchester,,GB,
UK,"Bolton, United Kingdom",,,,Manchester,,GB,
UK,"Bolton, United Kingdom",,,,Manchester,,GB,
UK,"Bolton, United Kingdom",,,,Manchester,,GB,
UK,"Bolton, United Kingdom",,,,Manchester,,GB,
UK,"Bolton, United Kingdom",,,,Manchester,,GB,
UK,"Bolton, United Kingdom",,,,Manchester,,GB,
UK,"Bolton, United Kingdom",,,,Manchester,,GB,
UK,"Bolton, United Kingdom",,,,Manchester,,GB,
UK,"Bolton, United Kingdom",,,,Manchester,,GB,
UK,"Bolton, United Kingdom",,,,Manchester,,GB,
UK,"Bolton, United Kingdom",,,,Manchester,,GB,
UK,"Bolton, United Kingdom",,,,Manchester,,GB,
UK,"Bolton, United Kingdom",,,,Manchester,,GB,
UK,"Bolton, United Kingdom",,,,Manchester,,GB,
UK,"Bolton, United Kingdom",,,,Manchester,,GB,
UK,"Bolton, United Kingdom",,,,Manchester,,GB,
UK,"Bolton, United Kingdom",,,,Manchester,,GB,
UK,"Bolton, United Kingdom",,,,Manchester,,GB,
UK,"Bolton, United Kingdom",,,,Manchester,,GB,
UK,"Bolton, United Kingdom",,,,Manchester,,GB,
UK,"Bolton, United Kingdom",,,,Manchester,,GB,
UK,"Bolton, United Kingdom",,,,Manchester,,GB,
UK,"Bolton, United Kingdom",,,,Manchester,,GB,
UK,"Bolton, United Kingdom",,,,Manchester,,GB,
UK,"Bolton, United Kingdom",,,,Manchester,,GB,
UK,"Bolton, United Kingdom",,,,Manchester,,GB,
UK,"Bolton, United Kingdom",,,,Manchester,,GB,
UK,"Bolton, United Kingdom",,,,Manchester,,GB,
UK,"Bolton, United Kingdom",,,,Manchester,,GB,
UK,"Bolton, United Kingdom",,,,Manchester,,GB,
UK,"Bolton, United Kingdom",,,,Manchester,,GB,
UK,"Bolton, United Kingdom",,,,Manchester,,GB,
UK,"Bolton, United Kingdom",,,,Manchester,,GB,
UK,"Bolton, United Kingdom",,,,Manchester,,GB,
UK,"Bolton, United Kingdom",,,,Manchester,,GB,
UK,"Bolton, United Kingdom",,,,Manchester,,GB,
UK,"Bolton, United Kingdom",,,,Manchester,,GB,
UK,"Bolton, United Kingdom",,,,Manchester,,GB,
UK,"Bolton, United Kingdom",,,,Manchester,,GB,
UK,"Bolton, United Kingdom",,,,Manchester,,GB,
UK,"Bolton, United Kingdom",,,,Manchester,,GB,
UK,"Bolton, United Kingdom",,,,Manchester,,GB,
UK,"Bolton, United Kingdom",,,,Manchester,,GB,
UK,"Bolton, United Kingdom",,,,Manchester,,GB,
UK,"Bolton, United Kingdom",,,,Manchester,,GB,
UK,"Bolton, United Kingdom",,,,Manchester,,GB,
UK,"Bolton, United Kingdom",,,,Manchester,,GB,
UK,"Bolton, United Kingdom",,,,Manchester,,GB,
UK,"Bolton, United Kingdom",,,,Manchester,,GB,
UK,"Bolton, United Kingdom",,,,Manchester,,GB,
UK,"Bolton, United Kingdom",,,,Manchester,,GB,
UK,"Bolton, United Kingdom",,,,Manchester,,GB,
UK,"Bolton, United Kingdom",,,,Manchester,,GB,
UK,"Bolton, United Kingdom",,,,Manchester,,GB,
UK,"Bolton, United Kingdom",,,,Manchester,,GB,
UK,"Bolton, United Kingdom",,,,Manchester,,GB,
UK,"Bolton, United Kingdom",,,,Manchester,,GB,
UK,"Bolton, United Kingdom",,,,Manchester,,GB,
UK,"Bolton, United Kingdom",,,,Manchester,,GB,
UK,"Bolton, United Kingdom",,,,Manchester,,GB,
UK,"Bolton, United Kingdom",,,,Manchester,,GB,
UK,"Bolton, United Kingdom",,,,Manchester,,GB,
UK,"Bolton, United Kingdom",,,,Manchester,,GB,
UK,"Bolton, United Kingdom",,,,Manchester,,GB,
UK,"Bolton, United Kingdom",,,,Manchester,,GB,
UK,"Bolton, United Kingdom",,,,Manchester,,GB,
UK,"Bolton, United Kingdom",,,,Manchester,,GB,
UK,"Bolton, United Kingdom",,,,Manchester,,GB,
UK,"Bolton, United Kingdom",,,,Manchester,,GB,
UK,"Bolton, United Kingdom",,,,Manchester,,GB,
UK,"Bolton, United Kingdom",,,,Manchester,,GB,
UK,"Bolton, United Kingdom",,,,Manchester,,GB,
UK,"Bolton, United Kingdom",,,,Manchester,,GB,
UK,"Bolton, United Kingdom",,,,Manchester,,GB,
UK,"Bolton, United Kingdom",,,,Manchester,,GB,
UK,"Bolton, United Kingdom",,,,Manchester,,GB,
UK,"Bolton, United Kingdom",,,,Manchester,,GB,
UK,"Bolton, United Kingdom",,,,Manchester,,GB,
UK,"Bolton, United Kingdom",,,,Manchester,,GB,
UK,"Bolton, United Kingdom",,,,Manchester,,GB,
UK,"Bolton, United Kingdom",,,,Manchester,,GB,
UK,"Bolton, United Kingdom",,,,Manchester,,GB,
UK,"Bolton, United Kingdom",,,,Manchester,,GB,
UK,"Bolton, United Kingdom",,,,Manchester,,GB,
UK,"Bolton, United Kingdom",,,,Manchester,,GB,
UK,"Bolton, United Kingdom",,,,Manchester,,GB,
UK,"Bolton, United Kingdom",,,,Manchester,,GB,
UK,"Bolton, United Kingdom",,,,Manchester,,GB,
UK,"Bolton, United Kingdom",,,,Manchester,,GB,
UK,"Bolton, United Kingdom",,,,Manchester,,GB,
UK,"Bolton, United Kingdom",,,,Manchester,,GB,
UK,"Bolton, United Kingdom",,,,Manchester,,GB,
UK,"Bolton, United Kingdom",,,,Manchester,,GB,
UK,"Bolton, United Kingdom",,,,Manchester,,GB,
UK,"Bolton, United Kingdom",,,,Manchester,,GB,
UK,"Bolton, United Kingdom",,,,Manchester,,GB,
UK,"Bolton, United Kingdom",,,,Manchester,,GB,
UK,"Bolton, United Kingdom",,,,Manchester,,GB,
UK,"Bolton, United Kingdom",,,,Manchester,,GB,
UK,"Bolton, United Kingdom",,,,Manchester,,GB,
UK,"Bolton, United Kingdom",,,,Manchester,,GB,
UK,"Bolton, United Kingdom",,,,Manchester,,GB,
UK,"Bolton, United Kingdom",,,,Manchester,,GB,
UK,"Bolton, United Kingdom",,,,Manchester,,GB,
UK,"Bolton, United Kingdom",,,,Manchester,,GB,
UK,"Bolton, United Kingdom",,,,Manchester,,GB,
UK,"Bolton, United Kingdom",,,,Manchester,,GB,
UK,"Bolton, United Kingdom",,,,Manchester,,GB,
UK,"Bolton, United Kingdom",,,,Manchester,,GB,
UK,"Bolton, United Kingdom",,,,Manchester,,GB,
UK,"Bolton, United Kingdom",,,,Manchester,,GB,
UK,"Bolton, United Kingdom",,,,Manchester,,GB,
UK,"Bolton, United Kingdom",,,,Manchester,,GB,
UK,"Bolton, United Kingdom",,,,Manchester,,GB,
UK,"Bolton, United Kingdom",,,,Manchester,,GB,
UK,"Bolton, United Kingdom",,,,Manchester,,GB,
UK,"Bolton, United Kingdom",,,,Manchester,,GB,
UK,"Bolton, United Kingdom",,,,Manchester,,GB,
UK,"Bolton, United Kingdom",,,,Manchester,,GB,
UK,"Bolton, United Kingdom",,,,Manchester,,GB,
UK,"Bolton, United Kingdom",,,,Manchester,,GB,
UK,"Bolton, United Kingdom",,,,Manchester,,GB,
UK,"Bolton, United Kingdom",,,,Manchester,,GB,
UK,"Bolton, United Kingdom",,,,Manchester,,GB,
UK,"Bolton, United Kingdom",,,,Manchester,,GB,
UK,"Bolton, United Kingdom",,,,Manchester,,GB,
UK,"Bolton, United Kingdom",,,,Manchester,,GB,
UK,"Bolton, United Kingdom",,,,Manchester,,GB,
UK,"Bolton, United Kingdom",,,,Manchester,,GB,
UK,"Bolton, United Kingdom",,,,Manchester,,GB,
UK,"Bolton, United Kingdom",,,,Manchester,,GB,
UK,"Bolton, United Kingdom",,,,Manchester,,GB,
UK,"Bolton, United Kingdom",,,,Manchester,,GB,
UK,"Bolton, United Kingdom",,,,Manchester,,GB,
UK,"Bolton, United Kingdom",,,,Manchester,,GB,
UK,"Bolton, United Kingdom",,,,Manchester,,GB,
UK,"Bolton, United Kingdom",,,,Manchester,,GB,
UK,"Bolton, United Kingdom",,,,Manchester,,GB,
UK,"Bolton, United Kingdom",,,,Manchester,,GB,
UK,"Bolton, United Kingdom",,,,Manchester,,GB,
UK,"Bolton, United Kingdom",,,,Manchester,,GB,
UK,"Bolton, United Kingdom",,,,Manchester,,GB,
UK,"Bolton, United Kingdom",,,,Manchester,,GB,
UK,"Bolton, United Kingdom",,,,Manchester,,GB,
UK,"Bolton, United Kingdom",,,,Manchester,,GB,
UK,"Bolton, United Kingdom",,,,Manchester,,GB,
UK,"Bolton, United Kingdom",,,,Manchester,,GB,
UK,"Bolton, United Kingdom",,,,Manchester,,GB,
UK,"Bolton, United Kingdom",,,,Manchester,,GB,
UK,"Bolton, United Kingdom",,,,Manchester,,GB,
UK,"Bolton, United Kingdom",,,,Manchester,,GB,
UK,"Bolton, United Kingdom",,,,Manchester,,GB,
UK,"Bolton, United Kingdom",,,,Manchester,,GB,
UK,"Bolton, United Kingdom",,,,Manchester,,GB,
UK,"Bolton, United Kingdom",,,,Manchester,,GB,
UK,"Bolton, United Kingdom",,,,Manchester,,GB,
UK,"Bolton, United Kingdom",,,,Manchester,,GB,
UK,"Bolton, United Kingdom",,,,Manchester,,GB,
UK,"Bolton, United Kingdom",,,,Manchester,,GB,
UK,"Bolton, United Kingdom",,,,Manchester,,GB,
UK,"Bolton, United Kingdom",,,,Manchester,,GB,
UK,"Bolton, United Kingdom",,,,Manchester,,GB,
UK,"Bolton, United Kingdom",,,,Manchester,,GB,
UK,"Bolton, United Kingdom",,,,Manchester,,GB,
UK,"Bolton, United Kingdom",,,,Manchester,,GB,
UK,"Bolton, United Kingdom",,,,Manchester,,GB,
UK,"Bolton, United Kingdom",,,,Manchester,,GB,
UK,"Bolton, United Kingdom",,,,Manchester,,GB,
UK,"Bolton, United Kingdom",,,,Manchester,,GB,
UK,"Bolton, United Kingdom",,,,Manchester,,GB,
UK,"Bolton, United Kingdom",,,,Manchester,,GB,
UK,"Bolton, United Kingdom",,,,Manchester,,GB,
UK,"Bolton, United Kingdom",,,,Manchester,,GB,
UK,"Bolton, United Kingdom",,,,Manchester,,GB,
UK,"Bolton, United Kingdom",,,,Manchester,,GB,
UK,"Bolton, United Kingdom",,,,Manchester,,GB,
UK,"Bolton, United Kingdom",,,,Manchester,,GB,
UK,"Bolton, United Kingdom",,,,Manchester,,GB,
UK,"Bolton, United Kingdom",,,,Manchester,,GB,
UK,"Bolton, United Kingdom",,,,Manchester,,GB,
UK,"Bolton, United Kingdom",,,,Manchester,,GB,
UK,"Bolton, United Kingdom",,,,Manchester,,GB,
UK,"Bolton, United Kingdom",,,,Manchester,,GB,
UK,"Bolton, United Kingdom",,,,Manchester,,GB,
UK,"Bolton, United Kingdom",,,,Manchester,,GB,
UK,"Bolton, United Kingdom",,,,Manchester,,GB,
UK,"Bolton, United Kingdom",,,,Manchester,,GB,
UK,"Bolton, United Kingdom",,,,Manchester,,GB,
UK,"Bolton, United Kingdom",,,,Manchester,,GB,
UK,"Bolton, United Kingdom",,,,Manchester,,GB,
UK,"Bolton, United Kingdom",,,,Manchester,,GB,
UK,"Bolton, United Kingdom",,,,Manchester,,GB,
UK,"Bolton, United Kingdom",,,,Manchester,,GB,
UK,"Bolton, United Kingdom",,,,Manchester,,GB,
UK,"Bolton, United Kingdom",,,,Manchester,,GB,
UK,"Bolton, United Kingdom",,,,Manchester,,GB,
UK,"Bolton, United Kingdom",,,,Manchester,,GB,
UK,"Bolton, United Kingdom",,,,Manchester,,GB,
UK,"Bolton, United Kingdom",,,,Manchester,,GB,
UK,"Bolton, United Kingdom",,,,Manchester,,GB,
UK,"Bolton, United Kingdom",,,,Manchester,,GB,
UK,"Bolton, United Kingdom",,,,Manchester,,GB,
UK,"Bolton, United Kingdom",,,,Manchester,,GB,
UK,"Bolton, United Kingdom",,,,Manchester,,GB,
UK,"Bolton, United Kingdom",,,,Manchester,,GB,
UK,"Bolton, United Kingdom",,,,Manchester,,GB,
UK,"Bolton, United Kingdom",,,,Manchester,,GB,
UK,"Bolton, United Kingdom",,,,Manchester,,GB,
UK,"Bolton, United Kingdom",,,,Manchester,,GB,
UK,"Bolton, United Kingdom",,,,Manchester,,GB,
UK,"Bolton, United Kingdom",,,,Manchester,,GB,
UK,"Bolton, United Kingdom",,,,Manchester,,GB,
UK,"Bolton, United Kingdom",,,,Manchester,,GB,
UK,"Bolton, United Kingdom",,,,Manchester,,GB,
UK,"Bolton, United Kingdom",,,,Manchester,,GB,
UK,"Bolton, United Kingdom",,,,Manchester,,GB,
UK,"Bolton, United Kingdom",,,,Manchester,,GB,
UK,"Bolton, United Kingdom",,,,Manchester,,GB,
UK,"Bolton, United Kingdom",,,,Manchester,,GB,
UK,"Bolton, United Kingdom",,,,Manchester,,GB,
UK,"Bolton, United Kingdom",,,,Manchester,,GB,
UK,"Bolton, United Kingdom",,,,Manchester,,GB,
UK,"Bolton, United Kingdom",,,,Manchester,,GB,
UK,"Bolton, United Kingdom",,,,Manchester,,GB,
UK,"Bolton, United Kingdom",,,,Manchester,,GB,
UK,"Bolton, United Kingdom",,,,Manchester,,GB,
UK,"Bolton, United Kingdom",,,,Manchester,,GB,
UK,"Bolton, United Kingdom",,,,Manchester,,GB,
UK,"Bolton, United Kingdom",,,,Manchester,,GB,
UK,"Bolton, United Kingdom",,,,Manchester,,GB,
UK,"Bolton, United Kingdom",,,,Manchester,,GB,
UK,"Bolton, United Kingdom",,,,Manchester,,GB,
UK,"Bolton, United Kingdom",,,,Manchester,,GB,
UK,"Bolton, United Kingdom",,,,Manchester,,GB,
UK,"Bolton, United Kingdom",,,,Manchester,,GB,
UK,"Bolton, United Kingdom",,,,Manchester,,GB,
UK,"Bolton, United Kingdom",,,,Manchester,,GB,
UK,"Bolton, United Kingdom",,,,Manchester,,GB,
UK,"Bolton, United Kingdom",,,,Manchester,,GB,
UK,"Bolton, United Kingdom",,,,Manchester,,GB,
UK,"Bolton, United Kingdom",,,,Manchester,,GB,
UK,"Bolton, United Kingdom",,,,Manchester,,GB,
UK,"Bolton, United Kingdom",,,,Manchester,,GB,
UK,"Bolton, United Kingdom",,,,Manchester,,GB,
UK,"Bolton, United Kingdom",,,,Manchester,,GB,
UK,"Bolton, United Kingdom",,,,Manchester,,GB,
UK,"Bolton, United Kingdom",,,,Manchester,,GB,
UK,"Bolton, United Kingdom",,,,Manchester,,GB,
UK,"Bolton, United Kingdom",,,,Manchester,,GB,
UK,"Bolton, United Kingdom",,,,Manchester,,GB,
UK,"Bolton, United Kingdom",,,,Manchester,,GB,
UK,"Bolton, United Kingdom",,,,Manchester,,GB,
UK,"Bolton, United Kingdom",,,,Manchester,,GB,
UK,"Bolton, United Kingdom",,,,Manchester,,GB,
UK,"Bolton, United Kingdom",,,,Manchester,,GB,
UK,"Bolton, United Kingdom",,,,Manchester,,GB,
UK,"Bolton, United Kingdom",,,,Manchester,,GB,
UK,"Bolton, United Kingdom",,,,Manchester,,GB,
UK,"Bolton, United Kingdom",,,,Manchester,,GB,
UK,"Bolton, United Kingdom",,,,Manchester,,GB,
UK,"Bolton, United Kingdom",,,,Manchester,,GB,
UK,"Bolton, United Kingdom",,,,Manchester,,GB,
UK,"Bolton, United Kingdom",,,,Manchester,,GB,
UK,"Bolton, United Kingdom",,,,Manchester,,GB,
UK,"Bolton, United Kingdom",,,,Manchester,,GB,
UK,"Bolton, United Kingdom",,,,Manchester,,GB,
UK,"Bolton, United Kingdom",,,,Manchester,,GB,
UK,"Bolton, United Kingdom",,,,Manchester,,GB,
UK,"Bolton, United Kingdom",,,,Manchester,,GB,
UK,"Bolton, United Kingdom",,,,Manchester,,GB,
UK,"Bolton, United Kingdom",,,,Manchester,,GB,
UK,"Bolton, United Kingdom",,,,Manchester,,GB,
UK,"Bolton, United Kingdom",,,,Manchester,,GB,
UK,"Bolton, United Kingdom",,,,Manchester,,GB,
UK,"Bolton, United Kingdom",,,,Manchester,,GB,
UK,"Bolton, United Kingdom",,,,Manchester,,GB,
UK,"Bolton, United Kingdom",,,,Manchester,,GB,
UK,"Bolton, United Kingdom",,,,Manchester,,GB,
UK,"Bolton, United Kingdom",,,,Manchester,,GB,
UK,"Bolton, United Kingdom",,,,Manchester,,GB,
UK,"Bolton, United Kingdom",,,,Manchester,,GB,
UK,"Bolton, United Kingdom",,,,Manchester,,GB,
UK,"Bolton, United Kingdom",,,,Manchester,,GB,
UK,"Bolton, United Kingdom",,,,Manchester,,GB,
UK,"Bolton, United Kingdom",,,,Manchester,,GB,
UK,"Bolton, United Kingdom",,,,Manchester,,GB,
UK,"Bolton, United Kingdom",,,,Manchester,,GB,
UK,"Bolton, United Kingdom",,,,Manchester,,GB,
UK,"Bolton, United Kingdom",,,,Manchester,,GB,
UK,"Bolton, United Kingdom",,,,Manchester,,GB,
UK,"Bolton, United Kingdom",,,,Manchester,,GB,
UK,"Bolton, United Kingdom",,,,Manchester,,GB,
UK,"Bolton, United Kingdom",,,,Manchester,,GB,
UK,"Bolton, United Kingdom",,,,Manchester,,GB,
UK,"Bolton, United Kingdom",,,,Manchester,,GB,
UK,"Bolton, United Kingdom",,,,Manchester,,GB,
UK,"Bolton, United Kingdom",,,,Manchester,,GB,
UK,"Bolton, United Kingdom",,,,Manchester,,GB,
UK,"Bolton, United Kingdom",,,,Manchester,,GB,
UK,"Bolton, United Kingdom",,,,Manchester,,GB,
UK,"Bolton, United Kingdom",,,,Manchester,,GB,
UK,"Bolton, United Kingdom",,,,Manchester,,GB,
UK,"Bolton, United Kingdom",,,,Manchester,,GB,
UK,"Bolton, United Kingdom",,,,Manchester,,GB,
UK,"Bolton, United Kingdom",,,,Manchester,,GB,
UK,"Bolton, United Kingdom",,,,Manchester,,GB,
UK,"Bolton, United Kingdom",,,,Manchester,,GB,
UK,"Bolton, United Kingdom",,,,Manchester,,GB,
UK,"Bolton, United Kingdom",,,,Manchester,,GB,
UK,"Bolton, United Kingdom",,,,Manchester,,GB,
UK,"Bolton, United Kingdom",,,,Manchester,,GB,
UK,"Bolton, United Kingdom",,,,Manchester,,GB,
UK,"Bolton, United Kingdom",,,,Manchester,,GB,
UK,"Bolton, United Kingdom",,,,Manchester,,GB,
UK,"Bolton, United Kingdom",,,,Manchester,,GB,
UK,"Bolton, United Kingdom",,,,Manchester,,GB,
UK,"Bolton, United Kingdom",,,,Manchester,,GB,
UK,"Bolton, United Kingdom",,,,Manchester,,GB,
UK,"Bolton, United Kingdom",,,,Manchester,,GB,
UK,"Bolton, United Kingdom",,,,Manchester,,GB,
UK,"Bolton, United Kingdom",,,,Manchester,,GB,
UK,"Bolton, United Kingdom",,,,Manchester,,GB,
UK,"Bolton, United Kingdom",,,,Manchester,,GB,
UK,"Bolton, United Kingdom",,,,Manchester,,GB,
UK,"Bolton, United Kingdom",,,,Manchester,,GB,
UK,"Bolton, United Kingdom",,,,Manchester,,GB,
UK,"Bolton, United Kingdom",,,,Manchester,,GB,
UK,"Bolton, United Kingdom",,,,Manchester,,GB,
UK,"Bolton, United Kingdom",,,,Manchester,,GB,
UK,"Bolton, United Kingdom",,,,Manchester,,GB,
UK,"Bolton, United Kingdom",,,,Manchester,,GB,
UK,"Bolton, United Kingdom",,,,Manchester,,GB,
UK,"Bolton, United Kingdom",,,,Manchester,,GB,
UK,"Bolton, United Kingdom",,,,Manchester,,GB,
UK,"Bolton, United Kingdom",,,,Manchester,,GB,
UK,"Bolton, United Kingdom",,,,Manchester,,GB,
UK,"Bolton, United Kingdom",,,,Manchester,,GB,
UK,"Bolton, United Kingdom",,,,Manchester,,GB,
UK,"Bolton, United Kingdom",,,,Manchester,,GB,
UK,"Bolton, United Kingdom",,,,Manchester,,GB,
UK,"Bolton, United Kingdom",,,,Manchester,,GB,
UK,"Bolton, United Kingdom",,,,Manchester,,GB,
UK,"Bolton, United Kingdom",,,,Manchester,,GB,
UK,"Bolton, United Kingdom",,,,Manchester,,GB,
UK,"Bolton, United Kingdom",,,,Manchester,,GB,
UK,"Bolton, United Kingdom",,,,Manchester,,GB,
UK,"Bolton, United Kingdom",,,,Manchester,,GB,
UK,"Bolton, United Kingdom",,,,Manchester,,GB,
UK,"Bolton, United Kingdom",,,,Manchester,,GB,
UK,"Bolton, United Kingdom",,,,Manchester,,GB,
UK,"Bolton, United Kingdom",,,,Manchester,,GB,
UK,"Bolton, United Kingdom",,,,Manchester,,GB,
UK,"Bolton, United Kingdom",,,,Manchester,,GB,
UK,"Bolton, United Kingdom",,,,Manchester,,GB,
UK,"Bolton, United Kingdom",,,,Manchester,,GB,
UK,"Bolton, United Kingdom",,,,Manchester,,GB,
UK,"Bolton, United Kingdom",,,,Manchester,,GB,
UK,"Bolton, United Kingdom",,,,Manchester,,GB,
UK,"Bolton, United Kingdom",,,,Manchester,,GB,
UK,"Bolton, United Kingdom",,,,Manchester,,GB,
UK,"Bolton, United Kingdom",,,,Manchester,,GB,
UK,"Bolton, United Kingdom",,,,Manchester,,GB,
UK,"Bolton, United Kingdom",,,,Manchester,,GB,
UK,"Bolton, United Kingdom",,,,Manchester,,GB,
UK,"Bolton, United Kingdom",,,,Manchester,,GB,
UK,"Bolton, United Kingdom",,,,Manchester,,GB,
UK,"Bolton, United Kingdom",,,,Manchester,,GB,
UK,"Bolton, United Kingdom",,,,Manchester,,GB,
UK,"Bolton, United Kingdom",,,,Manchester,,GB,
UK,"Bolton, United Kingdom",,,,Manchester,,GB,
UK,"Bolton, United Kingdom",,,,Manchester,,GB,
UK,"Bolton, United Kingdom",,,,Manchester,,GB,
UK,"Bolton, United Kingdom",,,,Manchester,,GB,
UK,"Bolton, United Kingdom",,,,Manchester,,GB,
UK,"Bolton, United Kingdom",,,,Manchester,,GB,
UK,"Bolton, United Kingdom",,,,Manchester,,GB,
UK,"Bolton, United Kingdom",,,,Manchester,,GB,
UK,"Bolton, United Kingdom",,,,Manchester,,GB,
UK,"Bolton, United Kingdom",,,,Manchester,,GB,
UK,"Bolton, United Kingdom",,,,Manchester,,GB,
UK,"Bolton, United Kingdom",,,,Manchester,,GB,
UK,"Bolton, United Kingdom",,,,Manchester,,GB,
UK,"Bolton, United Kingdom",,,,Manchester,,GB,
UK,"Bolton, United Kingdom",,,,Manchester,,GB,
UK,"Bolton, United Kingdom",,,,Manchester,,GB,
UK,"Bolton, United Kingdom",,,,Manchester,,GB,
UK,"Bolton, United Kingdom",,,,Manchester,,GB,
UK,"Bolton, United Kingdom",,,,Manchester,,GB,
UK,"Bolton, United Kingdom",,,,Manchester,,GB,
UK,"Bolton, United Kingdom",,,,Manchester,,GB,
UK,"Bolton, United Kingdom",,,,Manchester,,GB,
UK,"Bolton, United Kingdom",,,,Manchester,,GB,
UK,"Bolton, United Kingdom",,,,Manchester,,GB,
UK,"Bolton, United Kingdom",,,,Manchester,,GB,
UK,"Bolton, United Kingdom",,,,Manchester,,GB,
UK,"Bolton, United Kingdom",,,,Manchester,,GB,
UK,"Bolton, United Kingdom",,,,Manchester,,GB,
UK,"Bolton, United Kingdom",,,,Manchester,,GB,
Chicago,L\34,"Main street Road",,,"Chicago Avenue",Indiana,US,
UK,"Bolton, United Kingdom",,,,Manchester,,GB,
UK,"Bolton, United Kingdom",,,,Manchester,,GB,
UK,"Bolton, United Kingdom",,,,Manchester,,GB,
UK,"Bolton, United Kingdom",,,,Manchester,,GB,
UK,"Bolton, United Kingdom",,,,Manchester,,GB,
UK,"Bolton, United Kingdom",,,,Manchester,,GB,
UK,"Bolton, United Kingdom",,,,Manchester,,GB,
UK,"Bolton, United Kingdom",,,,Manchester,,GB,
UK,"Bolton, United Kingdom",,,,Manchester,,GB,
UK,"Bolton, United Kingdom",,,,Manchester,,GB,
UK,"Bolton, United Kingdom",,,,Manchester,,GB,
UK,"Bolton, United Kingdom",,,,Manchester,,GB,
UK,"Bolton, United Kingdom",,,,Manchester,,GB,
UK,"Bolton, United Kingdom",,,,Manchester,,GB,
UK,"Bolton, United Kingdom",,,,Manchester,,GB,
UK,"Bolton, United Kingdom",,,,Manchester,,GB,
UK,"Bolton, United Kingdom",,,,Manchester,,GB,
UK,"Bolton, United Kingdom",,,,Manchester,,GB,
UK,"Bolton, United Kingdom",,,,Manchester,,GB,
UK,"Bolton, United Kingdom",,,,Manchester,,GB,
UK,"Bolton, United Kingdom",,,,Manchester,,GB,
UK,"Bolton, United Kingdom",,,,Manchester,,GB,
UK,"Bolton, United Kingdom",,,,Manchester,,GB,
UK,"Bolton, United Kingdom",,,,Manchester,,GB,
UK,"Bolton, United Kingdom",,,,Manchester,,GB,
UK,"Bolton, United Kingdom",,,,Manchester,,GB,
UK,"Bolton, United Kingdom",,,,Manchester,,GB,
UK,"Bolton, United Kingdom",,,,Manchester,,GB,
UK,"Bolton, United Kingdom",,,,Manchester,,GB,
UK,"Bolton, United Kingdom",,,,Manchester,,GB,
UK,"Bolton, United Kingdom",,,,Manchester,,GB,
UK,"Bolton, United Kingdom",,,,Manchester,,GB,
UK,"Bolton, United Kingdom",,,,Manchester,,GB,
UK,"Bolton, United Kingdom",,,,Manchester,,GB,
UK,"Bolton, United Kingdom",,,,Manchester,,GB,
UK,"Bolton, United Kingdom",,,,Manchester,,GB,
UK,"Bolton, United Kingdom",,,,Manchester,,GB,
UK,"Bolton, United Kingdom",,,,Manchester,,GB,
UK,"Bolton, United Kingdom",,,,Manchester,,GB,
UK,"Bolton, United Kingdom",,,,Manchester,,GB,
UK,"Bolton, United Kingdom",,,,Manchester,,GB,
UK,"Bolton, United Kingdom",,,,Manchester,,GB,
UK,"Bolton, United Kingdom",,,,Manchester,,GB,
UK,"Bolton, United Kingdom",,,,Manchester,,GB,
UK,"Bolton, United Kingdom",,,,Manchester,,GB,
UK,"Bolton, United Kingdom",,,,Manchester,,GB,
UK,"Bolton, United Kingdom",,,,Manchester,,GB,
UK,"Bolton, United Kingdom",,,,Manchester,,GB,
TW,"Bolton, United Kingdom",,,,Manchester,,GB,
UK,"Bolton, United Kingdom",,,,Manchester,,GB,
UK,"Bolton, United Kingdom",,,,Manchester,,GB,
UK,"Bolton, United Kingdom",,,,Manchester,,GB,
UK,"Bolton, United Kingdom",,,,Manchester,,GB,
UK,"Bolton, United Kingdom",,,,Manchester,,GB,
UK,"Bolton, United Kingdom",,,,Manchester,,GB,
UK,"Bolton, United Kingdom",,,,Manchester,,GB,
"VENKATESH IMPER","khangaon chimur",,,,Pune,Maharashtra,IN,411022
UK,"Bolton, United Kingdom",,,,Manchester,,GB,
UK,"Bolton, United Kingdom",,,,Manchester,,GB,
"Test Address",123,,,,mumbai,,IN,440027
"Pune ","10th strret",,,,Pune,Maharashtra,IN,411001
"GE NY SITE","1-101,Newyork ",,,,Holtsville,"New York",US,00501
surat,"34 akdg",,,,Surat,Gujarat,IN,395008
Philips_Pune,"Chakan MIDC",,,,Pune,Maharashtra,IN,411001
ECO_Site1,Test,,,,AP,"Andhra Pradesh",IN,556706
"NT RaJa Corpare","Mirina Road",,,,Abbeville,SC,US,
Mumbai,"159 n.n. road",,,,Mumbai,Maharashtra,IN,700005
newjersy,,,,,,,US,
OFFICE,,,,,,,US,
OFFICE-1,"Abu Dhabi",,,,أبوظبي,,AE,
OFFICE-1,"Abu Dhabi",,,,أبوظبي,,AE,
Headquarters,"178/7 Shree housing society bhutkarwadi savedi Ahmednagar 414003",,,,Pune,Maharashtra,IN,414003
", PUNAVALE",PUNAVALE,,,,PUNE,Maharashtra,IN,411033
"Site 1",528,,,,Abbeville,Georgia,US,
"7/1, K.B. Saran","7/1, K.B. Sarani, Mall Road, Upahar Apartment","Nagerbazar, DumDum",,,Kolkata,"West Bengal",IN,700080
"US 1212",,,,,Abbeville,LA,US,
WLFPUNE,PUNE,,,,Pune,Maharashtra,IN,411001
UK,"Bolton, United Kingdom",,,,Manchester,,GB,
Angeles_Task,,,,,Angeles,"Puerto Rico",US,00611
"US CHANDRAPUR",,,,,Adjuntas,PR,US,00601
OFFICE,"PLOT NO 13",,,,Gurgaon,Haryana,IN,122002
Gurgaon,"PLOT NO 13",,,,Gurgaon,Haryana,IN,122002
USA,,,,,,,US,
USA,,,,,,,US,
"Head Office",ABC,,,,"New York",NY,US,
"US Site",ABC,,,,"New York",NY,US,
UK,"Bolton, United Kingdom",,,,Manchester,,GB,
UK,"Bolton, United Kingdom",,,,Manchester,,GB,
UK,"Bolton, United Kingdom",,,,Manchester,,GB,
UK,"Bolton, United Kingdom",,,,Manchester,,GB,
UK,"Bolton, United Kingdom",,,,Manchester,,GB,
UK,"Bolton, United Kingdom",,,,Manchester,,GB,
UK,"Bolton, United Kingdom",,,,Manchester,,GB,
UK,"Bolton, United Kingdom",,,,Manchester,,GB,
UK,"Bolton, United Kingdom",,,,Manchester,,GB,
UK,"Bolton, United Kingdom",,,,Manchester,,GB,
UK,"Bolton, United Kingdom",,,,Manchester,,GB,
UK,"Bolton, United Kingdom",,,,Manchester,,GB,
UK,"Bolton, United Kingdom",,,,Manchester,,GB,
UK,"Bolton, United Kingdom",,,,Manchester,,GB,
UK,"Bolton, United Kingdom",,,,Manchester,,GB,
UK,"Bolton, United Kingdom",,,,Manchester,,GB,
UK,"Bolton, United Kingdom",,,,Manchester,,GB,
UK,"Bolton, United Kingdom",,,,Manchester,,GB,
UK,"Bolton, United Kingdom",,,,Manchester,,GB,
UK,"Bolton, United Kingdom",,,,Manchester,,GB,
UK,"Bolton, United Kingdom",,,,Manchester,,GB,
UK,"Bolton, United Kingdom",,,,Manchester,,GB,
UK,"Bolton, United Kingdom",,,,Manchester,,GB,
UK,"Bolton, United Kingdom",,,,Manchester,,GB,
UK,"Bolton, United Kingdom",,,,Manchester,,GB,
UK,"Bolton, United Kingdom",,,,Manchester,,GB,
UK,"Bolton, United Kingdom",,,,Manchester,,GB,
UK,"Bolton, United Kingdom",,,,Manchester,,GB,
UK,"Bolton, United Kingdom",,,,Manchester,,GB,
UK,"Bolton, United Kingdom",,,,Manchester,,GB,
UK,"Bolton, United Kingdom",,,,Manchester,,GB,
UK,"Bolton, United Kingdom",,,,Manchester,,GB,
UK,"Bolton, United Kingdom",,,,Manchester,,GB,
UK,"Bolton, United Kingdom",,,,Manchester,,GB,
UK,"Bolton, United Kingdom",,,,Manchester,,GB,
UK,"Bolton, United Kingdom",,,,Manchester,,GB,
UK,"Bolton, United Kingdom",,,,Manchester,,GB,
UK,"Bolton, United Kingdom",,,,Manchester,,GB,
UK,"Bolton, United Kingdom",,,,Manchester,,GB,
UK,"Bolton, United Kingdom",,,,Manchester,,GB,
UK,"Bolton, United Kingdom",,,,Manchester,,GB,
UK,"Bolton, United Kingdom",,,,Manchester,,GB,
UK,"Bolton, United Kingdom",,,,Manchester,,GB,
UK,"Bolton, United Kingdom",,,,Manchester,,GB,
UK,"Bolton, United Kingdom",,,,Manchester,,GB,
istanbul,istanbul,,,,istanbul,,AF,
Istanbul,Istanbul,,,,Istanbul,,AF,
UK,"Bolton, United Kingdom",,,,Manchester,,GB,
UK,"Bolton, United Kingdom",,,,Manchester,,GB,
UK,"Bolton, United Kingdom",,,,Manchester,,GB,
UK,"Bolton, United Kingdom",,,,Manchester,,GB,
UK,"Bolton, United Kingdom",,,,Manchester,,GB,
UK,"Bolton, United Kingdom",,,,Manchester,,GB,
UK,"Bolton, United Kingdom",,,,Manchester,,GB,
UK,"Bolton, United Kingdom",,,,Manchester,,GB,
UK,"Bolton, United Kingdom",,,,Manchester,,GB,
UK,"Bolton, United Kingdom",,,,Manchester,,GB,
UK,"Bolton, United Kingdom",,,,Manchester,,GB,
UK,"Bolton, United Kingdom",,,,Manchester,,GB,
UK,"Bolton, United Kingdom",,,,Manchester,,GB,
UK,"Bolton, United Kingdom",,,,Manchester,,GB,
UK,"Bolton, United Kingdom",,,,Manchester,,GB,
UK,"Bolton, United Kingdom",,,,Manchester,,GB,
UK,"Bolton, United Kingdom",,,,Manchester,,GB,
UK,"Bolton, United Kingdom",,,,Manchester,,GB,
UK,"Bolton, United Kingdom",,,,Manchester,,GB,
UK,"Bolton, United Kingdom",,,,Manchester,,GB,
UK,"Bolton, United Kingdom",,,,Manchester,,GB,
UK,"Bolton, United Kingdom",,,,Manchester,,GB,
UK,"Bolton, United Kingdom",,,,Manchester,,GB,
UK,"Bolton, United Kingdom",,,,Manchester,,GB,
UK,"Bolton, United Kingdom",,,,Manchester,,GB,
UK,"Bolton, United Kingdom",,,,Manchester,,GB,
UK,"Bolton, United Kingdom",,,,Manchester,,GB,
UK,"Bolton, United Kingdom",,,,Manchester,,GB,
UK,"Bolton, United Kingdom",,,,Manchester,,GB,
UK,"Bolton, United Kingdom",,,,Manchester,,GB,
UK,"Bolton, United Kingdom",,,,Manchester,,GB,
UK,"Bolton, United Kingdom",,,,Manchester,,GB,
UK,"Bolton, United Kingdom",,,,Manchester,,GB,
UK,"Bolton, United Kingdom",,,,Manchester,,GB,
UK,"Bolton, United Kingdom",,,,Manchester,,GB,
UK,"Bolton, United Kingdom",,,,Manchester,,GB,
UK,"Bolton, United Kingdom",,,,Manchester,,GB,
UK,"Bolton, United Kingdom",,,,Manchester,,GB,
UK,"Bolton, United Kingdom",,,,Manchester,,GB,
UK,"Bolton, United Kingdom",,,,Manchester,,GB,
UK,"Bolton, United Kingdom",,,,Manchester,,GB,
UK,"Bolton, United Kingdom",,,,Manchester,,GB,
UK,"Bolton, United Kingdom",,,,Manchester,,GB,
UK,"Bolton, United Kingdom",,,,Manchester,,GB,
UK,"Bolton, United Kingdom",,,,Manchester,,GB,
UK,"Bolton, United Kingdom",,,,Manchester,,GB,
UK,"Bolton, United Kingdom",,,,Manchester,,GB,
UK,"Bolton, United Kingdom",,,,Manchester,,GB,
UK,"Bolton, United Kingdom",,,,Manchester,,GB,
UK,"Bolton, United Kingdom",,,,Manchester,,GB,
UK,"Bolton, United Kingdom",,,,Manchester,,GB,
UK,"Bolton, United Kingdom",,,,Manchester,,GB,
UK,"Bolton, United Kingdom",,,,Manchester,,GB,
UK,"Bolton, United Kingdom",,,,Manchester,,GB,
UK,"Bolton, United Kingdom",,,,Manchester,,GB,
UK,"Bolton, United Kingdom",,,,Manchester,,GB,
UK,"Bolton, United Kingdom",,,,Manchester,,GB,
UK,"Bolton, United Kingdom",,,,Manchester,,GB,
UK,"Bolton, United Kingdom",,,,Manchester,,GB,
UK,"Bolton, United Kingdom",,,,Manchester,,GB,
UK,"Bolton, United Kingdom",,,,Manchester,,GB,
UK,"Bolton, United Kingdom",,,,Manchester,,GB,
UK,"Bolton, United Kingdom",,,,Manchester,,GB,
UK,"Bolton, United Kingdom",,,,Manchester,,GB,
UK,"Bolton, United Kingdom",,,,Manchester,,GB,
UK,"Bolton, United Kingdom",,,,Manchester,,GB,
UK,"Bolton, United Kingdom",,,,Manchester,,GB,
UK,"Bolton, United Kingdom",,,,Manchester,,GB,
UK,"Bolton, United Kingdom",,,,Manchester,,GB,
UK,"Bolton, United Kingdom",,,,Manchester,,GB,
UK,"Bolton, United Kingdom",,,,Manchester,,GB,
UK,"Bolton, United Kingdom",,,,Manchester,,GB,
UK,"Bolton, United Kingdom",,,,Manchester,,GB,
UK,"Bolton, United Kingdom",,,,Manchester,,GB,
UK,"Bolton, United Kingdom",,,,Manchester,,GB,
UK,"Bolton, United Kingdom",,,,Manchester,,GB,
UK,"Bolton, United Kingdom",,,,Manchester,,GB,
UK,"Bolton, United Kingdom",,,,Manchester,,GB,
UK,"Bolton, United Kingdom",,,,Manchester,,GB,
UK,"Bolton, United Kingdom",,,,Manchester,,GB,
UK,"Bolton, United Kingdom",,,,Manchester,,GB,
UK,"Bolton, United Kingdom",,,,Manchester,,GB,
UK,"Bolton, United Kingdom",,,,Manchester,,GB,
UK,"Bolton, United Kingdom",,,,Manchester,,GB,
UK,"Bolton, United Kingdom",,,,Manchester,,GB,
UK,"Bolton, United Kingdom",,,,Manchester,,GB,
UK,"Bolton, United Kingdom",,,,Manchester,,GB,
UK,"Bolton, United Kingdom",,,,Manchester,,GB,
UK,"Bolton, United Kingdom",,,,Manchester,,GB,
UK,"Bolton, United Kingdom",,,,Manchester,,GB,
UK,"Bolton, United Kingdom",,,,Manchester,,GB,
UK,"Bolton, United Kingdom",,,,Manchester,,GB,
UK,"Bolton, United Kingdom",,,,Manchester,,GB,
UK,"Bolton, United Kingdom",,,,Manchester,,GB,
UK,"Bolton, United Kingdom",,,,Manchester,,GB,
UK,"Bolton, United Kingdom",,,,Manchester,,GB,
UK,"Bolton, United Kingdom",,,,Manchester,,GB,
UK,"Bolton, United Kingdom",,,,Manchester,,GB,
UK,"Bolton, United Kingdom",,,,Manchester,,GB,
UK,"Bolton, United Kingdom",,,,Manchester,,GB,
UK,"Bolton, United Kingdom",,,,Manchester,,GB,
UK,"Bolton, United Kingdom",,,,Manchester,,GB,
UK,"Bolton, United Kingdom",,,,Manchester,,GB,
UK,"Bolton, United Kingdom",,,,Manchester,,GB,
UK,"Bolton, United Kingdom",,,,Manchester,,GB,
UK,"Bolton, United Kingdom",,,,Manchester,,GB,
UK,"Bolton, United Kingdom",,,,Manchester,,GB,
UK,"Bolton, United Kingdom",,,,Manchester,,GB,
UK,"Bolton, United Kingdom",,,,Manchester,,GB,
UK,"Bolton, United Kingdom",,,,Manchester,,GB,
UK,"Bolton, United Kingdom",,,,Manchester,,GB,
UK,"Bolton, United Kingdom",,,,Manchester,,GB,
UK,"Bolton, United Kingdom",,,,Manchester,,GB,
UK,"Bolton, United Kingdom",,,,Manchester,,GB,
UK,"Bolton, United Kingdom",,,,Manchester,,GB,
UK,"Bolton, United Kingdom",,,,Manchester,,GB,
UK,"Bolton, United Kingdom",,,,Manchester,,GB,
UK,"Bolton, United Kingdom",,,,Manchester,,GB,
UK,"Bolton, United Kingdom",,,,Manchester,,GB,
UK,"Bolton, United Kingdom",,,,Manchester,,GB,
UK,"Bolton, United Kingdom",,,,Manchester,,GB,
UK,"Bolton, United Kingdom",,,,Manchester,,GB,
UK,"Bolton, United Kingdom",,,,Manchester,,GB,
UK,"Bolton, United Kingdom",,,,Manchester,,GB,
UK,"Bolton, United Kingdom",,,,Manchester,,GB,
UK,"Bolton, United Kingdom",,,,Manchester,,GB,
UK,"Bolton, United Kingdom",,,,Manchester,,GB,
UK,"Bolton, United Kingdom",,,,Manchester,,GB,
UK,"Bolton, United Kingdom",,,,Manchester,,GB,
UK,"Bolton, United Kingdom",,,,Manchester,,GB,
UK,"Bolton, United Kingdom",,,,Manchester,,GB,
UK,"Bolton, United Kingdom",,,,Manchester,,GB,
UK,"Bolton, United Kingdom",,,,Manchester,,GB,
UK,"Bolton, United Kingdom",,,,Manchester,,GB,
UK,"Bolton, United Kingdom",,,,Manchester,,GB,
UK,"Bolton, United Kingdom",,,,Manchester,,GB,
UK,"Bolton, United Kingdom",,,,Manchester,,GB,
UK,"Bolton, United Kingdom",,,,Manchester,,GB,
UK,"Bolton, United Kingdom",,,,Manchester,,GB,
UK,"Bolton, United Kingdom",,,,Manchester,,GB,
UK,"Bolton, United Kingdom",,,,Manchester,,GB,
UK,"Bolton, United Kingdom",,,,Manchester,,GB,
UK,"Bolton, United Kingdom",,,,Manchester,,GB,
UK,"Bolton, United Kingdom",,,,Manchester,,GB,
UK,"Bolton, United Kingdom",,,,Manchester,,GB,
UK,"Bolton, United Kingdom",,,,Manchester,,GB,
UK,"Bolton, United Kingdom",,,,Manchester,,GB,
UK,"Bolton, United Kingdom",,,,Manchester,,GB,
UK,"Bolton, United Kingdom",,,,Manchester,,GB,
UK,"Bolton, United Kingdom",,,,Manchester,,GB,
UK,"Bolton, United Kingdom",,,,Manchester,,GB,
UK,"Bolton, United Kingdom",,,,Manchester,,GB,
UK,"Bolton, United Kingdom",,,,Manchester,,GB,
UK,"Bolton, United Kingdom",,,,Manchester,,GB,
UK,"Bolton, United Kingdom",,,,Manchester,,GB,
UK,"Bolton, United Kingdom",,,,Manchester,,GB,
UK,"Bolton, United Kingdom",,,,Manchester,,GB,
UK,"Bolton, United Kingdom",,,,Manchester,,GB,
UK,"Bolton, United Kingdom",,,,Manchester,,GB,
UK,"Bolton, United Kingdom",,,,Manchester,,GB,
UK,"Bolton, United Kingdom",,,,Manchester,,GB,
UK,"Bolton, United Kingdom",,,,Manchester,,GB,
UK,"Bolton, United Kingdom",,,,Manchester,,GB,
UK,"Bolton, United Kingdom",,,,Manchester,,GB,
UK,"Bolton, United Kingdom",,,,Manchester,,GB,
UK,"Bolton, United Kingdom",,,,Manchester,,GB,
UK,"Bolton, United Kingdom",,,,Manchester,,GB,
UK,"Bolton, United Kingdom",,,,Manchester,,GB,
UK,"Bolton, United Kingdom",,,,Manchester,,GB,
UK,"Bolton, United Kingdom",,,,Manchester,,GB,
UK,"Bolton, United Kingdom",,,,Manchester,,GB,
UK,"Bolton, United Kingdom",,,,Manchester,,GB,
UK,"Bolton, United Kingdom",,,,Manchester,,GB,
UK,"Bolton, United Kingdom",,,,Manchester,,GB,
UK,"Bolton, United Kingdom",,,,Manchester,,GB,
UK,"Bolton, United Kingdom",,,,Manchester,,GB,
UK,"Bolton, United Kingdom",,,,Manchester,,GB,
UK,"Bolton, United Kingdom",,,,Manchester,,GB,
UK,"Bolton, United Kingdom",,,,Manchester,,GB,
UK,"Bolton, United Kingdom",,,,Manchester,,GB,
UK,"Bolton, United Kingdom",,,,Manchester,,GB,
UK,"Bolton, United Kingdom",,,,Manchester,,GB,
UK,"Bolton, United Kingdom",,,,Manchester,,GB,
UK,"Bolton, United Kingdom",,,,Manchester,,GB,
UK,"Bolton, United Kingdom",,,,Manchester,,GB,
UK,"Bolton, United Kingdom",,,,Manchester,,GB,
UK,"Bolton, United Kingdom",,,,Manchester,,GB,
UK,"Bolton, United Kingdom",,,,Manchester,,GB,
UK,"Bolton, United Kingdom",,,,Manchester,,GB,
UK,"Bolton, United Kingdom",,,,Manchester,,GB,
UK,"Bolton, United Kingdom",,,,Manchester,,GB,
UK,"Bolton, United Kingdom",,,,Manchester,,GB,
UK,"Bolton, United Kingdom",,,,Manchester,,GB,
UK,"Bolton, United Kingdom",,,,Manchester,,GB,
UK,"Bolton, United Kingdom",,,,Manchester,,GB,
UK,"Bolton, United Kingdom",,,,Manchester,,GB,
UK,"Bolton, United Kingdom",,,,Manchester,,GB,
UK,"Bolton, United Kingdom",,,,Manchester,,GB,
UK,"Bolton, United Kingdom",,,,Manchester,,GB,
UK,"Bolton, United Kingdom",,,,Manchester,,GB,
UK,"Bolton, United Kingdom",,,,Manchester,,GB,
UK,"Bolton, United Kingdom",,,,Manchester,,GB,
UK,"Bolton, United Kingdom",,,,Manchester,,GB,
UK,"Bolton, United Kingdom",,,,Manchester,,GB,
UK,"Bolton, United Kingdom",,,,Manchester,,GB,
UK,"Bolton, United Kingdom",,,,Manchester,,GB,
UK,"Bolton, United Kingdom",,,,Manchester,,GB,
UK,"Bolton, United Kingdom",,,,Manchester,,GB,
UK,"Bolton, United Kingdom",,,,Manchester,,GB,
UK,"Bolton, United Kingdom",,,,Manchester,,GB,
UK,"Bolton, United Kingdom",,,,Manchester,,GB,
UK,"Bolton, United Kingdom",,,,Manchester,,GB,
UK,"Bolton, United Kingdom",,,,Manchester,,GB,
UK,"Bolton, United Kingdom",,,,Manchester,,GB,
UK,"Bolton, United Kingdom",,,,Manchester,,GB,
UK,"Bolton, United Kingdom",,,,Manchester,,GB,
UK,"Bolton, United Kingdom",,,,Manchester,,GB,
UK,"Bolton, United Kingdom",,,,Manchester,,GB,
UK,"Bolton, United Kingdom",,,,Manchester,,GB,
UK,"Bolton, United Kingdom",,,,Manchester,,GB,
UK,"Bolton, United Kingdom",,,,Manchester,,GB,
UK,"Bolton, United Kingdom",,,,Manchester,,GB,
UK,"Bolton, United Kingdom",,,,Manchester,,GB,
UK,"Bolton, United Kingdom",,,,Manchester,,GB,
UK,"Bolton, United Kingdom",,,,Manchester,,GB,
UK,"Bolton, United Kingdom",,,,Manchester,,GB,
UK,"Bolton, United Kingdom",,,,Manchester,,GB,
UK,"Bolton, United Kingdom",,,,Manchester,,GB,
UK,"Bolton, United Kingdom",,,,Manchester,,GB,
UK,"Bolton, United Kingdom",,,,Manchester,,GB,
UK,"Bolton, United Kingdom",,,,Manchester,,GB,
UK,"Bolton, United Kingdom",,,,Manchester,,GB,
UK,"Bolton, United Kingdom",,,,Manchester,,GB,
UK,"Bolton, United Kingdom",,,,Manchester,,GB,
UK,"Bolton, United Kingdom",,,,Manchester,,GB,
UK,"Bolton, United Kingdom",,,,Manchester,,GB,
UK,"Bolton, United Kingdom",,,,Manchester,,GB,
UK,"Bolton, United Kingdom",,,,Manchester,,GB,
UK,"Bolton, United Kingdom",,,,Manchester,,GB,
UK,"Bolton, United Kingdom",,,,Manchester,,GB,
UK,"Bolton, United Kingdom",,,,Manchester,,GB,
UK,"Bolton, United Kingdom",,,,Manchester,,GB,
UK,"Bolton, United Kingdom",,,,Manchester,,GB,
"MAIN OFFICE",ABCDE,ABCDE,ABCDE,,Pune,Maharashtra,IN,411001
UK,"Bolton, United Kingdom",,,,Manchester,,GB,
UK,"Bolton, United Kingdom",,,,Manchester,,GB,
UK,"Bolton, United Kingdom",,,,Manchester,,GB,
UK,"Bolton, United Kingdom",,,,Manchester,,GB,
UK,"Bolton, United Kingdom",,,,Manchester,,GB,
UK,"Bolton, United Kingdom",,,,Manchester,,GB,
UK,"Bolton, United Kingdom",,,,Manchester,,GB,
UK,"Bolton, United Kingdom",,,,Manchester,,GB,
UK,"Bolton, United Kingdom",,,,Manchester,,GB,
UK,"Bolton, United Kingdom",,,,Manchester,,GB,
UK,"Bolton, United Kingdom",,,,Manchester,,GB,
UK,"Bolton, United Kingdom",,,,Manchester,,GB,
UK,"Bolton, United Kingdom",,,,Manchester,,GB,
UK,"Bolton, United Kingdom",,,,Manchester,,GB,
UK,"Bolton, United Kingdom",,,,Manchester,,GB,
UK,"Bolton, United Kingdom",,,,Manchester,,GB,
UK,"Bolton, United Kingdom",,,,Manchester,,GB,
UK,"Bolton, United Kingdom",,,,Manchester,,GB,
UK,"Bolton, United Kingdom",,,,Manchester,,GB,
UK,"Bolton, United Kingdom",,,,Manchester,,GB,
UK,"Bolton, United Kingdom",,,,Manchester,,GB,
UK,"Bolton, United Kingdom",,,,Manchester,,GB,
UK,"Bolton, United Kingdom",,,,Manchester,,GB,
UK,"Bolton, United Kingdom",,,,Manchester,,GB,
UK,"Bolton, United Kingdom",,,,Manchester,,GB,
UK,"Bolton, United Kingdom",,,,Manchester,,GB,
UK,"Bolton, United Kingdom",,,,Manchester,,GB,
UK,"Bolton, United Kingdom",,,,Manchester,,GB,
UK,"Bolton, United Kingdom",,,,Manchester,,GB,
UK,"Bolton, United Kingdom",,,,Manchester,,GB,
UK,"Bolton, United Kingdom",,,,Manchester,,GB,
UK,"Bolton, United Kingdom",,,,Manchester,,GB,
UK,"Bolton, United Kingdom",,,,Manchester,,GB,
UK,"Bolton, United Kingdom",,,,Manchester,,GB,
UK,"Bolton, United Kingdom",,,,Manchester,,GB,
UK,"Bolton, United Kingdom",,,,Manchester,,GB,
UK,"Bolton, United Kingdom",,,,Manchester,,GB,
UK,"Bolton, United Kingdom",,,,Manchester,,GB,
UK,"Bolton, United Kingdom",,,,Manchester,,GB,
UK,"Bolton, United Kingdom",,,,Manchester,,GB,
UK,"Bolton, United Kingdom",,,,Manchester,,GB,
kabul,Kabul,,,,Kabul,,AF,
kabul,Kabul,,,,Kabul,,AF,
kabul,Kabul,,,,Kabul,,AF,
kabul,Kabul,,,,Kabul,,AF,
UK,"Bolton, United Kingdom",,,,Manchester,,GB,
UK,"Bolton, United Kingdom",,,,Manchester,,GB,
UK,"Bolton, United Kingdom",,,,Manchester,,GB,
UK,"Bolton, United Kingdom",,,,Manchester,,GB,
UK,"Bolton, United Kingdom",,,,Manchester,,GB,
UK,"Bolton, United Kingdom",,,,Manchester,,GB,
UK,"Bolton, United Kingdom",,,,Manchester,,GB,
UK,"Bolton, United Kingdom",,,,Manchester,,GB,
UK,"Bolton, United Kingdom",,,,Manchester,,GB,
UK,"Bolton, United Kingdom",,,,Manchester,,GB,
UK,"Bolton, United Kingdom",,,,Manchester,,GB,
UK,"Bolton, United Kingdom",,,,Manchester,,GB,
UK,"Bolton, United Kingdom",,,,Manchester,,GB,
UK,"Bolton, United Kingdom",,,,Manchester,,GB,
UK,"Bolton, United Kingdom",,,,Manchester,,GB,
UK,"Bolton, United Kingdom",,,,Manchester,,GB,
UK,"Bolton, United Kingdom",,,,Manchester,,GB,
UK,"Bolton, United Kingdom",,,,Manchester,,GB,
UK,"Bolton, United Kingdom",,,,Manchester,,GB,
UK,"Bolton, United Kingdom",,,,Manchester,,GB,
UK,"Bolton, United Kingdom",,,,Manchester,,GB,
UK,"Bolton, United Kingdom",,,,Manchester,,GB,
UK,"Bolton, United Kingdom",,,,Manchester,,GB,
UK,"Bolton, United Kingdom",,,,Manchester,,GB,
UK,"Bolton, United Kingdom",,,,Manchester,,GB,
UK,"Bolton, United Kingdom",,,,Manchester,,GB,
UK,"Bolton, United Kingdom",,,,Manchester,,GB,
UK,"Bolton, United Kingdom",,,,Manchester,,GB,
UK,"Bolton, United Kingdom",,,,Manchester,,GB,
UK,"Bolton, United Kingdom",,,,Manchester,,GB,
UK,"Bolton, United Kingdom",,,,Manchester,,GB,
UK,"Bolton, United Kingdom",,,,Manchester,,GB,
UK,"Bolton, United Kingdom",,,,Manchester,,GB,
UK,"Bolton, United Kingdom",,,,Manchester,,GB,
UK,"Bolton, United Kingdom",,,,Manchester,,GB,
UK,"Bolton, United Kingdom",,,,Manchester,,GB,
UK,"Bolton, United Kingdom",,,,Manchester,,GB,
UK,"Bolton, United Kingdom",,,,Manchester,,GB,
gujarat,"1, Laxmi Vilas soc. Opp. Gorwa I.T.I, Refinery road, gorwa-390016, vadodara, gujarat",,,,Vadodara,Gujarat,IN,390016
"US 1212","1, Laxmi Vilas soc. Opp. Gorwa I.T.I, Refinery road, gorwa-390016, vadodara, gujarat",,,,Vadodara,Gujarat,IN,390016
UK,"Bolton, United Kingdom",,,,Manchester,,GB,
UK,"Bolton, United Kingdom",,,,Manchester,,GB,
UK,"Bolton, United Kingdom",,,,Manchester,,GB,
UK,"Bolton, United Kingdom",,,,Manchester,,GB,
UK,"Bolton, United Kingdom",,,,Manchester,,GB,
UK,"Bolton, United Kingdom",,,,Manchester,,GB,
UK,"Bolton, United Kingdom",,,,Manchester,,GB,
UK,"Bolton, United Kingdom",,,,Manchester,,GB,
UK,"Bolton, United Kingdom",,,,Manchester,,GB,
UK,"Bolton, United Kingdom",,,,Manchester,,GB,
UK,"Bolton, United Kingdom",,,,Manchester,,GB,
UK,"Bolton, United Kingdom",,,,Manchester,,GB,
UK,"Bolton, United Kingdom",,,,Manchester,,GB,
UK,"Bolton, United Kingdom",,,,Manchester,,GB,
UK,"Bolton, United Kingdom",,,,Manchester,,GB,
UK,"Bolton, United Kingdom",,,,Manchester,,GB,
UK,"Bolton, United Kingdom",,,,Manchester,,GB,
UK,"Bolton, United Kingdom",,,,Manchester,,GB,
UK,"Bolton, United Kingdom",,,,Manchester,,GB,
UK,"Bolton, United Kingdom",,,,Manchester,,GB,
UK,"Bolton, United Kingdom",,,,Manchester,,GB,
UK,"Bolton, United Kingdom",,,,Manchester,,GB,
UK,"Bolton, United Kingdom",,,,Manchester,,GB,
UK,"Bolton, United Kingdom",,,,Manchester,,GB,
UK,"Bolton, United Kingdom",,,,Manchester,,GB,
UK,"Bolton, United Kingdom",,,,Manchester,,GB,
UK,"Bolton, United Kingdom",,,,Manchester,,GB,
UK,"Bolton, United Kingdom",,,,Manchester,,GB,
UK,"Bolton, United Kingdom",,,,Manchester,,GB,
UK,"Bolton, United Kingdom",,,,Manchester,,GB,
UK,"Bolton, United Kingdom",,,,Manchester,,GB,
UK,"Bolton, United Kingdom",,,,Manchester,,GB,
UK,"Bolton, United Kingdom",,,,Manchester,,GB,
UK,"Bolton, United Kingdom",,,,Manchester,,GB,
UK,"Bolton, United Kingdom",,,,Manchester,,GB,
UK,"Bolton, United Kingdom",,,,Manchester,,GB,
UK,"Bolton, United Kingdom",,,,Manchester,,GB,
UK,"Bolton, United Kingdom",,,,Manchester,,GB,
UK,"Bolton, United Kingdom",,,,Manchester,,GB,
UK,"Bolton, United Kingdom",,,,Manchester,,GB,
UK,"Bolton, United Kingdom",,,,Manchester,,GB,
UK,"Bolton, United Kingdom",,,,Manchester,,GB,
UK,"Bolton, United Kingdom",,,,Manchester,,GB,
adjuntas,adjantas,,,,Holtsville,"New York",US,00544
adjuntas1,adjantas,,,,Holtsville,"New York",US,00544
UK,"Bolton, United Kingdom",,,,Manchester,,GB,
UK,"Bolton, United Kingdom",,,,Manchester,,GB,
UK,"Bolton, United Kingdom",,,,Manchester,,GB,
UK,"Bolton, United Kingdom",,,,Manchester,,GB,
UK,"Bolton, United Kingdom",,,,Manchester,,GB,
UK,"Bolton, United Kingdom",,,,Manchester,,GB,
UK,"Bolton, United Kingdom",,,,Manchester,,GB,
UK,"Bolton, United Kingdom",,,,Manchester,,GB,
UK,"Bolton, United Kingdom",,,,Manchester,,GB,
UK,"Bolton, United Kingdom",,,,Manchester,,GB,
UK,"Bolton, United Kingdom",,,,Manchester,,GB,
UK,"Bolton, United Kingdom",,,,Manchester,,GB,
UK,"Bolton, United Kingdom",,,,Manchester,,GB,
UK,"Bolton, United Kingdom",,,,Manchester,,GB,
UK,"Bolton, United Kingdom",,,,Manchester,,GB,
UK,"Bolton, United Kingdom",,,,Manchester,,GB,
UK,"Bolton, United Kingdom",,,,Manchester,,GB,
UK,"Bolton, United Kingdom",,,,Manchester,,GB,
UK,"Bolton, United Kingdom",,,,Manchester,,GB,
UK,"Bolton, United Kingdom",,,,Manchester,,GB,
UK,"Bolton, United Kingdom",,,,Manchester,,GB,
UK,"Bolton, United Kingdom",,,,Manchester,,GB,
UK,"Bolton, United Kingdom",,,,Manchester,,GB,
UK,"Bolton, United Kingdom",,,,Manchester,,GB,
UK,"Bolton, United Kingdom",,,,Manchester,,GB,
UK,"Bolton, United Kingdom",,,,Manchester,,GB,
UK,"Bolton, United Kingdom",,,,Manchester,,GB,
UK,"Bolton, United Kingdom",,,,Manchester,,GB,
UK,"Bolton, United Kingdom",,,,Manchester,,GB,
UK,"Bolton, United Kingdom",,,,Manchester,,GB,
UK,"Bolton, United Kingdom",,,,Manchester,,GB,
UK,"Bolton, United Kingdom",,,,Manchester,,GB,
UK,"Bolton, United Kingdom",,,,Manchester,,GB,
UK,"Bolton, United Kingdom",,,,Manchester,,GB,
UK,"Bolton, United Kingdom",,,,Manchester,,GB,
UK,"Bolton, United Kingdom",,,,Manchester,,GB,
UK,"Bolton, United Kingdom",,,,Manchester,,GB,
UK,"Bolton, United Kingdom",,,,Manchester,,GB,
UK,"Bolton, United Kingdom",,,,Manchester,,GB,
UK,"Bolton, United Kingdom",,,,Manchester,,GB,
UK,"Bolton, United Kingdom",,,,Manchester,,GB,
UK,"Bolton, United Kingdom",,,,Manchester,,GB,
UK,"Bolton, United Kingdom",,,,Manchester,,GB,
UK,"Bolton, United Kingdom",,,,Manchester,,GB,
UK,"Bolton, United Kingdom",,,,Manchester,,GB,
UK,"Bolton, United Kingdom",,,,Manchester,,GB,
UK,"Bolton, United Kingdom",,,,Manchester,,GB,
UK,"Bolton, United Kingdom",,,,Manchester,,GB,
UK,"Bolton, United Kingdom",,,,Manchester,,GB,
UK,"Bolton, United Kingdom",,,,Manchester,,GB,
UK,"Bolton, United Kingdom",,,,Manchester,,GB,
UK,"Bolton, United Kingdom",,,,Manchester,,GB,
UK,"Bolton, United Kingdom",,,,Manchester,,GB,
UK,"Bolton, United Kingdom",,,,Manchester,,GB,
UK,"Bolton, United Kingdom",,,,Manchester,,GB,
UK,"Bolton, United Kingdom",,,,Manchester,,GB,
UK,"Bolton, United Kingdom",,,,Manchester,,GB,
UK,"Bolton, United Kingdom",,,,Manchester,,GB,
UK,"Bolton, United Kingdom",,,,Manchester,,GB,
UK,"Bolton, United Kingdom",,,,Manchester,,GB,
UK,"Bolton, United Kingdom",,,,Manchester,,GB,
UK,"Bolton, United Kingdom",,,,Manchester,,GB,
UK,"Bolton, United Kingdom",,,,Manchester,,GB,
UK,"Bolton, United Kingdom",,,,Manchester,,GB,
UK,"Bolton, United Kingdom",,,,Manchester,,GB,
UK,"Bolton, United Kingdom",,,,Manchester,,GB,
UK,"Bolton, United Kingdom",,,,Manchester,,GB,
UK,"Bolton, United Kingdom",,,,Manchester,,GB,
UK,"Bolton, United Kingdom",,,,Manchester,,GB,
UK,"Bolton, United Kingdom",,,,Manchester,,GB,
UK,"Bolton, United Kingdom",,,,Manchester,,GB,
UK,"Bolton, United Kingdom",,,,Manchester,,GB,
UK,"Bolton, United Kingdom",,,,Manchester,,GB,
UK,"Bolton, United Kingdom",,,,Manchester,,GB,
UK,"Bolton, United Kingdom",,,,Manchester,,GB,
UK,"Bolton, United Kingdom",,,,Manchester,,GB,
UK,"Bolton, United Kingdom",,,,Manchester,,GB,
UK,"Bolton, United Kingdom",,,,Manchester,,GB,
UK,"Bolton, United Kingdom",,,,Manchester,,GB,
UK,"Bolton, United Kingdom",,,,Manchester,,GB,
UK,"Bolton, United Kingdom",,,,Manchester,,GB,
UK,"Bolton, United Kingdom",,,,Manchester,,GB,
UK,"Bolton, United Kingdom",,,,Manchester,,GB,
UK,"Bolton, United Kingdom",,,,Manchester,,GB,
UK,"Bolton, United Kingdom",,,,Manchester,,GB,
UK,"Bolton, United Kingdom",,,,Manchester,,GB,
UK,"Bolton, United Kingdom",,,,Manchester,,GB,
UK,"Bolton, United Kingdom",,,,Manchester,,GB,
UK,"Bolton, United Kingdom",,,,Manchester,,GB,
UK,"Bolton, United Kingdom",,,,Manchester,,GB,
Istanbul,Istanbul,,,,Istanbul,,AF,
kolkata,Kolkata,,,,Kolkata,"West Bengal",IN,700001
UK,"Bolton, United Kingdom",,,,Manchester,,GB,
UK,"Bolton, United Kingdom",,,,Manchester,,GB,
UK,"Bolton, United Kingdom",,,,Manchester,,GB,
UK,"Bolton, United Kingdom",,,,Manchester,,GB,
UK,"Bolton, United Kingdom",,,,Manchester,,GB,
UK,"Bolton, United Kingdom",,,,Manchester,,GB,
UK,"Bolton, United Kingdom",,,,Manchester,,GB,
UK,"Bolton, United Kingdom",,,,Manchester,,GB,
UK,"Bolton, United Kingdom",,,,Manchester,,GB,
UK,"Bolton, United Kingdom",,,,Manchester,,GB,
UK,"Bolton, United Kingdom",,,,Manchester,,GB,
UK,"Bolton, United Kingdom",,,,Manchester,,GB,
UK,"Bolton, United Kingdom",,,,Manchester,,GB,
UK,"Bolton, United Kingdom",,,,Manchester,,GB,
UK,"Bolton, United Kingdom",,,,Manchester,,GB,
UK,"Bolton, United Kingdom",,,,Manchester,,GB,
UK,"Bolton, United Kingdom",,,,Manchester,,GB,
UK,"Bolton, United Kingdom",,,,Manchester,,GB,
UK,"Bolton, United Kingdom",,,,Manchester,,GB,
UK,"Bolton, United Kingdom",,,,Manchester,,GB,
UK,"Bolton, United Kingdom",,,,Manchester,,GB,
"Tata supp site","Tata supplier Address line1","Tata supplier Address line1","Tata supplier Address line1",,London,,GB,"E10 5JL"
"DN Supplier 2 A",,,,,Holtsville,"New York",US,00544
"Dell US Sup1","1-101, New York",,,,Holtsville,"New York",US,00501
"RD 003 Address",Address1,,,,,,IN,
MAIN-US-SITE,"Address Line 1","Address Line 2",,,Tampa,FL,US,33602
"New Delhi","N-69, connaught place, New Delhi",,,,"New Delhi","New Delhi",IN,110001
Karolbagh,"N-69, connaught place, New Delhi",,,,"New Delhi","New Delhi",IN,110001
TEST,,,,,,,US,
"NL ORG","17 SKAKOVAYA ST, BUILDING 2, 7TH FLOOR",,,,Moscow,,RU,
"Google Site1","Google Address-1","Google Address2",,,Holtsville,"New York",US,00544
"XYZ Collection ","XYZ Collection Inc Address","XYZ Collection Inc Address",,,Adjuntas,"Puerto Rico",US,00601
Mumbai,"Building no. 486, Abc Road",Nagpur,,,Nagpur,Maharashtra,IN,440001
YORK_NEW,LINE1,,,,"NEW YORK",,US,12321
"DN Supplier Add",11,,,,Holtsville,NY,US,00501
MAIN-PURCH,,,,,,,US,
ABC_PUNE,"Viman Nagar",,,,Pune,Maharashtra,IN,411012
CDE_MUM,"Vashi road ",,,,Mumbai,Maharashtra,IN,422011
EFG_NGP,"Central katol",,,,Nagpur,Maharashtra,IN,442401
GHK_PUNE,kothrud,,,,Pune,Maharashtra,IN,411014
GHK_MUM,"karol bagh",,,,Mumbai,Maharashtra,IN,422022
US,"13975 Central Ave., # B",,,,,,US,
"USA (ORG.100)","245 8th Avenue #1040",,,,,,US,
SJ,"1561 Virginia Place",,,,,,US,
"MENLO PARK","1251 El Camino Real",,,,,,US,
"USA (ORG.100)","1645 N. Vine St. PH 1002",,,,,,US,
"SAN FRANCISCO","Dept 33457",,,,,,US,
USA,"2580 Lafayette Street",,,,,,US,
CA,"1466 Via Terrassa",,,,,,US,
OTC4468,"2300 Zanker Rd Unit C",,,,,,US,
"CITY OF INDUSTR","16839 E. Gale Ave",,,,,,US,
"USA (ORG.100)","9055 SW 115TH TERR",,,,,,US,
USA,"400 West Ave",,,,,,US,
ORG.100,"PO Box 70629",,,,,,US,
NOVI,"46665 Magellan Dr",,,,,,US,
"USA (ORG.100)","56 Wareham Street, Floor 3",,,,,,US,
"USA (ORG.100)","31 West 52nd Street",,,,,,US,
USA(ORG100),"491 Baltimore Pike",,,,,,US,
"SANTA CLARA","BFI Business FinancePO Box 225",,,,,,US,
DUL,"6081 Oakbrook Parkway",,,,,,US,
"RD 001 Site1","RD 006 Address Line1",,,,,,IN,
"DN WHT ADDRESS",,,,,Adjuntas,PR,US,00601
GEA_SITE_1,GEA_ADDD,,,,JEDDAH,,SA,
OTC4763,"6F. No. 275, Songjiang Rd,.",,,,"New York",CA,US,94064
"LOS ANGELES","46221 Landing Parkway",,,,Belmont,CA,US,94065
OTC603,"Taipei, Taiwan",,,,Taipei,CA,US,94066
OTC603,"PHILIPP-REIS-STR. 9",,,,taipei,CA,US,94067
OTC8730,"330 Zachary street",,,,Belmont,CA,US,94068
"1099 SITE","975 N. Todd Avenue",,,,"San Jose",CA,US,94069
FREMONT,"or Yosuke Inada",,,,Taipei,CA,US,94070
DALLAS,"8F, Nr. 19, Alley 360",,,,"El Monte",CA,US,94071
XIAN,"8F, Nr. 19, Alley 360",,,,"Los Angeles",CA,US,94073
PETERSFIELD,"PO Box 84145",,,,taoyuan,CA,US,94074
"LOS ANGELES","231 Market Place Suite 408",,,,Atlanta,CA,US,94075
WALTHAM,"675 Sycamore Drive.",,,,Houston,CA,US,94076
NEWARK,"5F-1, No.5 Hangsuang Road Dayuan, Taoyuan County 33747",,,,"Lake Forest",CA,US,94077
OTC553,"5F-1, No.5 Hangsuang Road Dayuan, Taoyuan County 33747",,,,"Lake Forest",CA,US,94078
OTC553,"Attn: Co-op Accounting",,,,Sacramento,CA,US,94079
TAIPEI,"20, CHEMIN GRENET",,,,Taipei,CA,US,94080
OTC604,"PO 27304",,,,Taipei,CA,US,94081
OTC604,"67 RUE SAINT-DENIS",,,,fremont,CA,US,94082
FREMONT,"2035 46th Ave.",,,,Taipei,CA,US,94083
OTC556,"or Cynthia Morse",,,,Artesia,CA,US,94084
OTC556,"or Daniel Kamalic",,,,Phoenix,CA,US,94085
"GE US CA ADDRES","CA STREET1",,,,Aguada,PR,US,00602
"GE US CA  SITE","CA STREET1",,,,Aguada,PR,US,00602
OTC605,"1117 ZR LUCHTHAVEN",,,,"San Jose",CA,US,94086
OTC605,"1117 ZR LUCHTHAVEN",,,,Trapani,CA,US,94087
SEATTLE,"2574 Seaboard Ave",,,,Desio,CA,US,94088
OTC2632,"or Victor De Francisco",,,,"San Francisco",CA,US,94089
SUNNYVALE,"or David Kim",,,,Dallas,CA,US,94090
OTC6902,"OR ARI LAWSON",,,,Germany,CA,US,94091
OTC6902,"Hullenbergweg 107",,,,Taipei,CA,US,94092
FREMONT,"635 Bair Island Rd",,,,Taipei,CA,US,94093
OTC7047,"No. 7, Shih 2nd Road, Youth Industrial Park",,,,"Premier Building",CA,US,94094
OTC7047,Kaoshiung,,,,Moorpark,CA,US,94095
369,"Dept CH17658",,,,Azusa,CA,US,94096
TAO,"1643 Tsirelas Drive",,,,"San Francisco",CA,US,94097
"HONG KONG","325 10th St",,,,Taiwan,CA,US,94098
OTC9525,"ChengFeng Enterprise",,,,Taipei,CA,US,94100
OTC9525,"No.125, Sec. 2, Nankan Rd., Lujhu Township, Taoyuan County 338, Taiwan (R.O.C.)",,,,Seattle,CA,US,94101
"US HLS","26000 Towne Centre Drive",,,,"San Ramon",CA,US,94102
TW,Messegelande,,,,Milpitas,CA,US,94103
TAIWAN,TAOYUAN,,,,Taipei,CA,US,94104
TW,"Room 1606, K. Wah Center",,,,Taipei,CA,US,94105
"HONG JIN BAO","8F, No 49, Sec. 4, Jhongyang Rd., Tu Cheng Dist.",,,,"Los Angeles",CA,US,94106
TAIWAN,AP,,,,Paris,CA,US,94107
JORDAN,"Prince Shaker Bin Zaid Street",,,,Amman,,JO,
"WHT Address","WHT Address1","WHT Address2",,,Adjuntas,PR,US,00601
"WHT Site","WHT Address1","WHT Address2",,,Adjuntas,PR,US,00601
Roadnumber01,,,,,Califon,NJ,US,
"DA SHI MEN","2F., No.73, Jhongyuan Rd., Taiwan (R.O.C.)",,,,Jackson,CA,US,94108
NL-ADDR1,"11F., No.332, Sianfu Rd., Taoyuan City, Taoyuan County 330, Taiwan (R.O.C.)11F., No.332, Sianfu Rd., Taoyuan City, Taoyuan County 330, Taiwan (R.O.C.)",,,,"San Dimas",CA,US,94109
SWEDEN(ORG389),"Lofstromsvagen 3",,,,,,SE,
Org.389,"27/F, Block A, Southmark, - 11 Yip Hing Street, - Wong Chuk Hang,",,,,,,HK,
IT,"Via Ferruccio Amendola 58",,,,,,IT,
OTC572,"Fokkerstraat 222811 ER, ReeuwijkPostbus 2071, 2800 BE GoudaNL",,,,,,NL,
"GmbH Org","Nurnberger Str. 2",,,,,,DE,
"GmbH Org","Am Geflugelhof 17",,,,,,DE,
"ORG 389","RM1309,Baihuo Plaza(W),NO 3020,Shennan East RD,",,,,,,CN,
TW,HSINCHIU,,,,,,TW,
DE,"Theodorstr. 15",,,,,,DE,
INDIA(ORG389),"F-305, Jasmine block, Brigade Gardenia, Jp Nagar phase 7",,,,,,IN,
PRC,"No.200, Sec.3, Zhonghuan Rd., Xinzhuang Dist.",,,,,,TW,
OTC573,"Jan van Riebeeckweg 155928 LG   VenloNL",,,,,,NL,
FRANCE,"95 AVENUE DE BIARRITZ",,,,,,FR,
ORG.389,"ROOM 909, 9/F, LU PLAZA, 2 WING YIP STREET",,,,,,CN,
FR(ORG389),"5 RUE RAOUL FOLLEREAU",,,,,,FR,
IE(ORG100),"1 Grand Canal Square",,,,,,IE,
SUK,Accu,,,Huddersfield,,,GB,
ORG.389,"Basak Mahallesi Abdulhamithan Caddesi Yeditepe Evleri","B1 Blok Kat 5 Daire 25 Basaksehir Istanbul",,,ISTANBUL,,TR,
USSITE1,ADDLINE1,,,,Chicago,,US,
USSITE2,ADDLINE2,,,,Phoenix,,US,
INSITE1,ADDLINE3,,,,MUMBAI,,IN,
USSITE3,ADDLINE4,,,,"San Antonio",,US,
AUSITE1,ADDLINE5,,,,SYDNEY,,AU,
AUSITE2,ADDLINE6,,,,Melbourne,,AU,
INSITE2,ADDLINE7,,,,BANGLORE,,IN,
INSITE3,ADDLINE8,,,,DELHI,,IN,
AUSITE3,ADDLINE9,,,,NERANG,,AU,
USSITE4,ADDLINE10,,,,"New York",,US,
India,"Ghogha Circle",,,,,,IN,
"MS SITE1","90 Edgewater Drive",,,,Belmont,CA,US,94065
"Inc Site","Google Inc Address","Google Inc Address",,,Adjuntas,"Puerto Rico",US,00601
Mumbai,"ABC Building, Goregaon",,,,Fort,Maharashtra,IN,400001
Mumbai,"ABC Building, Goregaon",,,,Fort,Maharashtra,IN,400001
Mumbai,"ABC Building, Goregaon",,,,Fort,Maharashtra,IN,400001
KJ-CORP_S1,"91 Edgewater Drive",,,,London,London,IN,
KJ-CORP_S2,"90 Edgewater Drive",,,,Belmont,CA,US,94065
AMD,,,,,Alden,IL,US,60001
"ABC CISCO",,,,,Holtsville,"New York",US,00544
"TEST LOCAL SUPPLIER Addres",Ahmedabad,,,,Abhara,Gujarat,IN,
Seattle,t02_address_2,,,,Seattle,WA,US,
FBDI,"FBDI Address Line1",,,,Sandyville,IA,US,50001
WHT,,,,,Adjuntas,PR,US,00601
"JLL - London","12D, Business Park 25","The Wallbrook",,,London,,GB,"E10 5JL"
"JLL - London","12D, Business Park 25","The Wallbrook",,,London,,GB,"E10 5JL"
"JLL - London","The Walbrook, 25 Walbrook, London EC4N 8AF",,,,,,GB,
"Holtsville Site",,,,,Holtsville,NY,US,00544
866,2783,,,,Coimbatore,"Tamil Nadu",IN,
"Alden ","SAAR  Florida, Silicon Valley Street",,,,Alden,IA,US,50006
ABC,,,,,Holtsville,NY,US,00501
NY,"Digital NY Address",,,,Holtsville,"New York",US,00544
"US1 ADDRESS","US1 ADDRESS",,,,Albany,NY,US,12200
"US1 ADDRESS","US1 ADDRESS",,,,Albany,NY,US,12200
Site1,,,,,Sandyville,IA,US,50001
GNR_address,,,,,,,US,
TAX,,,,,Adjuntas,"Puerto Rico",US,00601
MD,"BRINKS NY Address",,,,Holtsville,NY,US,00544
Site1,,,,,Adjuntas,PR,US,00601
"LED Site"," B-209, Near, Church Gali, Block ",,,,Delhi,,IN,110096
California,,,,,California,Kentucky,US,41007
Seattle,t01_address_test,,,,Seattle,WA,US,
INC,,,,,Holtsville,"New York",US,00501
Australia,"Level 26, 44 Market Street",,,,Sydney,"New South Wales",AU,2000
Australia,"Level 26, 44 Market Street",,,,Sydney,"New South Wales",AU,2000
"anjanreddy hyderabad","lane 111",,,,hyderabad,Telangana,IN,
Hyderabad,"Hi-Tec City",,,,Hyderabad,"Andhra Pradesh",IN,
XYZ,,,,,Adjuntas,"Puerto Rico",US,00601
FBDI,,,,,Sandyville,IA,US,50001
INC,,,,,Holtsville,"New York",US,00544
"NEW YORK",,,,,Manhattan,NY,US,10003
HO,,,,,,,US,
WHT,,,,,Holtsville,"New York",US,00544
1,1,,,,,,US,
Pune,Test,,,,Pune,Maharashtra,IN,411003
"Exodus Site","43 Wholesome street",,,,,,GB,
INC,,,,,Holtsville,"New York",US,00501
WHT,,,,,Holtsville,NY,US,00501
"Tests Site","Alte Landstr. 21",,,,Dornstadt,Baden-Württemberg,DE,89160
"Chi & Fung Ltd Address",,,,,Canton,Ohio,US,44707
"MRF lane 101",,,,,,,US,
Pune,Pune,,,,Pune,Maharashtra,IN,411051
"AMEX US SUP30","AMEX US SUPPLIERS30","AMEX US SUPPLIERS30",,,Holtsville,"New York",US,00544
INC,,,,,Holtsville,NY,US,00501
WHT,,,,,Sandyville,IA,US,50001
FBDI,FBDI,,,,Sandyville,IA,US,50001
"India North",Mumbai,,,,,,IN,
India,Mumbai,,,,,,IN,
"United States",,,,,Manhattan,NY,US,10001
"RRR SITE","RRR ADRESS",,,,Albany,NY,US,12200
"Gurugram ","Plot 23 Sector 46",Gururgam,,,Gurgaon,Haryana,IN,
"Supplier-1 site",037,,,,Coimbatore,"Tamil Nadu",IN,
"RDT pune",Pune,,,,Pune,Maharashtra,IN,411001
"AB XYZ NY SITE","101 NY",,,,"New York",NY,US,10000
"SONY Site","SONY Address",,,,Albany,NY,US,12200
"PWC Address","PWC Address",,,,Albany,NY,US,12200
"Supplier Address",,,,,"Hato Rey",PR,US,00919
Anantapur,"line 123",,,,anantapur,"Andhra Pradesh",IN,515001
"GALAXY TOWERS 22ND FLOOR","GALAXY TOWERS, HYD",,,,,,IN,
"GALAXY TOWERS 22ND FLOOR","GALAXY TOWERS, HYD",,,,,,IN,
"ABC GE CAL SITE"," 10 California ",,,,Holtsville,"New York",US,00501
"ABC GE CAL SITE"," 10 California ",,,,Holtsville,"New York",US,00501
Pitsburgh,"one city",,,,Pittsburgh,Pennsylvania,US,15120
"Vendor B",,,,,Albany,NY,US,12200
"XO Address","Redwood City",,,,"Redwood City",CA,US,94061
"ETV Supplier Address",ETV,,,,Austin,TX,US,73344
Nandhu@anji@hyd,"Lane no 120",,,,Madurai,"Tamil Nadu",IN,625001
Site1,Riyadh,,,,Riyadh,,SA,
"South inida","south india",,,,,,IN,
"EMMAR Group Hyderbad",Banjarahills,,,,Hyderabad,Telangana,IN,
"Emmar Stie",Banjarahills,,,,Hyderabad,Telangana,IN,
"El Mohanseein","8 Agriculture st. Elbatal Ahmed abd El-Aziz",,,,Giza,,EG,12525
"Nile City Tower","Nile City Towers",,"18th floor","North Tower ",Cairo,,EG,11311
"AB SUPPLIER1 AD","7-1, LA",,,,"Los Angeles",CA,US,90001
2,"Street 10",,,,Abberley,,GB,"WR6 6AG"
"MSHR SUPPLIERS",ANANTAPUR,ANANTAPUR,ANANTAPUR,,Anantapur,"Andhra Pradesh",IN,515001
pune,Pune,,,,,,IN,
"Bhur Dubai ","Bhur Dubai ",,,,"Abu Dhabi",,QA,0000
"Bhur Dubai ","Bhur Dubai ",,,,"Abu Dhabi",,QA,0000
"Bhur Dubai ","Bhur Dubai ",,,,"Abu Dhabi",,QA,0000
"US1 Supplier-Telenor",,,,,Adjuntas,PR,US,00601
"USA Florida",Florida,,,,,PR,US,
"NY USA",,,,,Holtsville,NY,US,00501
"X Inc",,,,,Holtsville,NY,US,00501
"DP World Group Supp Address ","DP World Group SAddress Line 1",,,,Tustin,MI,US,49688
"DP WORLD SUPP2 BU","DP WORLD SUPP2 BUAddress Line 1	",,,,,,US,
"DP WORLD US BU 02 SupplierAddress ","DP WORLD US BU 02 Address Line 1",,,,Bedford,KY,US,40006
"United States",,,,,"A M F Greensboro",NC,US,
India,hyderbad,,,,Hyderabad,"Andhra Pradesh",IN,500054
AMEX,,,,,Holtsville,NY,US,00501
INTER,,,,,Holtsville,NY,US,00501
"UK Scotland","UK Scotland",,,,Aberdeen,,GB,AB10
"Head Office","Main Road",,,,Makati,,PH,1400
Corp,,,,,Adjuntas,PR,US,00601
NYBU1,"1 Federal Street",,,,Tustin,MI,US,49688
CORP,,,,,Holtsville,NY,US,00501
"Onewestz Address",address,,,,Aguada,PR,US,00602
CORP,,,,,Holtsville,NY,US,00501
Address1,Line1,,,,Langata,,KE,00509
"XABC Site",,,,,Holtsville,NY,US,00501
Internal,"Brinks Internal Address Name1",,,,Arvada,CO,US,80001
"Address 1",Line1,,,,Langata,,KE,00509
Site1,Line1,,,,Langata,,KE,00509
"Address 1",Line1,,,,Langata,,KE,00509
FBDI,"FBDI Address1",,,,Sandyville,IA,US,50001
"Cisco usa collector",,,,,Holtsville,NY,US,00501
"NCP Petty Address",,,,,"Le Droit Park",DC,US,20001
"ABC Tek adddress",,,,,Holtsville,"New York",US,00544
"ACHINNU Supplier address","ACHINNU Supplier address",,,,Holtsville,NY,US,00501
"SH AUH SITE","Abu Dhabi Mussfah",,,,"Abu Dhabi",,AE,
"SH DXB SITE","Abu Dhabi Mussfah",,,,"Abu Dhabi",,AE,
"S EMP2",,,,,Manhattan,NY,US,10020
"Cybage business","Cybage business park, bund garden road ","near wadia chowk ",,,Pune,Maharashtra,IN,411001
WHT,,,,,Aguada,PR,US,00602
XYZ,,,,,Aguada,"Puerto Rico",US,00602
AMEXSITEDEC1,AMEXNOV30202201ADD1,,,,MANHATTAN,NY,US,70001
AMEXSITEDEC2,AMEXNOV30202202ADD1,,,,MANHATTAN,NY,US,70001
"UK1 London","line 1",,,,"Aberarder House",,GB,
uk2,line1,,,,Hyderabad,"Andhra Pradesh",IN,500002
AMEXSITEDEC3,AMEXNOV30202203ADD1,,,,MANHATTAN,NY,US,70001
AMEXSITEDEC4,AMEXNOV30202204ADD1,,,,MANHATTAN,NY,US,70001
INC,,,,,Adjuntas,PR,US,00601
XYZITC,"XYZ Address",,,,Sandyville,IA,US,50001
FBDI,,,,,Sandyville,IA,US,50001
"El Mohandessin","El Mohandessin 11 Abd  El  Hameed Lotfy",,,,Giza,,EG,12525
"New Maadi","New Ma’adi","14 A, Road No. 276",,,Cairo,,EG,11311
"Dokki - Giza","ORMAN TOWER 2, FLOOR 12, APT. 123, 48 GIZA STREET",,,,Giza,,EG,12525
ABC,,,,,Adjuntas,"Puerto Rico",US,00601
J404,"CHB Towers,199","Peach house",,,Darlington,,GB,123456
S303,"Vintage garden,144","Gates Head ",,,"London ",,GB,234567
ABC,,,,,Holtsville,NY,US,00501
Inc,,,,,Sandyville,IA,US,50001
"RST PUNE",HINJEWADI,,,,,,IN,
"t01_address name","t01 address line 1",,,,Manhattan,"New York",US,10020
"DPWORLDGROUPS1Address Name	","DPWORLDGROUPS1Address Line 1",,,,Adair,IA,US,50002
Internal,,,,,Holtsville,NY,US,00501
Internal,,,,,Holtsville,NY,US,00501
"Aguada US",,,,,Aguada,"Puerto Rico",US,00602
AZ,,,,,Douglas,AZ,US,86555
WHT,,,,,Holtsville,NY,US,00501
"Fastrack ",,,,,,,US,
"Fastrack Us",,,,,,,US,
hp,hp,,,,Houston,TX,US,77001
"BSNL2 Site",,,,,Holtsville,NY,US,00501
Dacota,,,,,,,US,
newyork,newyork,newyork,,,Aaronsburg,Pennsylvania,US,16820
"ESW SUPPLIER ADDRS",Washington,,,,,,US,
"JNS SUPPLIER AD","JNA SUPPLIER ADRESS1","JNA SUPPLIER ADRESS2",,,Holtsville,"New York",US,00501
"JNS SUP SITE","JNA SUPPLIER ADRESS1","JNA SUPPLIER ADRESS2",,,Holtsville,"New York",US,00501
"Reliance Site","Guru Narayan Road",,,,Mumbai,,IN,400055
Singapore,"One Raffles Quay","North Tower","Level 18",,,,SG,048583
Singapore,1,"Wallich Street",15-01,,,,SG,078881
Singapore,1,"Wallich Street",15-01,,,,SG,078881
Singapore,"36 Pioneer Road",Singapore,,,,,SG,628504
Singapore,"36 Pioneer Road",Singapore,,,,,SG,628504
NewOne,"90 Edgewater Drive",,,,Belmont,CA,US,94065
"NCP APAR Netting","NCP APAR Netting",,,,Aguada,"Puerto Rico",US,00602
"Classic Supplier NY Site",,,,,Holtsville,NY,US,00501
MAIN-PURCH,"90 Edgewater Drive",,,,Belmont,CA,US,94065
"Road Number 1",,,,,Holtsville,NY,US,00544
"UK2 Supplier",linw78/45,,,,Hyderabad,"Andhra Pradesh",IN,500033
"EC2M 4NR",London,,,,London,,GB,"EC2M 4NR"
"ACT Org Address",,,,,Aguadilla,PR,US,00603
Singapore,"Blk 1001 ","Eunos Ave 8",01-32,,,,SG,409496
ATC,,,,,Holtsville,NY,US,00501
"TEST Address 1",MIDC,,,,Nagpur,Maharashtra,IN,
"REDWOOD CITY",,,,,"Redwood City",CA,US,94061
"REDWOOD CITY",,,,,"Redwood City",CA,US,94061
"AMEX HYD SITE","10-101,MADHAPUR",,,,Secunderabad,"Andhra Pradesh",IN,500003
WHT,,,,,Holtsville,NY,US,00501
Robotics,TEST,,,,"Abu Dhabi",,AE,
"XYZ Site",,,,,Holtsville,NY,US,00501
Site1,Sandyville,,,,Sandyville,IA,US,50001
London,Cambridge,,,,Bimbister,,GB,
"United Kingdom","8th Floor","100 Bishopsgate","London EC2N 4AG",,London,,GB,
"United Kingdom","8th Floor","100 Bishopsgate","London EC2N 4AG",,London,,GB,
"Hitachi Site",BanjaraHill,,,,Hyderabad,,IN,
"01SSS Riyadh",90-67,,,,Riyadh,,SA,89076
"01SSS Riyadh",90-67,,,,Riyadh,,SA,89076
Site1,,,,,Sandyville,IA,US,50001
ACE,,,,,Holtsville,NY,US,00544
"AMEX SUPPLIER A","AMEX SUPPLIER ADRESS2","AMEX SUPPLIER ADRESS3",,,Holtsville,NY,US,00544
E505,"Avenue park, 1011",Sheffield,,,Manchester,,GB,363002
T606,"Sunrise society,123","Stockton on tees ",,,Sheffield,,GB,123678
V202,"Lotus road, 121","Palace green ",,,Munich,,GB,238790
"PY GGN","PY GGN",,,,,,IN,
poijn,xyzz,,,,sdsgfthg,,AX,958677
"S EMP1",,,,,"New York",NY,US,10000
XYZ,,,,,Adjuntas,"Puerto Rico",US,00601
MAXX,,,,,Sandyville,IA,US,50001
ACC,,,,,Holtsville,NY,US,11742
Mayo,,,,,Holtsville,NY,US,00501
"GXO US SITE",,,,,Holtsville,NY,US,00501
"SSNR Supp Site","SSNR Supplier Address1","SSNR Supplier Address2",,,Anantapur,"Andhra Pradesh",IN,515001
"XY Inc",,,,,Holtsville,"New York",US,00544
"TATA HYD Supplier","1-101,Hi-TECH CITY",,,,Hyderabad,"Andhra Pradesh",IN,500004
DLF,,,,,Sandyville,IA,US,50001
"Test colony","gandhi test",,,,,,IN,
WHT,,,,,Adjuntas,PR,US,00601
HQ,123,,,,,Gujarat,IN,
LENOVO_US_PVTLT,"LANE NO 1","LANE NO 2",,,Aaron,Kentucky,US,42602
XYZ,,,,,Adjuntas,"Puerto Rico",US,00601
SITE,asfdqd,,,,sdsgfthg,,AX,958677
as,,,,,,,US,
Bangalore,Bangalore,,,,Bangalore,Karnataka,IN,560086
"Vintage Buildin",Karnataka,,,,Bangalore,Karnataka,IN,560004
INC,,,,,Adjuntas,PR,US,00601
"WHT SITE","WHT ADDRESS",,,,,Delhi,IN,
"WHT Site","WHT ADDRESS",,,,,Delhi,IN,
"AMAZON SUPPLIERS","AMAZON SUPPLIERS1","AMAZON SUPPLIERS2",,,Holtsville,"New York",US,00544
"AMEX Supplier1 ","AMEX Supplier1 Address1","AMEX Supplier1 Address2",,,Holtsville,NY,US,00544
HYD-1,HYD,,,,,,IN,
"UK GOV HYD",HYD,,,,,,IN,
"VEDANTH Sup sit","VEDANTH Supplier Address1","VEDANTH Supplier Address2",,,,NY,US,
1000,"AMEX SUPPLIER ADRESS2","AMEX SUPPLIER ADRESS3",,,Holtsville,NY,US,00544
2000,"AMEX SUPPLIER ADRESS2","AMEX SUPPLIER ADRESS3",,,Holtsville,NY,US,00544
VVN,"NR BUNGLOW AREA",,,,,,GB,
US,,,,,Adjuntas,"Puerto Rico",US,00601
"WHT-Abu Dhabi","Abu Dhabi",,,,"Abu Dhabi",,AE,
TEXAS,,,,,Waskom,TX,US,
HO,,,,,Abbeville,LA,US,
"SP Bhiwani","SP Bhiwani",,,,Faridabad,Haryana,IN,121003
"TATA BLR Supplier","2-101,Electrinic CITY",,,,Bangalore,Karnataka,IN,560008
INC,,,,,Sandyville,IA,US,50001
"S EMP3",,,,,Manhattan,NY,US,10020
"Abu Dhabi","Abu Dhabi",,,,"Abu Dhabi",,AE,
"GTATA Californi","GTATA California Add-1",,,,Holtsville,"New York",US,00501
Collections,,,,,Holtsville,NY,US,00501
London,ABC,,,,,,GB,
"TelecomEgypt WE",TelecomEgypt,,,,Cairo,,EG,11311
CORP,"BUZZCORP Address",,,,Sandyville,IA,US,50001
Inc,,,,,Adjuntas,"Puerto Rico",US,00601
SRK_PVTLTD,"KING STREET","LANE 3",,,"Texas Creek",Colorado,US,81223
"site 1",kjnsfkjbc,,,,"Andola County",,AF,998877
"Asus Site","Lane no 420",,,,,,US,
WHT,,,,,Holtsville,NY,US,00544
"Anji@ hyd","Lane no120",,,,Madurai,"Tamil Nadu",IN,6250011
"BANDRA MUMBAI","1 FLOOR BANDRA",,,,MUMBAI,Maharashtra,IN,400032
ABC,"ARVIND NAGAR",,,,Anantapur,"Andhra Pradesh",IN,515001
ITC,,,,,Holtsville,NY,US,00501
KHANAMET,KHANAMET,,,,,,IN,
"SHR Suplliers ","SHR Suplliers","SHR Suplliers","SHR Suplliers",,Anantapur,"Andhra Pradesh",IN,515001
"uppara ravi sit","uppara ravi kumar supplier ADDRESS1","uppara ravi kumar supplier ADDRESS2",,,,,US,
"TVL Site","Lane 1",,,,,,IN,
Rahul_Sidd_supp,Bangalore,Bangalore,,,Bangalore,Karnataka,IN,560086
"XYZ Site",,,,,Holtsville,NY,US,00501
12336,"JNS SUPPLIER ADRESS1","JNS  SUPPLIER ADRESS2",,,Holtsville,"New York",US,00501
12335,"JNS SUPPLIER ADRESS1","JNS  SUPPLIER ADRESS2",,,Holtsville,"New York",US,00501
"JNS SUP SITE","JNS SUPPLIER ADRESS1","JNS  SUPPLIER ADRESS2",,,Holtsville,"New York",US,00501
"Road Number 122","Road Number 12211",,,,,,US,
"delta ltd",,,,,Branch,LA,US,70516
"Road number 12399","Road number 12399",,,,Washington,DC,US,20001
Singapore,1,"Wallich Street",15-01,,,,SG,078881
Singapore,1,"Wallich Street",15-01,,,,SG,078881
Inc,,,,,Holtsville,NY,US,00501
Inc,,,,,Holtsville,NY,US,00501
"3M Inc","FBDI 4M Address1",,,,Sandyville,IA,US,50001
INC,"UBER INC Address Line 1",,,,Tsaile,AZ,US,86556
WHT,,,,,Holtsville,NY,US,00501
XSITE,,,,,Sandyville,IA,US,50001
"Asus Calafornia",,,,,,,US,
"xyz hyd","lane 115",,,,,,IN,
"AB 123 Supp Site","4-400, CA",,,,"Los Angeles",CA,US,90001
"AB 123 Supp Site1","4-400, CA",,,,"Los Angeles",CA,US,90001
"MAHI SUPP SITE","MAHI SUPP ADD",,,,"New York","New York",US,10000
"ETV ABC",,,,,Lufkin,Texas,US,75902
"ETV ABC",,,,,Lufkin,Texas,US,75902
Singapore,28,"KALLANG PLACE",#03-08,,,,SG,339158
Singapore,28,"KALLANG PLACE",#03-08,,,,SG,339158
"Arbaaz Site","290 Rasta Peth",,,,Channai,Maharashtra,IN,
"Dubai fata zam ","32 ,Dubai Street",,,,"ABU DHABI",MAHARASHTRA,IN,
"Dubai fata zam ","32 ,Dubai Street",,,,"ABU DHABI",MAHARASHTRA,IN,
"Ghasarghundi Ko","Ghasagundi chya khali",,,,KOLHAPUR,MAHARASHTRA,IN,
"Ghasarghundi Ko","Ghasagundi chya khali",,,,KOLHAPUR,MAHARASHTRA,IN,
"Petle Mumbai",Chandrpur,,,,CHANDRPUR,MAHARASHTRA,IN,
"Petle Mumbai",Chandrpur,,,,CHANDRPUR,MAHARASHTRA,IN,
"Nashik Phata Pu","Viman nagar",,,,PUNE,MAHARASHTRA,IN,
"Nashik Phata Pu","Viman nagar",,,,PUNE,MAHARASHTRA,IN,
"Jaitala Nagpur","Lane No 21",,,,NAGPUR,MAHARASHTRA,IN,
"Jaitala Nagpur","Lane No 21",,,,NAGPUR,MAHARASHTRA,IN,
BCG,,,,,Sandyville,IA,US,50001
Texas,Texas,,,,"A M F Greensboro","North Carolina",US,
"RST HYD",PUNE,,,,,,IN,
pune,pune,,,,Pune,Maharashtra,IN,411014
pune,pune,,,,Pune,Maharashtra,IN,411014
"gvk hyd",pimpri,,,,Pune,Maharashtra,IN,411002
"Jesu Address","Evershine Greenwood ",,,,Lufkin,Texas,US,75904
"Jesu Address","Evershine Greenwood ",,,,Lufkin,Texas,US,75904
"rashika site2","rashika supplier 2 address","BHARAT COLONY","NEAR AXIX BANK ATM",,"Kheri Kalan(113)",Haryana,IN,121002
Singapore,1,"Soon Lee St",#02-07,,,,SG,627605
Singapore,1,"Soon Lee St",#02-07,,,,SG,627605
"Lane No 21","Dubi fata zam zam colony",,,,Pune,Maharashtra,IN,
"Lane No 21","Dubi fata zam zam colony",,,,Pune,Maharashtra,IN,
"Mundra site",Mundra,,,,Mundra,Maharashtra,IN,
"IITA Site",ITPL,,,,Bangalore,Karnataka,IN,560067
XBCG,,,,,Holtsville,NY,US,00544
"UK Scotland","UK Scotland",,,,Aberdeen,,GB,AB10
"New York Site","New York",,,,"New York",NY,US,10451
BCG,,,,,Holtsville,NY,US,00501
NCP_Supplier_Add,,,,,Holtsville,"New York",US,00501
Tesam25S,Tesam25S,,,,Adel,IA,US,50003
DA,"Brinks Demo Address 1",,,,Arvada,CO,US,80001
INC,,,,,Sandyville,IA,US,50001
"REDWOOD TEST",,,,,"Redwood City",CA,US,94061
INC,,,,,Holtsville,NY,US,00501
INC,,,,,Adjuntas,PR,US,00601
AVR_Site,"ABC street","ABC Square",,,"AKATARAWA VALLEY",,NZ,5372
"1-101 Newyork",,,,,Holtsville,"New York",US,00501
"GXO  W.DC  ADDRESS","10-009 WASHIGON DC",,,,Manhattan,NY,US,10001
"GXO  W.DC  ADDRESS","10-009 WASHIGON DC",,,,Manhattan,NY,US,10001
"Patanjali 3rd party supplier",Pune,,,,,,IN,
FBDI,"FBDI ABCINC Address",,,,Sandyville,IA,US,50001
"AJMD Newyork",,,,,Holtsville,NY,US,00501
WHT,,,,,Holtsville,NY,US,00501
"California Site",California,,,,Adin,California,US,
01,"290 96 Rasta peth",,,,Pune,Maharashtra,IN,411011
"X Group",,,,,Holtsville,NY,US,00501
"India Office",Delhi,,,,Delhi,DELHI,IN,
Makati,Makati,,,,Makati,,PH,1400
"NY-BU3 Site","DP World Supplier-3 Address/ 1 Federal Street",,,,Tustin,MI,US,49688
INC,,,,,Holtsville,NY,US,00501
WHT,"UBER WHT Address Line 1",,,,"St. Louis",MO,US,63101
"Abu Dhabi",3045,,,,"Abu Dhabi",,AE,
"X INC",,,,,Aguada,"Puerto Rico",US,00602
"KVR Supplier Addres","KVR Building",,,,"Andola County",,AF,152456
1,"Street 10",GB,,,London,,GB,"NW3 2XN"
"SAI WORKS"," SAI WORKS","STREET NO10",,,"New York",NY,US,10000
Collection,,,,,Adjuntas,PR,US,00601
"cr7 kumta","cr7 kumta rd 888",,,,kumta,Karnataka,IN,581343
"ACT SITE",,,,,Holtsville,"New York",US,00501
Group,,,,,Holtsville,NY,US,00501
"X Inc",,,,,Holtsville,"New York",US,00544
California,,,,,California,KY,US,
"Tele 3 Road number 1",,,,,Adjuntas,PR,US,00601
XTC,,,,,Holtsville,"New York",US,00501
"CYGNET KURNOOL","Old Town, 2 town Police Station",,,,Kurnool,"Andhra Pradesh",IN,518395
"KESORAM HYD",Ameerpet,,,,Hyderabad,Telengana,IN,71500
"Collection Point",,,,,Holtsville,NY,US,00501
"A2Z WHT",,,,,Aguada,PR,US,00602
zbcxyz,"NY Address",,,,Amagansett,NY,US,
"TEam-21 ","TEam-21 Address","TEam-21 Address",,,Stephensport,KY,US,40170
Delhi,"ABC ",,,,delhi,Manipur,IN,500115
Delhi,"ABC ",,,,delhi,Manipur,IN,500115
WHT,,,,,Holtsville,NY,US,00501
"Delhi ",delhi,,,,Delhi,DELHI,IN,
Inc,,,,,Aguada,PR,US,00602
"A2z Supplier 2",,,,,Holtsville,"New York",US,00544
"Roadnumber 9999","VI Address",,,,Holtsville,NY,US,00544
XYZ,,,,,Holtsville,NY,US,00501
"Elite address1",,,,,Holtsville,NY,US,00501
"Classic Netting NY Site",,,,,Holtsville,"New York",US,00501
"Stuttgart Deliv",Sr82/2,,,,,,DE,
UK,"Bolton, United Kingdom",,,,Manchester,,GB,
UK,"Bolton, United Kingdom",,,,Manchester,,GB,
UK,"Bolton, United Kingdom",,,,Manchester,,GB,
XATC,"XATC Address",,,,Sandyville,IA,US,50001
FBDI,,,,,Sandyville,IA,US,50001
"Vinayak NY address","Vinayak Ny Address",,,,Albany,WY,US,
"Vinayak NY address","Vinayak Ny Address",,,,Albany,WY,US,
AMD,"FBDI AMD Address1",,,,Sandyville,IA,US,50001
"Washington DC Site","Washington DC",,,,Adna,Washington,US,
"UK Inc",1-11-123,,,,,,GB,
Spacex_USA_Engine_Supplier,,,,,Sandyville,IA,US,50001
INC,,,,,Holtsville,NY,US,00544
"CISCO USA UNIT SUPPLIER ADDRESS",,,,,Holtsville,"New York",US,00544
"CISCO USA UNIT SUPPLIER ADDRESS",,,,,Holtsville,"New York",US,00544
"Cisco WHT ADD",,,,,Holtsville,NY,US,00501
newyork,newyork,,,,Aaronsburg,Pennsylvania,US,16820
"XINC GROUP","XINC GROUP",,,,Holtsville,NY,US,00501
"ESW NEW SUPPLIER ADDRES",Florida,,,,,,US,
"ANT Site",,,,,Sandyville,IA,US,50001
BIZ,,,,,Adjuntas,"Puerto Rico",US,00601
"KINGDOM Supp Site","KINGDOM Suppliers1","KINGDOM Suppliers2",,,Holtsville,NY,US,00544
"ARUSHI Supplier Address",,,,,Holtsville,NY,US,00501
"WHT UK1",rahjs12,,,,Aberdeen,,GB,"AB10 1DX"
AMEXSITEDEC5,AMEXNOV30202205ADD1,,,,MANHATTAN,NY,US,70001
Beloit,"Beloit, Wisconsin, United States","Beloit, Wisconsin, United States",,,Beloit,KS,US,
"AMEX Supp Site","AMEX Sullier Address1","AMEX Sullier Address2",,,Holtsville,NY,US,00544
ABC,,,,,Adjuntas,"Puerto Rico",US,00601
AMEXDECSITE1,"AMEXNOV29SUP1 ADD1",,,,Manhattan,NY,US,10001
AMEXDECSITE2,"AMEXNOV29SUP2 ADD1",,,,Manhattan,NY,US,10002
AMEXDECSITE3,"AMEXNOV29SUP3 ADD1",,,,Manhattan,NY,US,10003
AMEXDECSITE4,"AMEXNOV29SUP4 ADD1",,,,Manhattan,NY,US,10004
AMEXDECSITE5,"AMEXNOV29SUP5 ADD1",,,,Manhattan,NY,US,10005
BUZZ,,,,,Holtsville,"New York",US,00544
3XYZ,,,,,Holtsville,"New York",US,00544
"Vendor A",,,,,Albany,NY,US,12200
"Vendor A",,,,,Albany,NY,US,12200
"AMD ADDRESS",,,,,Altoona,IA,US,50009
"Cleeng Supplier Adress-1","Ahmed Bin Ali Street",,,,Doha,,QA,23231
HQ,,,,,,,US,
Hyderabad,Hyderabad,,,,Hyderabad,Telangana,IN,500038
chennai,chennai,,,,chennai,"Tamil Nadu",IN,600001
Vijayawada,Vijayawada,,,,Vijayawada,"Andhra Pradesh",IN,520001
Bangalore,Bangalore,,,,Bangalore,Karnataka,IN,560001
Newyork,Newyork,,,,Newyork,"New York",US,10001
"ANT WHT",,,,,Holtsville,NY,US,00544
"HTC manufactures pvt ltd","HTC manufactures pvt ltd",,,,"1 No. Burgaon",Assam,IN,
"ITC SUPPLIER ADDRESS",BANGALORE,"ROAD NO:2","NEAR ASIAN TOWERS",,BANGALORE,Karnataka,IN,
"12, THA Street, HA, New York",,,,,,,US,
"FBDI ARON-SUPPLIER site",,,,,"New Brunswick",NJ,US,8989
" Aaha Supplier Add",,,,,"New York",NY,US,10001
"12, THA Street, HA, New York",,,,,,,US,
"12 districts",Mittelfranken,Erlangen-Höchstadt,BAVARIA,,,,DE,
"1Aha Supp Add",,,,,Holtsville,NY,US,00501
aexness,aexness,,,,Adjuntas,PR,US,00601
SUP1,"6th lane","76 cross street",,,Sharjah,,AE,
Daman_AUH,Daman_AUH,,,,"Abu Dhabi",,AE,
"ATAS Supplier Site",,,,,Sandyville,IA,US,50001
AW,"Awset Supplier Address",,,,Holtsville,NY,US,00501
"spacex address","spacex NY address",,,,Abbeville,Georgia,US,31001
"ARON CES","ARON CES",,,,"New York",NY,US,10001
"dase basro, paris",12,,,,,,FR,
"dase basro, paris",12,,,,,,FR,
"exness cisco",,,,,Aguada,"Puerto Rico",US,00602
Pune,Hinjewadi,,,,Pune,Maharashtra,IN,411001
"Rx Site",wakad,,,,Pune,Maharashtra,IN,
"Site AKT1",,,,,Abac,Georgia,US,
"SK address ",,,,,Florence,CA,US,90001
"11Aha Supp Add",,,,,"New York",NY,US,10001
"FIRE US LA",,,,,"Los Angeles",CA,US,90001
KSA-Riyadh,KSA-Riyadh,,,,Riyadh,,SA,
MSAI,"MSAIY NY ADDRESS",,,,Holtsville,NY,US,00544
ESW,Newyork,,,,,,US,
"ARON GROUP SITE","ARON GROUP ADDRESS1",,,,"New Brunswick",NJ,US,08989
AUS1,"5th lane main street",,,,Duabi,,AE,
"Sachin Mishra","Andheri East",,,,1sapur,Maharashtra,IN,
"670 Hay Street","2, La Trobe","Melbourne central",Australia,,Melbourne,Victoria,AU,
"NCP SupplierMerge",,,,,Holtsville,NY,US,00501
"Ontario Site","Address 1",,,,Toronto,,CA,
"Ontario Site","Address 1",,,,Toronto,,CA,
"British Columbia Site","Address 1",,,,"100 Mile House",,CA,
Site1,Add1,,,,Barrie,,CA,
"IC Site",,,,,Holtsville,NY,US,00501
"VATICAN ASSRESS NAME",,,,,Sandyville,IA,US,50001
Site1,"Tax office",,,,,,CA,
"Imac Parts","Little Collins","Suite 500",,,Aberfeldy,Victoria,AU,
"AAHA INT ADD",,,,,"New York",NY,US,10001
"EKC US Supplier ADD",,,,,Dixon,IL,US,61021
"BOD Supplier1 Address","AI Jadeda Street",,,,Doha,,QA,23231
"Australia Site","Address 2",,,,Abbeyard,Victoria,AU,
"Exness Trading  Crporation",,,,,Adjuntas,PR,US,00601
"Exness Trading  Crporation",,,,,Adjuntas,PR,US,00601
Bangalore,"HSR layout","Aps Grant park","111, 2nd cross",,Bangalore,Karnataka,IN,560032
"Supplier Test",,,,,Aaron,KY,US,
"AAHAA SITE","10TH STREET",,,,,,US,
"ITC GLOBAL Phoenix","Gateway 3rd",,,,Phoenix,AZ,US,85001
"ITC GLOBAL Phoen","Gateway 3rd",,,,Phoenix,AZ,US,85001
"ARON INC SITE",,,,,"New Brunswick",NJ,US,08989
"ARON INC ADDRESS",,,,,"New Brunswick",NJ,US,08989
"12th floor, Farz Tower, Washington",,,,,,,US,
AKSHAY,"A-204,","The Onyx",,,Pune,Maharashtra,IN,411033
Pune,"A-204,","The Onyx",,,Pune,Maharashtra,IN,411033
"Ali Bagh","123, Ali Bagh street",,,,Pune,Maharashtra,IN,411001
Komapalli,"hn - 265",,,,Faridabad,Haryana,IN,121001
Hinjewadi,Hinjewadi,,,,Pune,Maharashtra,IN,411053
"JSW STEEL LTD","JSW STEEL LTD",,,,1sapur,Maharashtra,IN,
"ARUSHI Site Address",,,,,Holtsville,NY,US,00501
FBDI,,,,,Sandyville,IA,US,50001
"Opera House ","Opera House, Mumbai ",,,,Pune,Maharashtra,IN,411043
surat,"1, Laxmi Vilas soc. Opp. Gorwa I.T.I, Refinery road, gorwa-390016, vadodara, gujarat",,,,Surat,Gujarat,IN,395007
Pune,Pune,,,,,Maharashtra,IN,
UK,"Bolton, United Kingdom",,,,Manchester,,GB,
UK,"Bolton, United Kingdom",,,,Manchester,,GB,
UK,"Bolton, United Kingdom",,,,Manchester,,GB,
UK,"Bolton, United Kingdom",,,,Manchester,,GB,
UK,"Bolton, United Kingdom",,,,Manchester,,GB,
FREMONT,"47690 Westinghouse Drive",,,,,,US,
USA,"1827 Marina Blvd.",,,,,,US,
"HONG KONG","Fokkerstraat 222811 ER, ReeuwijkPostbus 2071, 2800 BE GoudaNL",,,,Taipei,CA,US,94099
"Ford Automobiles",Dearborn,,,,APO,NY,US,
"MA 02210","25 Drydock Ave",Bolton,,,,,GB,
"nehru nagar","S884 NEHRU NAGAR",,,,Bhopal,"Madhya Pradesh",IN,462003
bu,"4/18 hariom nagar d cabin","Sabarmati ahmedabad",,,Ahmedabad,Gujarat,IN,380019
abc,"Financial District, Nanakramguda Gachibowli",,,,Hyderabad,Telangana,IN,500032
Digikey_HYDER,"SURVEY NO.12 (P), PLOT NO.2 KHANAMET,","SERILINGAMPALLY HYDERABAD",,,Hyderabad,Telangana,IN,500081
ARON6,,,,,"Firestone Park",CA,US,90001
IKEA_PUNE,IKEA_PUNE,,,,Pune,Maharashtra,IN,411052
WHT,,,,,Adjuntas,PR,US,00601
INC,,,,,Holtsville,NY,US,00501
"Quest Supplier",2894,Lufkin,,,Lufkin,TX,US,75904
UK,"Bolton, United Kingdom",,,,Manchester,,GB,
UK,"Bolton, United Kingdom",,,,Manchester,,GB,
UK,"Bolton, United Kingdom",,,,Manchester,,GB,
UK,"Bolton, United Kingdom",,,,Manchester,,GB,
"Act Address",,,,,Naguabo,"Puerto Rico",US,00718
Site1,add1,,,,,,CA,
"Aha Supp Add",,,,,"New York",NY,US,10001
"ARON COLLECTION SITE",,,,,"New Brunswick",NJ,US,08989
"ITC GLOBLA BANGALORE","ROAD NO 3","GANDHI ROAD","SITE 5",,Bangalore,Karnataka,IN,
ALINC,,,,,Holtsville,NY,US,00501
WHT,,,,,Holtsville,NY,US,00501
"X Site",,,,,Holtsville,NY,US,00544
"CFC TestBU1","Add 1",,,,Barrie,,CA,
"Amico TestBU1","Add 1",,,,Barrie,,CA,
"Add 1","Add 1",,,,Barrie,,CA,
"ARON SUPPLIER-1 ADDRESS SITE ",,,,,Holtsville,NY,US,00544
"ARON SUPPLIER-1 ADDRESS",,,,,Holtsville,NY,US,00544
"ADIGITAL Supplier Address",,,,,Holtsville,NY,US,00501
"ACHINNU Supplier Address",,,,,Holtsville,NY,US,00501
"Goras Building, 7th lane","2nd cross, 76987","YCR Street",,,"Abu Dhabi",,AE,
"EKC US ADD",,,,,Holtsville,NY,US,00501
Site1,add1,,,,Abernathy,Texas,US,
"SKOOM Address","SKOOM St1",,,,Florence,CA,US,90001
"SKOOM Site 2 ","SKOOM St1",,,,Florence,CA,US,90001
"ARON WHT US ADDRESS",,,,,"New Brunswick",NJ,US,08989
"ARON ",,,,,"Los Angeles",CA,US,90001
"ARON UK SITE",,,,,"Los Angeles",CA,US,90001
ARON,,,,,"New Brunswick",NJ,US,08989
"Exness IndianSuppliet","Exness Indian Supplier",,,,Hyderabad,"Andhra Pradesh",IN,500005
"Lee Gong","Haidan District",,,,,,CN,
"Ahaa Supp Add",,,,,"New York",NY,US,10001
"Aaha WHT Supplier Add",,,,,Holtsville,NY,US,00501
"Maibor Coporation","o.13, Tutang Industry Road","Tutang Village",,,,,CN,
"TACOS SUPP 1 ADD","TACOS ADD LINE1",,,,"New York",NY,US,10000
"Quest Lufkin",Lufkin,D-Mart,,,Lufkin,TX,US,75902
"WHT Address",,,,,Holtsville,NY,US,00544
Kabul,kabul,,,,Kabul,,AF,
Kabul,kabul,,,,Kabul,,AF,
Site11,"High Hills",,,,Pune,Maharashtra,IN,4444444
Maryland,Maryland-a,,,,Aaron,KY,US,
"GOOGLE ADDRESS",,,,,Sandyville,IA,US,50001
"GOOGLE 1",,,,,Sandyville,IA,US,50001
"GOOGLE 2",,,,,Sandyville,IA,US,50001
MAIN-PURCH,"ABC ADITYA BIRLA BU",,,,"New York",NY,US,10001
"ABC ADITYA BIRLA BU","ABC ADITYA BIRLA BU",,,,"New York",NY,US,10001
PARIS_PURCH,"GE Corporate BU",,,,"New York",NY,US,10001
"GE Corporate BU","GE Corporate BU",,,,"New York",NY,US,10001
"TGB BU","TGB BU",,,,"New York",NY,US,10001
"ACER BU","ACER BU",,,,"New York",NY,US,10001
"KINLEY BU","KINLEY BU",,,,"New York",NY,US,10001
"ABC United States","ABC WHT TAX CORP",,,,"New York",NY,US,10001
"Collection Agency Address",,,,,Holtsville,NY,US,00501
"Site 1","Delhovener Lindenhof 1",,,,Dormagen,Nordrhein-Westfalen,DE,41540
TACOS_INT_INV_ADD,TACOS_INT_INV_ADD_LINE,,,,Aguada,PR,US,00602
INC,"Awest INC Blore Address",,,,Holtsville,NY,US,00501
"Bajaj Auto Site","Loss Angles","Loss Angles",,,Aaronsburg,Pennsylvania,US,
"Bajaj Auto","Loss Angles","Loss Angles",,,Aaronsburg,Pennsylvania,US,
CORP,,,,,Holtsville,NY,US,00501
"ORG 389","29 APURVA INDUSTRIAL ESTATE MAKWANA ROAD",,,,,,IN,
KSA,"Ali Al Ksai Path 1",Otaigah,,,Riyadh,"Riyadh Region",SA,12673
Inactive,"ETA ADD 1",,,,Cairo,,EG,
"ETA SITE-1","ETA ADD 1",,,,Cairo,,EG,
Inactive,"Supplier 1 ADD 1",,,,Cairo,,EG,
"Supplier 1 SITE-1","Supplier 1 ADD 1",,,,Cairo,,EG,
"Supplier 1 SITE-2","Supplier 1 ADD 1",,,,Cairo,,EG,
Inactive,"Supplier 2 ADD 1",,,,Cairo,,EG,
"Supplier 2 SITE-1","Supplier 2 ADD 1",,,,Cairo,,EG,
Inactive,"Supplier 3 ADD 1",,,,Cairo,,EG,
"Supplier 3 SITE-1","Supplier 3 ADD 1",,,,Cairo,,EG,
Inactive,"Supplier 4 ADD 1",,,,Cairo,,EG,
"Supplier 4 SITE-1","Supplier 4 ADD 1",,,,Cairo,,EG,
Inactive,"Supplier 5 ADD 1",,,,Cairo,,EG,
"Supplier 5 SITE-2","Supplier 5 ADD 1",,,,Cairo,,EG,
"Supplier 5 SITE-1","Supplier 5 ADD 1",,,,Cairo,,EG,
Inactive,"Supplier 6 ADD 1",,,,Cairo,,EG,
"Supplier 6 SITE-2","Supplier 6 ADD 1",,,,Cairo,,EG,
"Supplier 6 SITE-1","Supplier 6 ADD 1",,,,Cairo,,EG,
Inactive,"ZATCA ADD 1",,,,Riyadh,,SA,
"ZATCA SITE-1","ZATCA ADD 1",,,,Riyadh,,SA,
Inactive,"Supplier 1 ADD 1",,,,Riyadh,,SA,
"Supplier 1 SITE-1","Supplier 1 ADD 1",,,,Riyadh,,SA,
"Supplier 1 SITE-2","Supplier 1 ADD 1",,,,Riyadh,,SA,
Inactive,"Supplier 2 ADD 1",,,,Riyadh,,SA,
"Supplier 2 SITE-1","Supplier 2 ADD 1",,,,Riyadh,,SA,
Inactive,"Supplier 3 ADD 1",,,,Riyadh,,SA,
"Supplier 3 SITE-1","Supplier 3 ADD 1",,,,Riyadh,,SA,
Inactive,"Supplier 4 ADD 1",,,,Riyadh,,SA,
"Supplier 4 SITE-1","Supplier 4 ADD 1",,,,Riyadh,,SA,
Inactive,"Supplier 5 ADD 1",,,,Riyadh,,SA,
"Supplier 5 SITE-1","Supplier 5 ADD 1",,,,Riyadh,,SA,
"Supplier 5 SITE-2","Supplier 5 ADD 1",,,,Riyadh,,SA,
Inactive,"Supplier 6 ADD 1",,,,Riyadh,,SA,
"Supplier 6 SITE-1","Supplier 6 ADD 1",,,,Riyadh,,SA,
"Supplier 6 SITE-2","Supplier 6 ADD 1",,,,Riyadh,,SA,
Mumbai,"123 Surendra depot","behind Church Gate",,,Mumbai,Maharashtra,IN,462563
"PAYMENT OFFICE",PQRST,PQRST,PQRST,,Pune,Maharashtra,IN,411003
Bilaspur2,"Shop no. 420, Shilpganga ",,,,Bilaspur,Chhattisgarh,IN,495001
Corporate,"Plot A9","Nagapur MIDC",,,Ahmadnagar,Maharashtra,IN,414001
Corporate,"Plot A9","Nagapur MIDC",,,Ahmadnagar,Maharashtra,IN,414001
"SP Gurgaon",SP,,,,,,IN,
HQ,pune,,,,mumbai,Maharashtra,IN,308000
Bangalore,Bangalore,,,,Bangalore,Karnataka,IN,560001
Site,"lane 21",,,,"Andola County",,AF,0000
ABC,"ABC 1",,,,"A' Chill",,GB,
